RestaurantID,Name,CuisineType,Pricing_for_2,Restaurant_Phone,OperatingHours,LocationID,ActiveFlag,OpenStatus,Locality,Restaurant_Address,Ratings,Coupons,Latitude,Longitude,CreatedDate,ModifiedDate
2772,Malvani Coastal Kitchen Spot,"Italian, Ice Cream, Chinese",1409,9553035110,06:00 - 11:00,41,True,Open,Joshi Chowk,"Ground Floor, Joshi Chowk, Visakhapatnam - 780487",3.5,"[{""code"": ""CASHBACK_2772"", ""min_amount"": 514, ""discount_amount"": 75, ""description"": ""\u20b975 off on Cash payments above \u20b9500"", ""payment_method"": ""Cash""}, {""code"": ""FESTIVAL_2772"", ""min_amount"": 1416, ""discount_amount"": 305, ""description"": ""\u20b9300 off on orders above \u20b91500"", ""payment_method"": null}, {""code"": ""CREDITCARD_2772"", ""min_amount"": 796, ""discount_amount"": 135, ""description"": ""\u20b9150 off on orders above \u20b9750 with Credit Card"", ""payment_method"": ""CreditCard""}]",14.78422886426522,83.127893475351,2021-08-13 11:11:35,2024-06-25 17:46:39
2773,Saswad Special Thali Treats,"Beverages, Mughlai, Japanese",518,9331191390,00:00 - 06:00,41,False,Closed,Merchant Chowk,"Second Floor, Merchant Chowk, Visakhapatnam - 780487",3.7,"[{""code"": ""CREDITCARD_2773"", ""min_amount"": 784, ""discount_amount"": 151, ""description"": ""\u20b9150 off on orders above \u20b9750 with Credit Card"", ""payment_method"": ""CreditCard""}, {""code"": ""FIRSTORDER_2773"", ""min_amount"": 328, ""discount_amount"": 73, ""description"": ""\u20b975 off on your first order above \u20b9300"", ""payment_method"": null}, {""code"": ""DEBITCARD_2773"", ""min_amount"": 606, ""discount_amount"": 106, ""description"": ""\u20b9100 off on orders above \u20b9600 with Debit Card"", ""payment_method"": ""DebitCard""}, {""code"": ""WELCOME_2773"", ""min_amount"": 511, ""discount_amount"": 107, ""description"": ""\u20b9100 off on orders above \u20b9500"", ""payment_method"": null}]",11.384540074379585,79.54692443319598,2021-04-28 11:05:47,2022-02-25 00:47:33
2774,Umami House,Chinese,293,9810026086,11:00 - 15:00,41,True,Open,Taneja Zila,"Second Floor, Taneja Zila, Visakhapatnam - 780487",4.1,"[{""code"": ""DEBITCARD_2774"", ""min_amount"": 616, ""discount_amount"": 97, ""description"": ""\u20b9100 off on orders above \u20b9600 with Debit Card"", ""payment_method"": ""DebitCard""}, {""code"": ""FIRSTORDER_2774"", ""min_amount"": 292, ""discount_amount"": 70, ""description"": ""\u20b975 off on your first order above \u20b9300"", ""payment_method"": null}, {""code"": ""FESTIVAL_2774"", ""min_amount"": 1430, ""discount_amount"": 326, ""description"": ""\u20b9300 off on orders above \u20b91500"", ""payment_method"": null}]",37.16846840329413,93.11932093498244,2021-02-06 19:16:42,2021-04-04 07:53:34
2775,Ahmedabadi Zaika,"Mediterranean, Ice Cream, Thai",534,9596348124,12:00 - 16:00,41,True,Open,Balasubramanian Path," Balasubramanian Path, Visakhapatnam - 780487",3.8,"[{""code"": ""FESTIVAL_2775"", ""min_amount"": 1444, ""discount_amount"": 286, ""description"": ""\u20b9300 off on orders above \u20b91500"", ""payment_method"": null}, {""code"": ""WELCOME_2775"", ""min_amount"": 471, ""discount_amount"": 108, ""description"": ""\u20b9100 off on orders above \u20b9500"", ""payment_method"": null}, {""code"": ""DEBITCARD_2775"", ""min_amount"": 645, ""discount_amount"": 96, ""description"": ""\u20b9100 off on orders above \u20b9600 with Debit Card"", ""payment_method"": ""DebitCard""}]",14.812763079931855,77.95827206755744,2021-06-03 14:04:48,2025-03-23 08:01:10
2776,NOVA,"Fast Food, Continental",742,9249926919,11:00 - 15:00,41,True,Open,Anne Ganj," Anne Ganj, Visakhapatnam - 780487",3.2,"[{""code"": ""DEBITCARD_2776"", ""min_amount"": 601, ""discount_amount"": 91, ""description"": ""\u20b9100 off on orders above \u20b9600 with Debit Card"", ""payment_method"": ""DebitCard""}, {""code"": ""CREDITCARD_2776"", ""min_amount"": 682, ""discount_amount"": 138, ""description"": ""\u20b9150 off on orders above \u20b9750 with Credit Card"", ""payment_method"": ""CreditCard""}, {""code"": ""SPECIAL_2776"", ""min_amount"": 820, ""discount_amount"": 158, ""description"": ""\u20b9150 off on orders above \u20b9800"", ""payment_method"": null}, {""code"": ""CASHBACK_2776"", ""min_amount"": 492, ""discount_amount"": 68, ""description"": ""\u20b975 off on Cash payments above \u20b9500"", ""payment_method"": ""Cash""}]",24.13813685828488,90.02724432267196,2021-10-31 21:38:51,2022-11-22 23:01:42
2777,Tandoor & Wok,"Fast Food, Bakery, Japanese",1333,9112327652,19:00 - 23:00,41,True,Open,Soni,"Ground Floor, Soni, Visakhapatnam - 780487",4.4,"[{""code"": ""CREDITCARD_2777"", ""min_amount"": 698, ""discount_amount"": 135, ""description"": ""\u20b9150 off on orders above \u20b9750 with Credit Card"", ""payment_method"": ""CreditCard""}, {""code"": ""SPECIAL_2777"", ""min_amount"": 835, ""discount_amount"": 156, ""description"": ""\u20b9150 off on orders above \u20b9800"", ""payment_method"": null}, {""code"": ""WEEKEND_2777"", ""min_amount"": 1094, ""discount_amount"": 210, ""description"": ""\u20b9200 off on orders above \u20b91000"", ""payment_method"": null}, {""code"": ""FESTIVAL_2777"", ""min_amount"": 1502, ""discount_amount"": 276, ""description"": ""\u20b9300 off on orders above \u20b91500"", ""payment_method"": null}]",28.305942775575986,84.0305029331711,2021-09-05 23:26:40,2022-03-08 16:52:34
2778,Flavor Reactor,"Bakery, Mexican",513,9501486939,20:00 - 00:00,41,True,Open,Narayan Marg," Narayan Marg, Visakhapatnam - 780487",4.2,"[{""code"": ""CREDITCARD_2778"", ""min_amount"": 691, ""discount_amount"": 145, ""description"": ""\u20b9150 off on orders above \u20b9750 with Credit Card"", ""payment_method"": ""CreditCard""}, {""code"": ""UPISAVE_2778"", ""min_amount"": 438, ""discount_amount"": 84, ""description"": ""\u20b980 off on orders above \u20b9400 with UPI"", ""payment_method"": ""UPI""}, {""code"": ""WELCOME_2778"", ""min_amount"": 473, ""discount_amount"": 94, ""description"": ""\u20b9100 off on orders above \u20b9500"", ""payment_method"": null}]",36.24219263148228,95.03549300165174,2020-12-15 10:29:44,2020-12-30 22:00:19
2779,Coastal Ember,Chinese,1698,9621828280,20:00 - 00:00,41,True,Open,Manda," Manda, Visakhapatnam - 780487",3.6,"[{""code"": ""CASHBACK_2779"", ""min_amount"": 537, ""discount_amount"": 73, ""description"": ""\u20b975 off on Cash payments above \u20b9500"", ""payment_method"": ""Cash""}, {""code"": ""WEEKEND_2779"", ""min_amount"": 942, ""discount_amount"": 201, ""description"": ""\u20b9200 off on orders above \u20b91000"", ""payment_method"": null}, {""code"": ""UPISAVE_2779"", ""min_amount"": 418, ""discount_amount"": 75, ""description"": ""\u20b980 off on orders above \u20b9400 with UPI"", ""payment_method"": ""UPI""}, {""code"": ""FIRSTORDER_2779"", ""min_amount"": 288, ""discount_amount"": 82, ""description"": ""\u20b975 off on your first order above \u20b9300"", ""payment_method"": null}]",30.762365335764045,72.36557631146823,2021-10-04 16:45:55,2025-02-26 13:12:22
2780,Taste of India,"Bakery, Fast Food",447,9366186631,11:00 - 15:00,41,True,Open,Vohra Street,"Second Floor, Vohra Street, Visakhapatnam - 780487",4.4,"[{""code"": ""FESTIVAL_2780"", ""min_amount"": 1418, ""discount_amount"": 324, ""description"": ""\u20b9300 off on orders above \u20b91500"", ""payment_method"": null}, {""code"": ""WELCOME_2780"", ""min_amount"": 535, ""discount_amount"": 91, ""description"": ""\u20b9100 off on orders above \u20b9500"", ""payment_method"": null}, {""code"": ""UPISAVE_2780"", ""min_amount"": 379, ""discount_amount"": 82, ""description"": ""\u20b980 off on orders above \u20b9400 with UPI"", ""payment_method"": ""UPI""}, {""code"": ""CREDITCARD_2780"", ""min_amount"": 707, ""discount_amount"": 138, ""description"": ""\u20b9150 off on orders above \u20b9750 with Credit Card"", ""payment_method"": ""CreditCard""}, {""code"": ""DEBITCARD_2780"", ""min_amount"": 652, ""discount_amount"": 101, ""description"": ""\u20b9100 off on orders above \u20b9600 with Debit Card"", ""payment_method"": ""DebitCard""}]",9.01420039220612,84.51445946521889,2021-04-04 22:08:52,2021-09-04 03:16:56
2781,Pearl & Caviar,Cafe,1853,9537077308,11:00 - 15:00,41,True,Open,Kannan Chowk,"Ground Floor, Kannan Chowk, Visakhapatnam - 780487",3.9,"[{""code"": ""UPISAVE_2781"", ""min_amount"": 438, ""discount_amount"": 73, ""description"": ""\u20b980 off on orders above \u20b9400 with UPI"", ""payment_method"": ""UPI""}, {""code"": ""WELCOME_2781"", ""min_amount"": 490, ""discount_amount"": 96, ""description"": ""\u20b9100 off on orders above \u20b9500"", ""payment_method"": null}, {""code"": ""CREDITCARD_2781"", ""min_amount"": 804, ""discount_amount"": 142, ""description"": ""\u20b9150 off on orders above \u20b9750 with Credit Card"", ""payment_method"": ""CreditCard""}, {""code"": ""DEBITCARD_2781"", ""min_amount"": 562, ""discount_amount"": 98, ""description"": ""\u20b9100 off on orders above \u20b9600 with Debit Card"", ""payment_method"": ""DebitCard""}]",27.642296285828166,78.81519552613176,2020-10-09 21:38:09,2023-10-26 15:14:03
2782,Solstice Kitchen,Japanese,1147,9368227631,20:00 - 00:00,41,True,Open,Bhargava Chowk,"Ground Floor, Bhargava Chowk, Visakhapatnam - 780487",3.3,"[{""code"": ""SPECIAL_2782"", ""min_amount"": 875, ""discount_amount"": 162, ""description"": ""\u20b9150 off on orders above \u20b9800"", ""payment_method"": null}, {""code"": ""WELCOME_2782"", ""min_amount"": 534, ""discount_amount"": 93, ""description"": ""\u20b9100 off on orders above \u20b9500"", ""payment_method"": null}, {""code"": ""CREDITCARD_2782"", ""min_amount"": 747, ""discount_amount"": 141, ""description"": ""\u20b9150 off on orders above \u20b9750 with Credit Card"", ""payment_method"": ""CreditCard""}, {""code"": ""FIRSTORDER_2782"", ""min_amount"": 294, ""discount_amount"": 68, ""description"": ""\u20b975 off on your first order above \u20b9300"", ""payment_method"": null}, {""code"": ""UPISAVE_2782"", ""min_amount"": 390, ""discount_amount"": 87, ""description"": ""\u20b980 off on orders above \u20b9400 with UPI"", ""payment_method"": ""UPI""}]",21.339417755560945,93.29151694095026,2021-12-19 01:39:05,2022-03-21 13:56:27
2783,Thali & Tandoor,"Lebanese, Beverages",1626,9884374109,00:00 - 06:00,41,False,Closed,Chawla Street," Chawla Street, Visakhapatnam - 780487",3.7,"[{""code"": ""FIRSTORDER_2783"", ""min_amount"": 304, ""discount_amount"": 75, ""description"": ""\u20b975 off on your first order above \u20b9300"", ""payment_method"": null}, {""code"": ""FESTIVAL_2783"", ""min_amount"": 1574, ""discount_amount"": 273, ""description"": ""\u20b9300 off on orders above \u20b91500"", ""payment_method"": null}, {""code"": ""WELCOME_2783"", ""min_amount"": 508, ""discount_amount"": 100, ""description"": ""\u20b9100 off on orders above \u20b9500"", ""payment_method"": null}]",27.726642308961765,82.59446880273111,2021-02-11 04:43:19,2024-05-09 14:09:07
2784,Nomadic Table,South Indian,1240,9186019028,20:00 - 00:00,41,True,Open,Sani Road,"Ground Floor, Sani Road, Visakhapatnam - 780487",3.7,"[{""code"": ""DEBITCARD_2784"", ""min_amount"": 569, ""discount_amount"": 101, ""description"": ""\u20b9100 off on orders above \u20b9600 with Debit Card"", ""payment_method"": ""DebitCard""}, {""code"": ""SPECIAL_2784"", ""min_amount"": 819, ""discount_amount"": 147, ""description"": ""\u20b9150 off on orders above \u20b9800"", ""payment_method"": null}, {""code"": ""FIRSTORDER_2784"", ""min_amount"": 305, ""discount_amount"": 75, ""description"": ""\u20b975 off on your first order above \u20b9300"", ""payment_method"": null}]",25.775025108340813,87.97731840539677,2021-05-23 01:03:41,2022-02-04 22:02:44
2785,Awadhi Aroma,Mughlai,688,9385201412,12:00 - 16:00,41,True,Open,Pingle Nagar,"Second Floor, Pingle Nagar, Visakhapatnam - 780487",3.8,"[{""code"": ""WELCOME_2785"", ""min_amount"": 549, ""discount_amount"": 109, ""description"": ""\u20b9100 off on orders above \u20b9500"", ""payment_method"": null}, {""code"": ""UPISAVE_2785"", ""min_amount"": 365, ""discount_amount"": 75, ""description"": ""\u20b980 off on orders above \u20b9400 with UPI"", ""payment_method"": ""UPI""}, {""code"": ""FIRSTORDER_2785"", ""min_amount"": 285, ""discount_amount"": 81, ""description"": ""\u20b975 off on your first order above \u20b9300"", ""payment_method"": null}]",21.7509575190572,95.22347337019244,2021-08-29 12:32:17,2022-08-16 06:37:47
2786,Rajkot Tandoor,Street Food,783,9269379374,12:00 - 16:00,41,True,Open,Guha Chowk," Guha Chowk, Visakhapatnam - 780487",3.9,"[{""code"": ""CASHBACK_2786"", ""min_amount"": 543, ""discount_amount"": 69, ""description"": ""\u20b975 off on Cash payments above \u20b9500"", ""payment_method"": ""Cash""}, {""code"": ""WELCOME_2786"", ""min_amount"": 537, ""discount_amount"": 95, ""description"": ""\u20b9100 off on orders above \u20b9500"", ""payment_method"": null}, {""code"": ""CREDITCARD_2786"", ""min_amount"": 808, ""discount_amount"": 157, ""description"": ""\u20b9150 off on orders above \u20b9750 with Credit Card"", ""payment_method"": ""CreditCard""}, {""code"": ""FIRSTORDER_2786"", ""min_amount"": 279, ""discount_amount"": 71, ""description"": ""\u20b975 off on your first order above \u20b9300"", ""payment_method"": null}, {""code"": ""WEEKEND_2786"", ""min_amount"": 942, ""discount_amount"": 193, ""description"": ""\u20b9200 off on orders above \u20b91000"", ""payment_method"": null}]",28.943365812551235,86.16340021147587,2020-11-26 01:29:25,2025-03-13 05:05:16
2787,Spoon Studio,"Bakery, Cafe",714,9154544899,06:00 - 11:00,41,True,Open,Trivedi,"Third Floor, Trivedi, Visakhapatnam - 780487",3.5,"[{""code"": ""WEEKEND_2787"", ""min_amount"": 988, ""discount_amount"": 208, ""description"": ""\u20b9200 off on orders above \u20b91000"", ""payment_method"": null}, {""code"": ""FIRSTORDER_2787"", ""min_amount"": 303, ""discount_amount"": 69, ""description"": ""\u20b975 off on your first order above \u20b9300"", ""payment_method"": null}, {""code"": ""SPECIAL_2787"", ""min_amount"": 871, ""discount_amount"": 155, ""description"": ""\u20b9150 off on orders above \u20b9800"", ""payment_method"": null}, {""code"": ""CREDITCARD_2787"", ""min_amount"": 697, ""discount_amount"": 136, ""description"": ""\u20b9150 off on orders above \u20b9750 with Credit Card"", ""payment_method"": ""CreditCard""}]",32.61696420966881,69.95867704936288,2021-12-22 03:45:34,2023-06-07 15:49:59
2788,Pesto Place,"Ice Cream, Continental, Beverages",461,9144913399,12:00 - 16:00,41,True,Open,Kapadia Circle,"Ground Floor, Kapadia Circle, Visakhapatnam - 780487",3.8,"[{""code"": ""SPECIAL_2788"", ""min_amount"": 809, ""discount_amount"": 161, ""description"": ""\u20b9150 off on orders above \u20b9800"", ""payment_method"": null}, {""code"": ""CREDITCARD_2788"", ""min_amount"": 821, ""discount_amount"": 157, ""description"": ""\u20b9150 off on orders above \u20b9750 with Credit Card"", ""payment_method"": ""CreditCard""}, {""code"": ""DEBITCARD_2788"", ""min_amount"": 651, ""discount_amount"": 94, ""description"": ""\u20b9100 off on orders above \u20b9600 with Debit Card"", ""payment_method"": ""DebitCard""}]",34.64859938657306,74.69768516959998,2021-01-18 10:17:06,2022-12-29 16:45:55
2789,Sahyadri Delights Junction,Beverages,250,9292587044,19:00 - 23:00,41,True,Open,Garg Nagar,"Second Floor, Garg Nagar, Visakhapatnam - 780487",3.7,"[{""code"": ""FESTIVAL_2789"", ""min_amount"": 1464, ""discount_amount"": 272, ""description"": ""\u20b9300 off on orders above \u20b91500"", ""payment_method"": null}, {""code"": ""FIRSTORDER_2789"", ""min_amount"": 298, ""discount_amount"": 70, ""description"": ""\u20b975 off on your first order above \u20b9300"", ""payment_method"": null}, {""code"": ""SPECIAL_2789"", ""min_amount"": 866, ""discount_amount"": 145, ""description"": ""\u20b9150 off on orders above \u20b9800"", ""payment_method"": null}, {""code"": ""CREDITCARD_2789"", ""min_amount"": 798, ""discount_amount"": 161, ""description"": ""\u20b9150 off on orders above \u20b9750 with Credit Card"", ""payment_method"": ""CreditCard""}, {""code"": ""WELCOME_2789"", ""min_amount"": 472, ""discount_amount"": 103, ""description"": ""\u20b9100 off on orders above \u20b9500"", ""payment_method"": null}]",31.24568568751085,80.45441090504686,2021-03-25 19:54:40,2024-12-23 08:19:09
2790,Desi Flavors Hub,"Japanese, Chinese",1783,9399708182,12:00 - 16:00,41,True,Open,Bakshi Nagar," Bakshi Nagar, Visakhapatnam - 780487",4.0,"[{""code"": ""CREDITCARD_2790"", ""min_amount"": 762, ""discount_amount"": 164, ""description"": ""\u20b9150 off on orders above \u20b9750 with Credit Card"", ""payment_method"": ""CreditCard""}, {""code"": ""WELCOME_2790"", ""min_amount"": 453, ""discount_amount"": 101, ""description"": ""\u20b9100 off on orders above \u20b9500"", ""payment_method"": null}, {""code"": ""UPISAVE_2790"", ""min_amount"": 387, ""discount_amount"": 84, ""description"": ""\u20b980 off on orders above \u20b9400 with UPI"", ""payment_method"": ""UPI""}, {""code"": ""WEEKEND_2790"", ""min_amount"": 987, ""discount_amount"": 219, ""description"": ""\u20b9200 off on orders above \u20b91000"", ""payment_method"": null}, {""code"": ""SPECIAL_2790"", ""min_amount"": 738, ""discount_amount"": 161, ""description"": ""\u20b9150 off on orders above \u20b9800"", ""payment_method"": null}]",20.070608823313776,96.71182356951032,2021-10-24 14:04:18,2023-09-01 00:34:53
2791,Sambar Spice,"South Indian, Beverages",203,9658260221,20:00 - 00:00,41,True,Open,Bains Nagar," Bains Nagar, Visakhapatnam - 780487",3.4,"[{""code"": ""FESTIVAL_2791"", ""min_amount"": 1536, ""discount_amount"": 309, ""description"": ""\u20b9300 off on orders above \u20b91500"", ""payment_method"": null}, {""code"": ""CREDITCARD_2791"", ""min_amount"": 693, ""discount_amount"": 162, ""description"": ""\u20b9150 off on orders above \u20b9750 with Credit Card"", ""payment_method"": ""CreditCard""}, {""code"": ""CASHBACK_2791"", ""min_amount"": 500, ""discount_amount"": 77, ""description"": ""\u20b975 off on Cash payments above \u20b9500"", ""payment_method"": ""Cash""}, {""code"": ""WELCOME_2791"", ""min_amount"": 482, ""discount_amount"": 103, ""description"": ""\u20b9100 off on orders above \u20b9500"", ""payment_method"": null}, {""code"": ""WEEKEND_2791"", ""min_amount"": 1010, ""discount_amount"": 187, ""description"": ""\u20b9200 off on orders above \u20b91000"", ""payment_method"": null}]",28.45622868990418,95.54451208735014,2021-08-12 11:36:50,2021-10-28 21:22:59
2792,The Grand Buffet,"Mediterranean, Pizza, Lebanese",1031,9688343096,20:00 - 00:00,41,True,Open,Das Street,"Second Floor, Das Street, Visakhapatnam - 780487",3.7,"[{""code"": ""CREDITCARD_2792"", ""min_amount"": 751, ""discount_amount"": 158, ""description"": ""\u20b9150 off on orders above \u20b9750 with Credit Card"", ""payment_method"": ""CreditCard""}, {""code"": ""UPISAVE_2792"", ""min_amount"": 436, ""discount_amount"": 83, ""description"": ""\u20b980 off on orders above \u20b9400 with UPI"", ""payment_method"": ""UPI""}, {""code"": ""FESTIVAL_2792"", ""min_amount"": 1547, ""discount_amount"": 287, ""description"": ""\u20b9300 off on orders above \u20b91500"", ""payment_method"": null}, {""code"": ""DEBITCARD_2792"", ""min_amount"": 619, ""discount_amount"": 102, ""description"": ""\u20b9100 off on orders above \u20b9600 with Debit Card"", ""payment_method"": ""DebitCard""}, {""code"": ""SPECIAL_2792"", ""min_amount"": 734, ""discount_amount"": 163, ""description"": ""\u20b9150 off on orders above \u20b9800"", ""payment_method"": null}]",16.777880532572674,80.97330668220978,2021-06-26 03:43:44,2022-05-15 19:50:48
2793,Royal Thali,"Lebanese, Thai, Mexican",501,9126226563,06:00 - 11:00,41,True,Open,Parekh Marg,"Third Floor, Parekh Marg, Visakhapatnam - 780487",4.1,"[{""code"": ""DEBITCARD_2793"", ""min_amount"": 586, ""discount_amount"": 97, ""description"": ""\u20b9100 off on orders above \u20b9600 with Debit Card"", ""payment_method"": ""DebitCard""}, {""code"": ""FESTIVAL_2793"", ""min_amount"": 1394, ""discount_amount"": 311, ""description"": ""\u20b9300 off on orders above \u20b91500"", ""payment_method"": null}, {""code"": ""CREDITCARD_2793"", ""min_amount"": 808, ""discount_amount"": 160, ""description"": ""\u20b9150 off on orders above \u20b9750 with Credit Card"", ""payment_method"": ""CreditCard""}, {""code"": ""CASHBACK_2793"", ""min_amount"": 538, ""discount_amount"": 79, ""description"": ""\u20b975 off on Cash payments above \u20b9500"", ""payment_method"": ""Cash""}]",26.249200013371865,90.64037062845564,2021-09-06 22:48:59,2024-11-10 06:34:10
2794,The Idli House,Bakery,1151,9153921577,16:00 - 19:00,41,True,Open,Roy Path,"Ground Floor, Roy Path, Visakhapatnam - 780487",3.7,"[{""code"": ""CASHBACK_2794"", ""min_amount"": 531, ""discount_amount"": 80, ""description"": ""\u20b975 off on Cash payments above \u20b9500"", ""payment_method"": ""Cash""}, {""code"": ""CREDITCARD_2794"", ""min_amount"": 739, ""discount_amount"": 162, ""description"": ""\u20b9150 off on orders above \u20b9750 with Credit Card"", ""payment_method"": ""CreditCard""}, {""code"": ""DEBITCARD_2794"", ""min_amount"": 593, ""discount_amount"": 93, ""description"": ""\u20b9100 off on orders above \u20b9600 with Debit Card"", ""payment_method"": ""DebitCard""}, {""code"": ""FESTIVAL_2794"", ""min_amount"": 1608, ""discount_amount"": 297, ""description"": ""\u20b9300 off on orders above \u20b91500"", ""payment_method"": null}, {""code"": ""FIRSTORDER_2794"", ""min_amount"": 315, ""discount_amount"": 80, ""description"": ""\u20b975 off on your first order above \u20b9300"", ""payment_method"": null}]",21.72868530372904,91.58044397917064,2021-07-28 22:55:07,2023-03-18 04:21:20
2795,Red Pepper Bistro,"Cafe, Thai, Japanese",1100,9183197117,19:00 - 23:00,41,True,Open,Narula,"First Floor, Narula, Visakhapatnam - 780487",3.9,"[{""code"": ""SPECIAL_2795"", ""min_amount"": 831, ""discount_amount"": 156, ""description"": ""\u20b9150 off on orders above \u20b9800"", ""payment_method"": null}, {""code"": ""WEEKEND_2795"", ""min_amount"": 912, ""discount_amount"": 196, ""description"": ""\u20b9200 off on orders above \u20b91000"", ""payment_method"": null}, {""code"": ""CASHBACK_2795"", ""min_amount"": 504, ""discount_amount"": 73, ""description"": ""\u20b975 off on Cash payments above \u20b9500"", ""payment_method"": ""Cash""}, {""code"": ""DEBITCARD_2795"", ""min_amount"": 564, ""discount_amount"": 98, ""description"": ""\u20b9100 off on orders above \u20b9600 with Debit Card"", ""payment_method"": ""DebitCard""}, {""code"": ""FESTIVAL_2795"", ""min_amount"": 1621, ""discount_amount"": 305, ""description"": ""\u20b9300 off on orders above \u20b91500"", ""payment_method"": null}]",16.33408112679979,77.82770817835566,2021-04-17 18:04:53,2022-04-27 02:59:31
2796,Desi Gujju Tadka,"Desserts, Cafe, North Indian",920,9420632895,20:00 - 00:00,41,True,Open,Nazareth,"Third Floor, Nazareth, Visakhapatnam - 780487",3.6,"[{""code"": ""FESTIVAL_2796"", ""min_amount"": 1495, ""discount_amount"": 293, ""description"": ""\u20b9300 off on orders above \u20b91500"", ""payment_method"": null}, {""code"": ""UPISAVE_2796"", ""min_amount"": 413, ""discount_amount"": 84, ""description"": ""\u20b980 off on orders above \u20b9400 with UPI"", ""payment_method"": ""UPI""}, {""code"": ""SPECIAL_2796"", ""min_amount"": 835, ""discount_amount"": 160, ""description"": ""\u20b9150 off on orders above \u20b9800"", ""payment_method"": null}, {""code"": ""WEEKEND_2796"", ""min_amount"": 1083, ""discount_amount"": 219, ""description"": ""\u20b9200 off on orders above \u20b91000"", ""payment_method"": null}, {""code"": ""CASHBACK_2796"", ""min_amount"": 503, ""discount_amount"": 81, ""description"": ""\u20b975 off on Cash payments above \u20b9500"", ""payment_method"": ""Cash""}]",24.11604057421876,89.67380243459401,2021-10-22 02:56:27,2023-01-04 10:07:24
2797,Yaki & Co.,"North Indian, Chinese, Beverages",477,9595744935,11:00 - 15:00,41,True,Open,Kashyap Ganj,"Second Floor, Kashyap Ganj, Visakhapatnam - 780487",4.3,"[{""code"": ""CREDITCARD_2797"", ""min_amount"": 712, ""discount_amount"": 137, ""description"": ""\u20b9150 off on orders above \u20b9750 with Credit Card"", ""payment_method"": ""CreditCard""}, {""code"": ""DEBITCARD_2797"", ""min_amount"": 542, ""discount_amount"": 100, ""description"": ""\u20b9100 off on orders above \u20b9600 with Debit Card"", ""payment_method"": ""DebitCard""}, {""code"": ""WEEKEND_2797"", ""min_amount"": 1099, ""discount_amount"": 193, ""description"": ""\u20b9200 off on orders above \u20b91000"", ""payment_method"": null}, {""code"": ""FESTIVAL_2797"", ""min_amount"": 1545, ""discount_amount"": 316, ""description"": ""\u20b9300 off on orders above \u20b91500"", ""payment_method"": null}]",19.469832834293676,74.7429011142378,2021-08-18 07:46:53,2022-04-20 19:52:13
2798,Kutchhi Rasoi Express,Thai,608,9121882877,19:00 - 23:00,41,True,Open,Banerjee Chowk,"First Floor, Banerjee Chowk, Visakhapatnam - 780487",3.7,"[{""code"": ""FESTIVAL_2798"", ""min_amount"": 1400, ""discount_amount"": 306, ""description"": ""\u20b9300 off on orders above \u20b91500"", ""payment_method"": null}, {""code"": ""UPISAVE_2798"", ""min_amount"": 419, ""discount_amount"": 73, ""description"": ""\u20b980 off on orders above \u20b9400 with UPI"", ""payment_method"": ""UPI""}, {""code"": ""CREDITCARD_2798"", ""min_amount"": 797, ""discount_amount"": 163, ""description"": ""\u20b9150 off on orders above \u20b9750 with Credit Card"", ""payment_method"": ""CreditCard""}, {""code"": ""WEEKEND_2798"", ""min_amount"": 921, ""discount_amount"": 181, ""description"": ""\u20b9200 off on orders above \u20b91000"", ""payment_method"": null}, {""code"": ""DEBITCARD_2798"", ""min_amount"": 577, ""discount_amount"": 103, ""description"": ""\u20b9100 off on orders above \u20b9600 with Debit Card"", ""payment_method"": ""DebitCard""}]",12.085652466326824,87.81305001389845,2021-05-25 04:51:16,2024-09-08 00:42:20
2799,Desi Continental Fusion,"Mexican, Chinese",1412,9841541582,20:00 - 00:00,41,True,Open,Shah Road,"First Floor, Shah Road, Visakhapatnam - 780487",3.3,"[{""code"": ""SPECIAL_2799"", ""min_amount"": 825, ""discount_amount"": 137, ""description"": ""\u20b9150 off on orders above \u20b9800"", ""payment_method"": null}, {""code"": ""WELCOME_2799"", ""min_amount"": 514, ""discount_amount"": 90, ""description"": ""\u20b9100 off on orders above \u20b9500"", ""payment_method"": null}, {""code"": ""WEEKEND_2799"", ""min_amount"": 984, ""discount_amount"": 199, ""description"": ""\u20b9200 off on orders above \u20b91000"", ""payment_method"": null}, {""code"": ""FIRSTORDER_2799"", ""min_amount"": 296, ""discount_amount"": 72, ""description"": ""\u20b975 off on your first order above \u20b9300"", ""payment_method"": null}, {""code"": ""FESTIVAL_2799"", ""min_amount"": 1617, ""discount_amount"": 297, ""description"": ""\u20b9300 off on orders above \u20b91500"", ""payment_method"": null}]",11.375518119022516,90.75432926535746,2021-03-24 02:02:41,2024-02-05 02:43:51
2800,Maharashtrian Feast Junction,"Mediterranean, Bakery",1532,9389998761,19:00 - 23:00,41,True,Open,Mishra Path," Mishra Path, Visakhapatnam - 780487",3.6,"[{""code"": ""FIRSTORDER_2800"", ""min_amount"": 286, ""discount_amount"": 74, ""description"": ""\u20b975 off on your first order above \u20b9300"", ""payment_method"": null}, {""code"": ""CREDITCARD_2800"", ""min_amount"": 787, ""discount_amount"": 152, ""description"": ""\u20b9150 off on orders above \u20b9750 with Credit Card"", ""payment_method"": ""CreditCard""}, {""code"": ""DEBITCARD_2800"", ""min_amount"": 620, ""discount_amount"": 96, ""description"": ""\u20b9100 off on orders above \u20b9600 with Debit Card"", ""payment_method"": ""DebitCard""}, {""code"": ""SPECIAL_2800"", ""min_amount"": 799, ""discount_amount"": 144, ""description"": ""\u20b9150 off on orders above \u20b9800"", ""payment_method"": null}, {""code"": ""WELCOME_2800"", ""min_amount"": 498, ""discount_amount"": 97, ""description"": ""\u20b9100 off on orders above \u20b9500"", ""payment_method"": null}]",31.019530350849983,81.9721461801652,2020-12-02 11:38:52,2022-03-03 17:58:15
2801,Zamindar Bhojan,"Japanese, Burger",1338,9110899674,16:00 - 19:00,41,True,Open,Sengupta Ganj,"First Floor, Sengupta Ganj, Visakhapatnam - 780487",4.3,"[{""code"": ""CASHBACK_2801"", ""min_amount"": 514, ""discount_amount"": 74, ""description"": ""\u20b975 off on Cash payments above \u20b9500"", ""payment_method"": ""Cash""}, {""code"": ""FESTIVAL_2801"", ""min_amount"": 1587, ""discount_amount"": 275, ""description"": ""\u20b9300 off on orders above \u20b91500"", ""payment_method"": null}, {""code"": ""CREDITCARD_2801"", ""min_amount"": 708, ""discount_amount"": 155, ""description"": ""\u20b9150 off on orders above \u20b9750 with Credit Card"", ""payment_method"": ""CreditCard""}, {""code"": ""UPISAVE_2801"", ""min_amount"": 384, ""discount_amount"": 81, ""description"": ""\u20b980 off on orders above \u20b9400 with UPI"", ""payment_method"": ""UPI""}]",10.89989848917422,89.25813166017474,2021-05-01 23:37:12,2023-02-07 23:35:04
2802,Pearl & Caviar,"Bakery, Street Food, Beverages",1727,9690975123,12:00 - 16:00,41,True,Open,Vala Street,"Third Floor, Vala Street, Visakhapatnam - 780487",3.8,"[{""code"": ""FESTIVAL_2802"", ""min_amount"": 1572, ""discount_amount"": 327, ""description"": ""\u20b9300 off on orders above \u20b91500"", ""payment_method"": null}, {""code"": ""CREDITCARD_2802"", ""min_amount"": 778, ""discount_amount"": 140, ""description"": ""\u20b9150 off on orders above \u20b9750 with Credit Card"", ""payment_method"": ""CreditCard""}, {""code"": ""WELCOME_2802"", ""min_amount"": 523, ""discount_amount"": 95, ""description"": ""\u20b9100 off on orders above \u20b9500"", ""payment_method"": null}]",16.310759667704936,75.87757495553689,2021-07-25 21:24:25,2022-06-27 21:23:34
2803,Ichigo House,"Burger, Lebanese, Italian",1905,9308432166,12:00 - 16:00,41,True,Open,Anne Zila,"Second Floor, Anne Zila, Visakhapatnam - 780487",4.1,"[{""code"": ""WEEKEND_2803"", ""min_amount"": 958, ""discount_amount"": 217, ""description"": ""\u20b9200 off on orders above \u20b91000"", ""payment_method"": null}, {""code"": ""FIRSTORDER_2803"", ""min_amount"": 308, ""discount_amount"": 78, ""description"": ""\u20b975 off on your first order above \u20b9300"", ""payment_method"": null}, {""code"": ""WELCOME_2803"", ""min_amount"": 460, ""discount_amount"": 90, ""description"": ""\u20b9100 off on orders above \u20b9500"", ""payment_method"": null}, {""code"": ""DEBITCARD_2803"", ""min_amount"": 574, ""discount_amount"": 99, ""description"": ""\u20b9100 off on orders above \u20b9600 with Debit Card"", ""payment_method"": ""DebitCard""}, {""code"": ""UPISAVE_2803"", ""min_amount"": 387, ""discount_amount"": 87, ""description"": ""\u20b980 off on orders above \u20b9400 with UPI"", ""payment_method"": ""UPI""}]",13.639693075613778,69.10393588516062,2021-04-03 08:36:39,2021-12-31 10:19:34
2804,Dum Biryani Express,"Italian, Chinese",1020,9628008852,06:00 - 11:00,41,True,Open,Thaker Nagar,"Ground Floor, Thaker Nagar, Visakhapatnam - 780487",3.8,"[{""code"": ""SPECIAL_2804"", ""min_amount"": 842, ""discount_amount"": 153, ""description"": ""\u20b9150 off on orders above \u20b9800"", ""payment_method"": null}, {""code"": ""FESTIVAL_2804"", ""min_amount"": 1587, ""discount_amount"": 283, ""description"": ""\u20b9300 off on orders above \u20b91500"", ""payment_method"": null}, {""code"": ""WELCOME_2804"", ""min_amount"": 502, ""discount_amount"": 99, ""description"": ""\u20b9100 off on orders above \u20b9500"", ""payment_method"": null}, {""code"": ""FIRSTORDER_2804"", ""min_amount"": 296, ""discount_amount"": 80, ""description"": ""\u20b975 off on your first order above \u20b9300"", ""payment_method"": null}]",12.830428602967928,91.8581062776526,2021-03-21 23:31:43,2022-07-17 15:06:47
2805,Crisp & Co.,"Pizza, South Indian",1448,9894664845,06:00 - 11:00,41,False,Closed,Roy Marg,"First Floor, Roy Marg, Visakhapatnam - 780487",3.9,"[{""code"": ""WEEKEND_2805"", ""min_amount"": 1010, ""discount_amount"": 186, ""description"": ""\u20b9200 off on orders above \u20b91000"", ""payment_method"": null}, {""code"": ""FESTIVAL_2805"", ""min_amount"": 1472, ""discount_amount"": 311, ""description"": ""\u20b9300 off on orders above \u20b91500"", ""payment_method"": null}, {""code"": ""SPECIAL_2805"", ""min_amount"": 795, ""discount_amount"": 135, ""description"": ""\u20b9150 off on orders above \u20b9800"", ""payment_method"": null}]",26.665038887872814,76.25564687702972,2021-02-22 02:11:37,2022-04-20 23:29:55
2806,Tandoori Momos,"Lebanese, Fast Food, Chinese",1607,9350636897,20:00 - 00:00,41,False,Closed,Raghavan Path," Raghavan Path, Visakhapatnam - 780487",3.8,"[{""code"": ""SPECIAL_2806"", ""min_amount"": 865, ""discount_amount"": 159, ""description"": ""\u20b9150 off on orders above \u20b9800"", ""payment_method"": null}, {""code"": ""FESTIVAL_2806"", ""min_amount"": 1371, ""discount_amount"": 279, ""description"": ""\u20b9300 off on orders above \u20b91500"", ""payment_method"": null}, {""code"": ""CREDITCARD_2806"", ""min_amount"": 721, ""discount_amount"": 157, ""description"": ""\u20b9150 off on orders above \u20b9750 with Credit Card"", ""payment_method"": ""CreditCard""}, {""code"": ""CASHBACK_2806"", ""min_amount"": 506, ""discount_amount"": 71, ""description"": ""\u20b975 off on Cash payments above \u20b9500"", ""payment_method"": ""Cash""}]",27.70654485131834,95.3562344886194,2020-11-03 17:33:28,2024-04-07 07:15:54
2807,Saswad Special Thali,"Lebanese, Desserts",757,9637377910,16:00 - 19:00,41,True,Open,Bhatia Ganj,"Third Floor, Bhatia Ganj, Visakhapatnam - 780487",3.9,"[{""code"": ""CREDITCARD_2807"", ""min_amount"": 709, ""discount_amount"": 155, ""description"": ""\u20b9150 off on orders above \u20b9750 with Credit Card"", ""payment_method"": ""CreditCard""}, {""code"": ""FIRSTORDER_2807"", ""min_amount"": 321, ""discount_amount"": 76, ""description"": ""\u20b975 off on your first order above \u20b9300"", ""payment_method"": null}, {""code"": ""WELCOME_2807"", ""min_amount"": 452, ""discount_amount"": 105, ""description"": ""\u20b9100 off on orders above \u20b9500"", ""payment_method"": null}, {""code"": ""DEBITCARD_2807"", ""min_amount"": 638, ""discount_amount"": 101, ""description"": ""\u20b9100 off on orders above \u20b9600 with Debit Card"", ""payment_method"": ""DebitCard""}]",10.74890207545959,69.83802538844216,2021-06-06 10:38:50,2024-03-12 01:55:57
2808,Chettinad Curry House,"Bakery, Fast Food",769,9294872482,00:00 - 06:00,41,True,Open,Hegde Zila,"Third Floor, Hegde Zila, Visakhapatnam - 780487",3.6,"[{""code"": ""UPISAVE_2808"", ""min_amount"": 386, ""discount_amount"": 82, ""description"": ""\u20b980 off on orders above \u20b9400 with UPI"", ""payment_method"": ""UPI""}, {""code"": ""CREDITCARD_2808"", ""min_amount"": 803, ""discount_amount"": 144, ""description"": ""\u20b9150 off on orders above \u20b9750 with Credit Card"", ""payment_method"": ""CreditCard""}, {""code"": ""FESTIVAL_2808"", ""min_amount"": 1558, ""discount_amount"": 287, ""description"": ""\u20b9300 off on orders above \u20b91500"", ""payment_method"": null}]",26.93571380805934,82.73877165255344,2020-10-30 15:37:31,2022-08-14 00:05:44
2809,Global Tandoor,"South Indian, Fast Food, Chinese",844,9371011200,12:00 - 16:00,41,True,Open,Chana Nagar,"Third Floor, Chana Nagar, Visakhapatnam - 780487",3.6,"[{""code"": ""CASHBACK_2809"", ""min_amount"": 455, ""discount_amount"": 75, ""description"": ""\u20b975 off on Cash payments above \u20b9500"", ""payment_method"": ""Cash""}, {""code"": ""UPISAVE_2809"", ""min_amount"": 409, ""discount_amount"": 79, ""description"": ""\u20b980 off on orders above \u20b9400 with UPI"", ""payment_method"": ""UPI""}, {""code"": ""FESTIVAL_2809"", ""min_amount"": 1482, ""discount_amount"": 273, ""description"": ""\u20b9300 off on orders above \u20b91500"", ""payment_method"": null}]",33.655389054314874,92.2516716533214,2020-11-13 04:54:55,2021-01-27 17:18:21
2810,Kebab-e-Khaas,"Continental, Lebanese, Fast Food",1630,9620455331,06:00 - 11:00,41,True,Open,Sawhney," Sawhney, Visakhapatnam - 780487",3.8,"[{""code"": ""CASHBACK_2810"", ""min_amount"": 459, ""discount_amount"": 82, ""description"": ""\u20b975 off on Cash payments above \u20b9500"", ""payment_method"": ""Cash""}, {""code"": ""WELCOME_2810"", ""min_amount"": 541, ""discount_amount"": 99, ""description"": ""\u20b9100 off on orders above \u20b9500"", ""payment_method"": null}, {""code"": ""FIRSTORDER_2810"", ""min_amount"": 277, ""discount_amount"": 79, ""description"": ""\u20b975 off on your first order above \u20b9300"", ""payment_method"": null}, {""code"": ""FESTIVAL_2810"", ""min_amount"": 1499, ""discount_amount"": 312, ""description"": ""\u20b9300 off on orders above \u20b91500"", ""payment_method"": null}]",31.739961011614547,88.9642996566124,2021-02-19 10:57:04,2025-01-18 04:32:13
2811,Stellar Spoon,"Japanese, Beverages, Cafe",1167,9361704064,16:00 - 19:00,41,True,Open,Kata Circle,"First Floor, Kata Circle, Visakhapatnam - 780487",3.9,"[{""code"": ""WEEKEND_2811"", ""min_amount"": 1086, ""discount_amount"": 200, ""description"": ""\u20b9200 off on orders above \u20b91000"", ""payment_method"": null}, {""code"": ""SPECIAL_2811"", ""min_amount"": 851, ""discount_amount"": 143, ""description"": ""\u20b9150 off on orders above \u20b9800"", ""payment_method"": null}, {""code"": ""CASHBACK_2811"", ""min_amount"": 479, ""discount_amount"": 76, ""description"": ""\u20b975 off on Cash payments above \u20b9500"", ""payment_method"": ""Cash""}, {""code"": ""FESTIVAL_2811"", ""min_amount"": 1649, ""discount_amount"": 299, ""description"": ""\u20b9300 off on orders above \u20b91500"", ""payment_method"": null}, {""code"": ""DEBITCARD_2811"", ""min_amount"": 557, ""discount_amount"": 100, ""description"": ""\u20b9100 off on orders above \u20b9600 with Debit Card"", ""payment_method"": ""DebitCard""}]",19.60071158681678,95.01933568054608,2020-10-19 19:19:02,2022-03-03 18:08:58
2812,Pizza Town,"Ice Cream, Burger",972,9588922557,00:00 - 06:00,41,True,Open,Butala Nagar,"First Floor, Butala Nagar, Visakhapatnam - 780487",4.3,"[{""code"": ""FESTIVAL_2812"", ""min_amount"": 1573, ""discount_amount"": 312, ""description"": ""\u20b9300 off on orders above \u20b91500"", ""payment_method"": null}, {""code"": ""DEBITCARD_2812"", ""min_amount"": 637, ""discount_amount"": 97, ""description"": ""\u20b9100 off on orders above \u20b9600 with Debit Card"", ""payment_method"": ""DebitCard""}, {""code"": ""WELCOME_2812"", ""min_amount"": 516, ""discount_amount"": 106, ""description"": ""\u20b9100 off on orders above \u20b9500"", ""payment_method"": null}, {""code"": ""WEEKEND_2812"", ""min_amount"": 1096, ""discount_amount"": 199, ""description"": ""\u20b9200 off on orders above \u20b91000"", ""payment_method"": null}]",37.03861923491176,75.51789828594642,2021-07-28 01:55:16,2023-03-19 03:58:22
2813,Rajkot Rasoi Express,Bakery,1408,9456476596,20:00 - 00:00,41,True,Open,Varty Ganj,"Third Floor, Varty Ganj, Visakhapatnam - 780487",3.9,"[{""code"": ""WEEKEND_2813"", ""min_amount"": 1030, ""discount_amount"": 186, ""description"": ""\u20b9200 off on orders above \u20b91000"", ""payment_method"": null}, {""code"": ""DEBITCARD_2813"", ""min_amount"": 596, ""discount_amount"": 109, ""description"": ""\u20b9100 off on orders above \u20b9600 with Debit Card"", ""payment_method"": ""DebitCard""}, {""code"": ""UPISAVE_2813"", ""min_amount"": 387, ""discount_amount"": 83, ""description"": ""\u20b980 off on orders above \u20b9400 with UPI"", ""payment_method"": ""UPI""}]",11.31158157406577,94.69310989823413,2021-09-05 08:19:08,2024-12-12 01:35:19
2814,Gujarati Delight,"Ice Cream, Desserts",848,9773020489,19:00 - 23:00,41,True,Open,Gulati,"Third Floor, Gulati, Visakhapatnam - 780487",3.7,"[{""code"": ""FESTIVAL_2814"", ""min_amount"": 1574, ""discount_amount"": 296, ""description"": ""\u20b9300 off on orders above \u20b91500"", ""payment_method"": null}, {""code"": ""FIRSTORDER_2814"", ""min_amount"": 275, ""discount_amount"": 77, ""description"": ""\u20b975 off on your first order above \u20b9300"", ""payment_method"": null}, {""code"": ""SPECIAL_2814"", ""min_amount"": 859, ""discount_amount"": 148, ""description"": ""\u20b9150 off on orders above \u20b9800"", ""payment_method"": null}]",33.873584108037264,69.72491930036595,2020-12-11 11:39:04,2023-03-09 16:01:11
2815,Stir Fry & More,South Indian,864,9954852540,06:00 - 11:00,41,False,Closed,Bassi Chowk,"Second Floor, Bassi Chowk, Visakhapatnam - 780487",3.5,"[{""code"": ""DEBITCARD_2815"", ""min_amount"": 613, ""discount_amount"": 97, ""description"": ""\u20b9100 off on orders above \u20b9600 with Debit Card"", ""payment_method"": ""DebitCard""}, {""code"": ""WEEKEND_2815"", ""min_amount"": 1036, ""discount_amount"": 199, ""description"": ""\u20b9200 off on orders above \u20b91000"", ""payment_method"": null}, {""code"": ""SPECIAL_2815"", ""min_amount"": 813, ""discount_amount"": 141, ""description"": ""\u20b9150 off on orders above \u20b9800"", ""payment_method"": null}, {""code"": ""CASHBACK_2815"", ""min_amount"": 513, ""discount_amount"": 74, ""description"": ""\u20b975 off on Cash payments above \u20b9500"", ""payment_method"": ""Cash""}, {""code"": ""WELCOME_2815"", ""min_amount"": 516, ""discount_amount"": 107, ""description"": ""\u20b9100 off on orders above \u20b9500"", ""payment_method"": null}]",19.345359821439196,72.85601766721783,2021-04-24 06:32:57,2025-02-24 19:50:12
2816,Veranda,"Ice Cream, Mediterranean",351,9574303740,00:00 - 06:00,41,True,Open,Pall Path," Pall Path, Visakhapatnam - 780487",3.1,"[{""code"": ""FIRSTORDER_2816"", ""min_amount"": 329, ""discount_amount"": 80, ""description"": ""\u20b975 off on your first order above \u20b9300"", ""payment_method"": null}, {""code"": ""UPISAVE_2816"", ""min_amount"": 368, ""discount_amount"": 78, ""description"": ""\u20b980 off on orders above \u20b9400 with UPI"", ""payment_method"": ""UPI""}, {""code"": ""DEBITCARD_2816"", ""min_amount"": 583, ""discount_amount"": 95, ""description"": ""\u20b9100 off on orders above \u20b9600 with Debit Card"", ""payment_method"": ""DebitCard""}, {""code"": ""WEEKEND_2816"", ""min_amount"": 1039, ""discount_amount"": 180, ""description"": ""\u20b9200 off on orders above \u20b91000"", ""payment_method"": null}, {""code"": ""SPECIAL_2816"", ""min_amount"": 852, ""discount_amount"": 146, ""description"": ""\u20b9150 off on orders above \u20b9800"", ""payment_method"": null}]",17.13530407441415,96.16593002910926,2021-06-15 16:48:51,2023-06-23 20:06:35
2817,Kutchhi Rasoi,"South Indian, Cafe, Lebanese",1788,9957769526,11:00 - 15:00,41,True,Open,Barman Road,"Second Floor, Barman Road, Visakhapatnam - 780487",3.8,"[{""code"": ""WEEKEND_2817"", ""min_amount"": 907, ""discount_amount"": 211, ""description"": ""\u20b9200 off on orders above \u20b91000"", ""payment_method"": null}, {""code"": ""SPECIAL_2817"", ""min_amount"": 725, ""discount_amount"": 145, ""description"": ""\u20b9150 off on orders above \u20b9800"", ""payment_method"": null}, {""code"": ""CREDITCARD_2817"", ""min_amount"": 694, ""discount_amount"": 162, ""description"": ""\u20b9150 off on orders above \u20b9750 with Credit Card"", ""payment_method"": ""CreditCard""}, {""code"": ""DEBITCARD_2817"", ""min_amount"": 579, ""discount_amount"": 98, ""description"": ""\u20b9100 off on orders above \u20b9600 with Debit Card"", ""payment_method"": ""DebitCard""}]",14.79493253670068,74.12826829386087,2021-02-07 12:35:52,2024-04-02 07:45:02
2818,Payasam & More,Ice Cream,1994,9492836532,16:00 - 19:00,41,True,Open,Vaidya Zila,"Second Floor, Vaidya Zila, Visakhapatnam - 780487",3.9,"[{""code"": ""FIRSTORDER_2818"", ""min_amount"": 298, ""discount_amount"": 68, ""description"": ""\u20b975 off on your first order above \u20b9300"", ""payment_method"": null}, {""code"": ""CREDITCARD_2818"", ""min_amount"": 788, ""discount_amount"": 141, ""description"": ""\u20b9150 off on orders above \u20b9750 with Credit Card"", ""payment_method"": ""CreditCard""}, {""code"": ""DEBITCARD_2818"", ""min_amount"": 621, ""discount_amount"": 103, ""description"": ""\u20b9100 off on orders above \u20b9600 with Debit Card"", ""payment_method"": ""DebitCard""}, {""code"": ""WELCOME_2818"", ""min_amount"": 489, ""discount_amount"": 106, ""description"": ""\u20b9100 off on orders above \u20b9500"", ""payment_method"": null}]",32.649800491368005,76.03649591428115,2021-01-11 17:07:47,2021-05-20 23:47:13
2819,Tide & Table,"Chinese, Desserts",228,9383960237,16:00 - 19:00,41,True,Open,Sani Road,"Third Floor, Sani Road, Visakhapatnam - 780487",3.4,"[{""code"": ""DEBITCARD_2819"", ""min_amount"": 568, ""discount_amount"": 90, ""description"": ""\u20b9100 off on orders above \u20b9600 with Debit Card"", ""payment_method"": ""DebitCard""}, {""code"": ""CREDITCARD_2819"", ""min_amount"": 807, ""discount_amount"": 151, ""description"": ""\u20b9150 off on orders above \u20b9750 with Credit Card"", ""payment_method"": ""CreditCard""}, {""code"": ""WELCOME_2819"", ""min_amount"": 541, ""discount_amount"": 94, ""description"": ""\u20b9100 off on orders above \u20b9500"", ""payment_method"": null}, {""code"": ""UPISAVE_2819"", ""min_amount"": 365, ""discount_amount"": 85, ""description"": ""\u20b980 off on orders above \u20b9400 with UPI"", ""payment_method"": ""UPI""}]",19.16270123158834,90.08428128097452,2021-06-01 12:37:41,2023-01-30 01:02:31
2820,Dragon Spice House,"Beverages, Italian, Continental",292,9139956218,12:00 - 16:00,41,True,Open,Bansal Nagar,"Third Floor, Bansal Nagar, Visakhapatnam - 780487",4.0,"[{""code"": ""WEEKEND_2820"", ""min_amount"": 983, ""discount_amount"": 209, ""description"": ""\u20b9200 off on orders above \u20b91000"", ""payment_method"": null}, {""code"": ""DEBITCARD_2820"", ""min_amount"": 558, ""discount_amount"": 98, ""description"": ""\u20b9100 off on orders above \u20b9600 with Debit Card"", ""payment_method"": ""DebitCard""}, {""code"": ""FESTIVAL_2820"", ""min_amount"": 1379, ""discount_amount"": 299, ""description"": ""\u20b9300 off on orders above \u20b91500"", ""payment_method"": null}, {""code"": ""CASHBACK_2820"", ""min_amount"": 490, ""discount_amount"": 81, ""description"": ""\u20b975 off on Cash payments above \u20b9500"", ""payment_method"": ""Cash""}, {""code"": ""FIRSTORDER_2820"", ""min_amount"": 271, ""discount_amount"": 73, ""description"": ""\u20b975 off on your first order above \u20b9300"", ""payment_method"": null}]",11.790718037173198,75.40354092591444,2021-04-05 23:03:25,2024-07-23 12:06:58
2821,Rosewood Kitchen,"Thai, Street Food",403,9836243579,12:00 - 16:00,41,True,Open,Sha Chowk,"Second Floor, Sha Chowk, Visakhapatnam - 780487",3.7,"[{""code"": ""UPISAVE_2821"", ""min_amount"": 376, ""discount_amount"": 82, ""description"": ""\u20b980 off on orders above \u20b9400 with UPI"", ""payment_method"": ""UPI""}, {""code"": ""SPECIAL_2821"", ""min_amount"": 875, ""discount_amount"": 136, ""description"": ""\u20b9150 off on orders above \u20b9800"", ""payment_method"": null}, {""code"": ""CREDITCARD_2821"", ""min_amount"": 725, ""discount_amount"": 164, ""description"": ""\u20b9150 off on orders above \u20b9750 with Credit Card"", ""payment_method"": ""CreditCard""}]",10.168062603664977,76.5764151365983,2021-05-12 10:11:08,2022-04-17 09:06:35
2822,Shoreline Eats,Chinese,1899,9921581473,16:00 - 19:00,41,False,Closed,Buch," Buch, Visakhapatnam - 780487",3.9,"[{""code"": ""WEEKEND_2822"", ""min_amount"": 1097, ""discount_amount"": 201, ""description"": ""\u20b9200 off on orders above \u20b91000"", ""payment_method"": null}, {""code"": ""WELCOME_2822"", ""min_amount"": 529, ""discount_amount"": 92, ""description"": ""\u20b9100 off on orders above \u20b9500"", ""payment_method"": null}, {""code"": ""CASHBACK_2822"", ""min_amount"": 536, ""discount_amount"": 69, ""description"": ""\u20b975 off on Cash payments above \u20b9500"", ""payment_method"": ""Cash""}, {""code"": ""SPECIAL_2822"", ""min_amount"": 777, ""discount_amount"": 158, ""description"": ""\u20b9150 off on orders above \u20b9800"", ""payment_method"": null}]",14.705779476025304,93.5298044342705,2021-12-20 09:00:25,2023-05-11 00:18:00
2823,Kimchi Flame,"North Indian, Mediterranean",743,9156263020,06:00 - 11:00,41,True,Open,Samra Marg,"Third Floor, Samra Marg, Visakhapatnam - 780487",4.2,"[{""code"": ""UPISAVE_2823"", ""min_amount"": 368, ""discount_amount"": 80, ""description"": ""\u20b980 off on orders above \u20b9400 with UPI"", ""payment_method"": ""UPI""}, {""code"": ""CREDITCARD_2823"", ""min_amount"": 816, ""discount_amount"": 136, ""description"": ""\u20b9150 off on orders above \u20b9750 with Credit Card"", ""payment_method"": ""CreditCard""}, {""code"": ""FIRSTORDER_2823"", ""min_amount"": 316, ""discount_amount"": 80, ""description"": ""\u20b975 off on your first order above \u20b9300"", ""payment_method"": null}, {""code"": ""DEBITCARD_2823"", ""min_amount"": 602, ""discount_amount"": 99, ""description"": ""\u20b9100 off on orders above \u20b9600 with Debit Card"", ""payment_method"": ""DebitCard""}]",23.76169737665772,89.98874360222058,2021-04-30 01:49:49,2024-09-10 16:40:36
2824,Garam Rotlo,Cafe,1935,9531233244,12:00 - 16:00,41,False,Closed,Mani Road,"Ground Floor, Mani Road, Visakhapatnam - 780487",3.6,"[{""code"": ""SPECIAL_2824"", ""min_amount"": 743, ""discount_amount"": 138, ""description"": ""\u20b9150 off on orders above \u20b9800"", ""payment_method"": null}, {""code"": ""CREDITCARD_2824"", ""min_amount"": 768, ""discount_amount"": 152, ""description"": ""\u20b9150 off on orders above \u20b9750 with Credit Card"", ""payment_method"": ""CreditCard""}, {""code"": ""FIRSTORDER_2824"", ""min_amount"": 312, ""discount_amount"": 73, ""description"": ""\u20b975 off on your first order above \u20b9300"", ""payment_method"": null}]",22.715850541011378,94.6719586712398,2021-02-28 09:55:06,2022-12-04 12:02:45
2825,Espresso Lane,"Lebanese, Fast Food, Bakery",1439,9561923010,06:00 - 11:00,41,True,Open,Dash Chowk,"Ground Floor, Dash Chowk, Visakhapatnam - 780487",3.3,"[{""code"": ""FESTIVAL_2825"", ""min_amount"": 1451, ""discount_amount"": 297, ""description"": ""\u20b9300 off on orders above \u20b91500"", ""payment_method"": null}, {""code"": ""DEBITCARD_2825"", ""min_amount"": 589, ""discount_amount"": 91, ""description"": ""\u20b9100 off on orders above \u20b9600 with Debit Card"", ""payment_method"": ""DebitCard""}, {""code"": ""CASHBACK_2825"", ""min_amount"": 492, ""discount_amount"": 77, ""description"": ""\u20b975 off on Cash payments above \u20b9500"", ""payment_method"": ""Cash""}, {""code"": ""SPECIAL_2825"", ""min_amount"": 779, ""discount_amount"": 139, ""description"": ""\u20b9150 off on orders above \u20b9800"", ""payment_method"": null}, {""code"": ""UPISAVE_2825"", ""min_amount"": 433, ""discount_amount"": 73, ""description"": ""\u20b980 off on orders above \u20b9400 with UPI"", ""payment_method"": ""UPI""}]",33.3015479290308,87.28367078236127,2021-06-28 15:43:59,2022-10-30 02:33:08
2826,Swaminarayan Kitchen,Beverages,397,9899496315,19:00 - 23:00,42,True,Open,Rajagopal Road,"First Floor, Rajagopal Road, jamnagar - 887572",3.5,"[{""code"": ""CASHBACK_2826"", ""min_amount"": 485, ""discount_amount"": 77, ""description"": ""\u20b975 off on Cash payments above \u20b9500"", ""payment_method"": ""Cash""}, {""code"": ""CREDITCARD_2826"", ""min_amount"": 787, ""discount_amount"": 161, ""description"": ""\u20b9150 off on orders above \u20b9750 with Credit Card"", ""payment_method"": ""CreditCard""}, {""code"": ""UPISAVE_2826"", ""min_amount"": 417, ""discount_amount"": 87, ""description"": ""\u20b980 off on orders above \u20b9400 with UPI"", ""payment_method"": ""UPI""}, {""code"": ""WELCOME_2826"", ""min_amount"": 510, ""discount_amount"": 97, ""description"": ""\u20b9100 off on orders above \u20b9500"", ""payment_method"": null}, {""code"": ""FESTIVAL_2826"", ""min_amount"": 1523, ""discount_amount"": 282, ""description"": ""\u20b9300 off on orders above \u20b91500"", ""payment_method"": null}]",24.646025479968223,85.44357811221207,2021-04-08 00:18:16,2024-07-02 16:26:45
2827,Vibe & Dine,Italian,917,9697285504,12:00 - 16:00,42,False,Closed,Pal Ganj,"Second Floor, Pal Ganj, jamnagar - 887572",3.3,"[{""code"": ""CASHBACK_2827"", ""min_amount"": 452, ""discount_amount"": 71, ""description"": ""\u20b975 off on Cash payments above \u20b9500"", ""payment_method"": ""Cash""}, {""code"": ""WELCOME_2827"", ""min_amount"": 526, ""discount_amount"": 108, ""description"": ""\u20b9100 off on orders above \u20b9500"", ""payment_method"": null}, {""code"": ""FIRSTORDER_2827"", ""min_amount"": 291, ""discount_amount"": 70, ""description"": ""\u20b975 off on your first order above \u20b9300"", ""payment_method"": null}, {""code"": ""CREDITCARD_2827"", ""min_amount"": 696, ""discount_amount"": 154, ""description"": ""\u20b9150 off on orders above \u20b9750 with Credit Card"", ""payment_method"": ""CreditCard""}, {""code"": ""WEEKEND_2827"", ""min_amount"": 913, ""discount_amount"": 209, ""description"": ""\u20b9200 off on orders above \u20b91000"", ""payment_method"": null}]",25.163720126478715,91.74617014639944,2021-06-17 19:55:53,2023-09-11 23:09:39
2828,Garam Rotlo,Bakery,640,9503935666,12:00 - 16:00,42,True,Open,Sathe Path,"Second Floor, Sathe Path, jamnagar - 887572",3.8,"[{""code"": ""SPECIAL_2828"", ""min_amount"": 840, ""discount_amount"": 136, ""description"": ""\u20b9150 off on orders above \u20b9800"", ""payment_method"": null}, {""code"": ""WELCOME_2828"", ""min_amount"": 458, ""discount_amount"": 98, ""description"": ""\u20b9100 off on orders above \u20b9500"", ""payment_method"": null}, {""code"": ""CASHBACK_2828"", ""min_amount"": 492, ""discount_amount"": 76, ""description"": ""\u20b975 off on Cash payments above \u20b9500"", ""payment_method"": ""Cash""}, {""code"": ""DEBITCARD_2828"", ""min_amount"": 589, ""discount_amount"": 94, ""description"": ""\u20b9100 off on orders above \u20b9600 with Debit Card"", ""payment_method"": ""DebitCard""}]",12.99635085467659,77.59724690505539,2021-11-25 23:41:41,2022-08-16 02:10:32
2829,Nebula Nosh,Street Food,1080,9219066986,12:00 - 16:00,42,True,Open,Bandi Zila," Bandi Zila, jamnagar - 887572",4.4,"[{""code"": ""FESTIVAL_2829"", ""min_amount"": 1366, ""discount_amount"": 282, ""description"": ""\u20b9300 off on orders above \u20b91500"", ""payment_method"": null}, {""code"": ""DEBITCARD_2829"", ""min_amount"": 653, ""discount_amount"": 105, ""description"": ""\u20b9100 off on orders above \u20b9600 with Debit Card"", ""payment_method"": ""DebitCard""}, {""code"": ""FIRSTORDER_2829"", ""min_amount"": 315, ""discount_amount"": 71, ""description"": ""\u20b975 off on your first order above \u20b9300"", ""payment_method"": null}]",22.609676398236125,87.74663455192278,2021-02-22 04:12:41,2022-05-03 10:15:56
2830,Pitla Bhakri House,Cafe,1729,9562412302,11:00 - 15:00,42,True,Open,Sidhu Path,"Third Floor, Sidhu Path, jamnagar - 887572",3.9,"[{""code"": ""CREDITCARD_2830"", ""min_amount"": 740, ""discount_amount"": 148, ""description"": ""\u20b9150 off on orders above \u20b9750 with Credit Card"", ""payment_method"": ""CreditCard""}, {""code"": ""SPECIAL_2830"", ""min_amount"": 732, ""discount_amount"": 144, ""description"": ""\u20b9150 off on orders above \u20b9800"", ""payment_method"": null}, {""code"": ""FESTIVAL_2830"", ""min_amount"": 1478, ""discount_amount"": 294, ""description"": ""\u20b9300 off on orders above \u20b91500"", ""payment_method"": null}, {""code"": ""CASHBACK_2830"", ""min_amount"": 514, ""discount_amount"": 71, ""description"": ""\u20b975 off on Cash payments above \u20b9500"", ""payment_method"": ""Cash""}, {""code"": ""WELCOME_2830"", ""min_amount"": 490, ""discount_amount"": 109, ""description"": ""\u20b9100 off on orders above \u20b9500"", ""payment_method"": null}]",23.951404557728775,75.26966094398864,2021-01-03 11:39:49,2024-10-19 00:46:02
2831,Solapuri Chaska Rasoi Treats,"Fast Food, Street Food, Chinese",1094,9213669678,11:00 - 15:00,42,True,Open,Vaidya Marg," Vaidya Marg, jamnagar - 887572",4.4,"[{""code"": ""CREDITCARD_2831"", ""min_amount"": 686, ""discount_amount"": 153, ""description"": ""\u20b9150 off on orders above \u20b9750 with Credit Card"", ""payment_method"": ""CreditCard""}, {""code"": ""FESTIVAL_2831"", ""min_amount"": 1509, ""discount_amount"": 281, ""description"": ""\u20b9300 off on orders above \u20b91500"", ""payment_method"": null}, {""code"": ""WEEKEND_2831"", ""min_amount"": 1055, ""discount_amount"": 194, ""description"": ""\u20b9200 off on orders above \u20b91000"", ""payment_method"": null}, {""code"": ""SPECIAL_2831"", ""min_amount"": 873, ""discount_amount"": 154, ""description"": ""\u20b9150 off on orders above \u20b9800"", ""payment_method"": null}]",20.093134636429745,70.94537434763565,2021-02-16 05:08:43,2024-06-29 22:54:16
2832,Wada Pav Junction Delight,Italian,499,9374843786,11:00 - 15:00,42,True,Open,Sinha Street," Sinha Street, jamnagar - 887572",4.1,"[{""code"": ""WEEKEND_2832"", ""min_amount"": 1050, ""discount_amount"": 210, ""description"": ""\u20b9200 off on orders above \u20b91000"", ""payment_method"": null}, {""code"": ""UPISAVE_2832"", ""min_amount"": 395, ""discount_amount"": 86, ""description"": ""\u20b980 off on orders above \u20b9400 with UPI"", ""payment_method"": ""UPI""}, {""code"": ""FESTIVAL_2832"", ""min_amount"": 1519, ""discount_amount"": 308, ""description"": ""\u20b9300 off on orders above \u20b91500"", ""payment_method"": null}]",12.863797838973152,90.37380045030103,2021-09-26 22:43:35,2023-12-05 08:13:52
2833,Bold & Butter,"Mughlai, Continental",1100,9173321814,16:00 - 19:00,42,True,Open,Dhaliwal Path,"Second Floor, Dhaliwal Path, jamnagar - 887572",3.8,"[{""code"": ""CASHBACK_2833"", ""min_amount"": 495, ""discount_amount"": 68, ""description"": ""\u20b975 off on Cash payments above \u20b9500"", ""payment_method"": ""Cash""}, {""code"": ""SPECIAL_2833"", ""min_amount"": 853, ""discount_amount"": 137, ""description"": ""\u20b9150 off on orders above \u20b9800"", ""payment_method"": null}, {""code"": ""WEEKEND_2833"", ""min_amount"": 1072, ""discount_amount"": 214, ""description"": ""\u20b9200 off on orders above \u20b91000"", ""payment_method"": null}, {""code"": ""FESTIVAL_2833"", ""min_amount"": 1534, ""discount_amount"": 300, ""description"": ""\u20b9300 off on orders above \u20b91500"", ""payment_method"": null}]",31.652826631221707,85.58503405752565,2021-02-17 11:14:39,2021-11-10 18:23:26
2834,Ambrosia,"Ice Cream, South Indian, Fast Food",1858,9713811693,19:00 - 23:00,42,True,Open,Dugar Chowk,"Second Floor, Dugar Chowk, jamnagar - 887572",4.1,"[{""code"": ""UPISAVE_2834"", ""min_amount"": 431, ""discount_amount"": 77, ""description"": ""\u20b980 off on orders above \u20b9400 with UPI"", ""payment_method"": ""UPI""}, {""code"": ""SPECIAL_2834"", ""min_amount"": 834, ""discount_amount"": 150, ""description"": ""\u20b9150 off on orders above \u20b9800"", ""payment_method"": null}, {""code"": ""DEBITCARD_2834"", ""min_amount"": 560, ""discount_amount"": 94, ""description"": ""\u20b9100 off on orders above \u20b9600 with Debit Card"", ""payment_method"": ""DebitCard""}]",26.06617035484588,83.01403646846923,2021-04-05 21:47:53,2024-08-15 19:50:50
2835,Alabaster Table,"Bakery, Burger",1448,9270452446,12:00 - 16:00,42,True,Open,Nath Nagar,"Second Floor, Nath Nagar, jamnagar - 887572",4.2,"[{""code"": ""WELCOME_2835"", ""min_amount"": 505, ""discount_amount"": 97, ""description"": ""\u20b9100 off on orders above \u20b9500"", ""payment_method"": null}, {""code"": ""CREDITCARD_2835"", ""min_amount"": 712, ""discount_amount"": 160, ""description"": ""\u20b9150 off on orders above \u20b9750 with Credit Card"", ""payment_method"": ""CreditCard""}, {""code"": ""CASHBACK_2835"", ""min_amount"": 546, ""discount_amount"": 76, ""description"": ""\u20b975 off on Cash payments above \u20b9500"", ""payment_method"": ""Cash""}, {""code"": ""WEEKEND_2835"", ""min_amount"": 930, ""discount_amount"": 183, ""description"": ""\u20b9200 off on orders above \u20b91000"", ""payment_method"": null}, {""code"": ""DEBITCARD_2835"", ""min_amount"": 619, ""discount_amount"": 108, ""description"": ""\u20b9100 off on orders above \u20b9600 with Debit Card"", ""payment_method"": ""DebitCard""}]",19.71256353807499,90.81096971378015,2021-07-26 23:34:30,2023-07-27 08:34:59
2836,Spicy Bamboo Kitchen,"Desserts, Continental, Chinese",834,9700138002,12:00 - 16:00,42,True,Open,Bose Ganj,"Second Floor, Bose Ganj, jamnagar - 887572",3.7,"[{""code"": ""CASHBACK_2836"", ""min_amount"": 500, ""discount_amount"": 67, ""description"": ""\u20b975 off on Cash payments above \u20b9500"", ""payment_method"": ""Cash""}, {""code"": ""SPECIAL_2836"", ""min_amount"": 769, ""discount_amount"": 163, ""description"": ""\u20b9150 off on orders above \u20b9800"", ""payment_method"": null}, {""code"": ""CREDITCARD_2836"", ""min_amount"": 726, ""discount_amount"": 157, ""description"": ""\u20b9150 off on orders above \u20b9750 with Credit Card"", ""payment_method"": ""CreditCard""}, {""code"": ""DEBITCARD_2836"", ""min_amount"": 563, ""discount_amount"": 109, ""description"": ""\u20b9100 off on orders above \u20b9600 with Debit Card"", ""payment_method"": ""DebitCard""}, {""code"": ""FESTIVAL_2836"", ""min_amount"": 1396, ""discount_amount"": 287, ""description"": ""\u20b9300 off on orders above \u20b91500"", ""payment_method"": null}]",32.14499568739219,87.83182321984933,2021-10-24 12:19:44,2023-05-31 10:24:11
2837,Solapuri Chaska,"Ice Cream, Bakery, South Indian",1555,9461597989,20:00 - 00:00,42,True,Open,Raj Chowk," Raj Chowk, jamnagar - 887572",3.9,"[{""code"": ""WEEKEND_2837"", ""min_amount"": 987, ""discount_amount"": 196, ""description"": ""\u20b9200 off on orders above \u20b91000"", ""payment_method"": null}, {""code"": ""CASHBACK_2837"", ""min_amount"": 517, ""discount_amount"": 71, ""description"": ""\u20b975 off on Cash payments above \u20b9500"", ""payment_method"": ""Cash""}, {""code"": ""CREDITCARD_2837"", ""min_amount"": 741, ""discount_amount"": 143, ""description"": ""\u20b9150 off on orders above \u20b9750 with Credit Card"", ""payment_method"": ""CreditCard""}]",12.226632009741635,79.45535231198308,2021-10-08 07:50:11,2023-03-18 15:48:26
2838,Harvest Moon Cafe,Ice Cream,689,9432288618,00:00 - 06:00,42,True,Open,Mandal Street,"Third Floor, Mandal Street, jamnagar - 887572",4.2,"[{""code"": ""UPISAVE_2838"", ""min_amount"": 400, ""discount_amount"": 78, ""description"": ""\u20b980 off on orders above \u20b9400 with UPI"", ""payment_method"": ""UPI""}, {""code"": ""CASHBACK_2838"", ""min_amount"": 466, ""discount_amount"": 70, ""description"": ""\u20b975 off on Cash payments above \u20b9500"", ""payment_method"": ""Cash""}, {""code"": ""DEBITCARD_2838"", ""min_amount"": 612, ""discount_amount"": 107, ""description"": ""\u20b9100 off on orders above \u20b9600 with Debit Card"", ""payment_method"": ""DebitCard""}, {""code"": ""WEEKEND_2838"", ""min_amount"": 910, ""discount_amount"": 199, ""description"": ""\u20b9200 off on orders above \u20b91000"", ""payment_method"": null}, {""code"": ""FESTIVAL_2838"", ""min_amount"": 1461, ""discount_amount"": 326, ""description"": ""\u20b9300 off on orders above \u20b91500"", ""payment_method"": null}]",34.796050673613784,74.23916183115438,2021-09-12 19:43:58,2022-01-12 06:02:53
2839,Polaris Pantry,Lebanese,371,9919390458,11:00 - 15:00,42,True,Open,Balasubramanian,"Third Floor, Balasubramanian, jamnagar - 887572",3.8,"[{""code"": ""SPECIAL_2839"", ""min_amount"": 861, ""discount_amount"": 162, ""description"": ""\u20b9150 off on orders above \u20b9800"", ""payment_method"": null}, {""code"": ""FESTIVAL_2839"", ""min_amount"": 1474, ""discount_amount"": 293, ""description"": ""\u20b9300 off on orders above \u20b91500"", ""payment_method"": null}, {""code"": ""DEBITCARD_2839"", ""min_amount"": 584, ""discount_amount"": 97, ""description"": ""\u20b9100 off on orders above \u20b9600 with Debit Card"", ""payment_method"": ""DebitCard""}, {""code"": ""UPISAVE_2839"", ""min_amount"": 366, ""discount_amount"": 75, ""description"": ""\u20b980 off on orders above \u20b9400 with UPI"", ""payment_method"": ""UPI""}]",34.834941302164644,72.90680412856031,2021-05-30 20:00:48,2023-12-28 23:53:25
2840,Momo Express,Mughlai,1820,9256819248,06:00 - 11:00,42,True,Open,Sodhi Circle,"Second Floor, Sodhi Circle, jamnagar - 887572",3.3,"[{""code"": ""UPISAVE_2840"", ""min_amount"": 360, ""discount_amount"": 73, ""description"": ""\u20b980 off on orders above \u20b9400 with UPI"", ""payment_method"": ""UPI""}, {""code"": ""CASHBACK_2840"", ""min_amount"": 475, ""discount_amount"": 80, ""description"": ""\u20b975 off on Cash payments above \u20b9500"", ""payment_method"": ""Cash""}, {""code"": ""FIRSTORDER_2840"", ""min_amount"": 302, ""discount_amount"": 78, ""description"": ""\u20b975 off on your first order above \u20b9300"", ""payment_method"": null}]",35.18796821109234,82.18858833851557,2021-03-30 03:44:14,2024-02-28 21:51:50
2841,Crossroads Kitchen,"Italian, Lebanese",686,9423358638,06:00 - 11:00,42,False,Closed,Murthy Circle,"First Floor, Murthy Circle, jamnagar - 887572",3.8,"[{""code"": ""SPECIAL_2841"", ""min_amount"": 815, ""discount_amount"": 135, ""description"": ""\u20b9150 off on orders above \u20b9800"", ""payment_method"": null}, {""code"": ""CASHBACK_2841"", ""min_amount"": 501, ""discount_amount"": 71, ""description"": ""\u20b975 off on Cash payments above \u20b9500"", ""payment_method"": ""Cash""}, {""code"": ""DEBITCARD_2841"", ""min_amount"": 557, ""discount_amount"": 98, ""description"": ""\u20b9100 off on orders above \u20b9600 with Debit Card"", ""payment_method"": ""DebitCard""}, {""code"": ""FESTIVAL_2841"", ""min_amount"": 1534, ""discount_amount"": 284, ""description"": ""\u20b9300 off on orders above \u20b91500"", ""payment_method"": null}]",20.65890587760054,91.36581955165596,2020-12-08 20:21:04,2022-07-02 22:21:07
2842,Fusion Thali,Chinese,1272,9487195336,06:00 - 11:00,42,True,Open,Sodhi Chowk," Sodhi Chowk, jamnagar - 887572",3.1,"[{""code"": ""CASHBACK_2842"", ""min_amount"": 513, ""discount_amount"": 82, ""description"": ""\u20b975 off on Cash payments above \u20b9500"", ""payment_method"": ""Cash""}, {""code"": ""WELCOME_2842"", ""min_amount"": 475, ""discount_amount"": 90, ""description"": ""\u20b9100 off on orders above \u20b9500"", ""payment_method"": null}, {""code"": ""FESTIVAL_2842"", ""min_amount"": 1586, ""discount_amount"": 290, ""description"": ""\u20b9300 off on orders above \u20b91500"", ""payment_method"": null}, {""code"": ""DEBITCARD_2842"", ""min_amount"": 627, ""discount_amount"": 102, ""description"": ""\u20b9100 off on orders above \u20b9600 with Debit Card"", ""payment_method"": ""DebitCard""}, {""code"": ""UPISAVE_2842"", ""min_amount"": 421, ""discount_amount"": 83, ""description"": ""\u20b980 off on orders above \u20b9400 with UPI"", ""payment_method"": ""UPI""}]",24.287193229898577,91.1520721883838,2021-03-20 23:18:04,2021-12-06 20:25:27
2843,Garlic Bread House,South Indian,921,9686277792,12:00 - 16:00,42,True,Open,Loyal Street,"First Floor, Loyal Street, jamnagar - 887572",4.0,"[{""code"": ""UPISAVE_2843"", ""min_amount"": 417, ""discount_amount"": 87, ""description"": ""\u20b980 off on orders above \u20b9400 with UPI"", ""payment_method"": ""UPI""}, {""code"": ""WEEKEND_2843"", ""min_amount"": 907, ""discount_amount"": 188, ""description"": ""\u20b9200 off on orders above \u20b91000"", ""payment_method"": null}, {""code"": ""DEBITCARD_2843"", ""min_amount"": 634, ""discount_amount"": 107, ""description"": ""\u20b9100 off on orders above \u20b9600 with Debit Card"", ""payment_method"": ""DebitCard""}, {""code"": ""SPECIAL_2843"", ""min_amount"": 770, ""discount_amount"": 144, ""description"": ""\u20b9150 off on orders above \u20b9800"", ""payment_method"": null}, {""code"": ""WELCOME_2843"", ""min_amount"": 489, ""discount_amount"": 106, ""description"": ""\u20b9100 off on orders above \u20b9500"", ""payment_method"": null}]",32.6472027774972,88.24768727097648,2020-11-27 11:20:31,2024-08-12 15:03:23
2844,Pearl & Caviar,"South Indian, Mexican",785,9483298103,20:00 - 00:00,42,True,Open,Nazareth Street,"Ground Floor, Nazareth Street, jamnagar - 887572",4.4,"[{""code"": ""CREDITCARD_2844"", ""min_amount"": 786, ""discount_amount"": 161, ""description"": ""\u20b9150 off on orders above \u20b9750 with Credit Card"", ""payment_method"": ""CreditCard""}, {""code"": ""DEBITCARD_2844"", ""min_amount"": 586, ""discount_amount"": 109, ""description"": ""\u20b9100 off on orders above \u20b9600 with Debit Card"", ""payment_method"": ""DebitCard""}, {""code"": ""FESTIVAL_2844"", ""min_amount"": 1498, ""discount_amount"": 299, ""description"": ""\u20b9300 off on orders above \u20b91500"", ""payment_method"": null}]",33.681309690679285,78.17644979618738,2021-06-12 01:43:22,2024-07-27 23:50:47
2845,Palette,"Chinese, Beverages",361,9562360908,19:00 - 23:00,42,True,Open,Sharaf Nagar,"First Floor, Sharaf Nagar, jamnagar - 887572",4.1,"[{""code"": ""CREDITCARD_2845"", ""min_amount"": 741, ""discount_amount"": 156, ""description"": ""\u20b9150 off on orders above \u20b9750 with Credit Card"", ""payment_method"": ""CreditCard""}, {""code"": ""FIRSTORDER_2845"", ""min_amount"": 279, ""discount_amount"": 74, ""description"": ""\u20b975 off on your first order above \u20b9300"", ""payment_method"": null}, {""code"": ""WEEKEND_2845"", ""min_amount"": 989, ""discount_amount"": 209, ""description"": ""\u20b9200 off on orders above \u20b91000"", ""payment_method"": null}]",24.3278524024634,77.87058627552666,2021-04-07 04:05:21,2022-10-16 01:22:13
2846,Olive & Tomato,"Beverages, Japanese, South Indian",353,9820678212,19:00 - 23:00,42,True,Open,Vig Circle,"Second Floor, Vig Circle, jamnagar - 887572",3.8,"[{""code"": ""WELCOME_2846"", ""min_amount"": 510, ""discount_amount"": 105, ""description"": ""\u20b9100 off on orders above \u20b9500"", ""payment_method"": null}, {""code"": ""WEEKEND_2846"", ""min_amount"": 906, ""discount_amount"": 182, ""description"": ""\u20b9200 off on orders above \u20b91000"", ""payment_method"": null}, {""code"": ""DEBITCARD_2846"", ""min_amount"": 633, ""discount_amount"": 97, ""description"": ""\u20b9100 off on orders above \u20b9600 with Debit Card"", ""payment_method"": ""DebitCard""}]",23.38211176836492,90.10958745067695,2021-06-24 12:13:56,2021-12-15 04:10:40
2847,The Indian Table,"South Indian, Continental, Fast Food",959,9499446327,12:00 - 16:00,42,True,Open,Dey Marg,"Ground Floor, Dey Marg, jamnagar - 887572",3.8,"[{""code"": ""CREDITCARD_2847"", ""min_amount"": 678, ""discount_amount"": 140, ""description"": ""\u20b9150 off on orders above \u20b9750 with Credit Card"", ""payment_method"": ""CreditCard""}, {""code"": ""FIRSTORDER_2847"", ""min_amount"": 301, ""discount_amount"": 81, ""description"": ""\u20b975 off on your first order above \u20b9300"", ""payment_method"": null}, {""code"": ""SPECIAL_2847"", ""min_amount"": 738, ""discount_amount"": 158, ""description"": ""\u20b9150 off on orders above \u20b9800"", ""payment_method"": null}, {""code"": ""WELCOME_2847"", ""min_amount"": 520, ""discount_amount"": 94, ""description"": ""\u20b9100 off on orders above \u20b9500"", ""payment_method"": null}]",25.15851592734975,83.81607961786108,2021-07-25 15:22:17,2025-01-31 00:08:44
2848,Honey & Roast,"Cafe, Mexican",451,9245737277,20:00 - 00:00,42,True,Open,Devan Marg,"Third Floor, Devan Marg, jamnagar - 887572",4.2,"[{""code"": ""CREDITCARD_2848"", ""min_amount"": 684, ""discount_amount"": 151, ""description"": ""\u20b9150 off on orders above \u20b9750 with Credit Card"", ""payment_method"": ""CreditCard""}, {""code"": ""CASHBACK_2848"", ""min_amount"": 539, ""discount_amount"": 80, ""description"": ""\u20b975 off on Cash payments above \u20b9500"", ""payment_method"": ""Cash""}, {""code"": ""UPISAVE_2848"", ""min_amount"": 416, ""discount_amount"": 86, ""description"": ""\u20b980 off on orders above \u20b9400 with UPI"", ""payment_method"": ""UPI""}]",13.441565828334,89.06671048408691,2021-03-14 12:46:36,2025-01-31 18:42:18
2849,Keralam Flavors,"Bakery, Thai",448,9315801027,20:00 - 00:00,42,True,Open,Mane Street,"First Floor, Mane Street, jamnagar - 887572",4.1,"[{""code"": ""CREDITCARD_2849"", ""min_amount"": 766, ""discount_amount"": 137, ""description"": ""\u20b9150 off on orders above \u20b9750 with Credit Card"", ""payment_method"": ""CreditCard""}, {""code"": ""UPISAVE_2849"", ""min_amount"": 384, ""discount_amount"": 87, ""description"": ""\u20b980 off on orders above \u20b9400 with UPI"", ""payment_method"": ""UPI""}, {""code"": ""DEBITCARD_2849"", ""min_amount"": 626, ""discount_amount"": 100, ""description"": ""\u20b9100 off on orders above \u20b9600 with Debit Card"", ""payment_method"": ""DebitCard""}, {""code"": ""FIRSTORDER_2849"", ""min_amount"": 316, ""discount_amount"": 79, ""description"": ""\u20b975 off on your first order above \u20b9300"", ""payment_method"": null}, {""code"": ""SPECIAL_2849"", ""min_amount"": 731, ""discount_amount"": 164, ""description"": ""\u20b9150 off on orders above \u20b9800"", ""payment_method"": null}]",31.47889337558628,69.45040896537598,2021-02-17 01:48:44,2023-11-11 09:49:31
2850,Saurashtra Rasoi,"Fast Food, Bakery",905,9237798236,20:00 - 00:00,42,True,Open,Tailor Circle," Tailor Circle, jamnagar - 887572",4.5,"[{""code"": ""DEBITCARD_2850"", ""min_amount"": 554, ""discount_amount"": 93, ""description"": ""\u20b9100 off on orders above \u20b9600 with Debit Card"", ""payment_method"": ""DebitCard""}, {""code"": ""WELCOME_2850"", ""min_amount"": 466, ""discount_amount"": 96, ""description"": ""\u20b9100 off on orders above \u20b9500"", ""payment_method"": null}, {""code"": ""CASHBACK_2850"", ""min_amount"": 520, ""discount_amount"": 72, ""description"": ""\u20b975 off on Cash payments above \u20b9500"", ""payment_method"": ""Cash""}]",27.081982737506564,73.89504754856353,2021-12-07 11:44:07,2024-06-19 15:07:23
2851,Palette,"Chinese, Japanese",602,9781887358,00:00 - 06:00,42,True,Open,Pillay Marg,"Second Floor, Pillay Marg, jamnagar - 887572",3.6,"[{""code"": ""SPECIAL_2851"", ""min_amount"": 747, ""discount_amount"": 153, ""description"": ""\u20b9150 off on orders above \u20b9800"", ""payment_method"": null}, {""code"": ""WEEKEND_2851"", ""min_amount"": 1080, ""discount_amount"": 193, ""description"": ""\u20b9200 off on orders above \u20b91000"", ""payment_method"": null}, {""code"": ""FIRSTORDER_2851"", ""min_amount"": 325, ""discount_amount"": 68, ""description"": ""\u20b975 off on your first order above \u20b9300"", ""payment_method"": null}, {""code"": ""DEBITCARD_2851"", ""min_amount"": 643, ""discount_amount"": 91, ""description"": ""\u20b9100 off on orders above \u20b9600 with Debit Card"", ""payment_method"": ""DebitCard""}, {""code"": ""CASHBACK_2851"", ""min_amount"": 544, ""discount_amount"": 79, ""description"": ""\u20b975 off on Cash payments above \u20b9500"", ""payment_method"": ""Cash""}]",12.05497261770556,77.34564250440842,2021-07-08 11:08:56,2021-10-25 16:39:09
2852,Thali & Tandoor,"Mexican, Pizza, Beverages",1465,9786111573,06:00 - 11:00,42,True,Open,Ramachandran," Ramachandran, jamnagar - 887572",3.8,"[{""code"": ""FESTIVAL_2852"", ""min_amount"": 1371, ""discount_amount"": 273, ""description"": ""\u20b9300 off on orders above \u20b91500"", ""payment_method"": null}, {""code"": ""DEBITCARD_2852"", ""min_amount"": 592, ""discount_amount"": 99, ""description"": ""\u20b9100 off on orders above \u20b9600 with Debit Card"", ""payment_method"": ""DebitCard""}, {""code"": ""WEEKEND_2852"", ""min_amount"": 940, ""discount_amount"": 204, ""description"": ""\u20b9200 off on orders above \u20b91000"", ""payment_method"": null}, {""code"": ""CASHBACK_2852"", ""min_amount"": 481, ""discount_amount"": 78, ""description"": ""\u20b975 off on Cash payments above \u20b9500"", ""payment_method"": ""Cash""}]",16.85841237860689,96.01236235219828,2021-06-03 06:13:58,2023-04-16 15:35:38
2853,Pizza Town,"Continental, Street Food",1254,9703068400,06:00 - 11:00,42,True,Open,Sura Chowk,"First Floor, Sura Chowk, jamnagar - 887572",3.5,"[{""code"": ""WEEKEND_2853"", ""min_amount"": 958, ""discount_amount"": 195, ""description"": ""\u20b9200 off on orders above \u20b91000"", ""payment_method"": null}, {""code"": ""SPECIAL_2853"", ""min_amount"": 818, ""discount_amount"": 142, ""description"": ""\u20b9150 off on orders above \u20b9800"", ""payment_method"": null}, {""code"": ""WELCOME_2853"", ""min_amount"": 536, ""discount_amount"": 93, ""description"": ""\u20b9100 off on orders above \u20b9500"", ""payment_method"": null}]",22.020998957586585,76.33631630566691,2021-02-22 10:20:30,2024-02-01 12:56:46
2854,Margherita Magic,"Mughlai, Mexican, Mediterranean",1220,9652681586,16:00 - 19:00,42,True,Open,Sastry Ganj,"Second Floor, Sastry Ganj, jamnagar - 887572",3.5,"[{""code"": ""CASHBACK_2854"", ""min_amount"": 508, ""discount_amount"": 68, ""description"": ""\u20b975 off on Cash payments above \u20b9500"", ""payment_method"": ""Cash""}, {""code"": ""UPISAVE_2854"", ""min_amount"": 382, ""discount_amount"": 81, ""description"": ""\u20b980 off on orders above \u20b9400 with UPI"", ""payment_method"": ""UPI""}, {""code"": ""SPECIAL_2854"", ""min_amount"": 854, ""discount_amount"": 155, ""description"": ""\u20b9150 off on orders above \u20b9800"", ""payment_method"": null}, {""code"": ""DEBITCARD_2854"", ""min_amount"": 574, ""discount_amount"": 90, ""description"": ""\u20b9100 off on orders above \u20b9600 with Debit Card"", ""payment_method"": ""DebitCard""}]",22.923211972987268,71.27090166350004,2021-10-09 07:40:51,2022-03-07 11:30:45
2855,Puran Poli Junction,"Continental, Japanese",1689,9492750748,20:00 - 00:00,42,True,Open,Dora Marg,"Second Floor, Dora Marg, jamnagar - 887572",3.7,"[{""code"": ""FESTIVAL_2855"", ""min_amount"": 1465, ""discount_amount"": 297, ""description"": ""\u20b9300 off on orders above \u20b91500"", ""payment_method"": null}, {""code"": ""CREDITCARD_2855"", ""min_amount"": 757, ""discount_amount"": 159, ""description"": ""\u20b9150 off on orders above \u20b9750 with Credit Card"", ""payment_method"": ""CreditCard""}, {""code"": ""FIRSTORDER_2855"", ""min_amount"": 307, ""discount_amount"": 76, ""description"": ""\u20b975 off on your first order above \u20b9300"", ""payment_method"": null}, {""code"": ""WEEKEND_2855"", ""min_amount"": 925, ""discount_amount"": 183, ""description"": ""\u20b9200 off on orders above \u20b91000"", ""payment_method"": null}, {""code"": ""WELCOME_2855"", ""min_amount"": 487, ""discount_amount"": 109, ""description"": ""\u20b9100 off on orders above \u20b9500"", ""payment_method"": null}]",9.721077919728929,70.1605519747849,2021-04-19 20:02:12,2022-02-24 01:03:41
2856,Seabreeze Bites,"Continental, Mexican",1433,9646666136,12:00 - 16:00,42,True,Open,Shere Circle,"Ground Floor, Shere Circle, jamnagar - 887572",3.6,"[{""code"": ""UPISAVE_2856"", ""min_amount"": 431, ""discount_amount"": 74, ""description"": ""\u20b980 off on orders above \u20b9400 with UPI"", ""payment_method"": ""UPI""}, {""code"": ""CASHBACK_2856"", ""min_amount"": 543, ""discount_amount"": 72, ""description"": ""\u20b975 off on Cash payments above \u20b9500"", ""payment_method"": ""Cash""}, {""code"": ""SPECIAL_2856"", ""min_amount"": 782, ""discount_amount"": 153, ""description"": ""\u20b9150 off on orders above \u20b9800"", ""payment_method"": null}, {""code"": ""FIRSTORDER_2856"", ""min_amount"": 320, ""discount_amount"": 76, ""description"": ""\u20b975 off on your first order above \u20b9300"", ""payment_method"": null}]",9.722857892038585,72.61238846535271,2020-11-23 03:20:57,2023-05-25 23:24:21
2857,Horizon Bistro,"Ice Cream, Cafe, Lebanese",1172,9975903641,06:00 - 11:00,42,True,Open,Cherian Zila,"Second Floor, Cherian Zila, jamnagar - 887572",4.2,"[{""code"": ""FIRSTORDER_2857"", ""min_amount"": 328, ""discount_amount"": 79, ""description"": ""\u20b975 off on your first order above \u20b9300"", ""payment_method"": null}, {""code"": ""WELCOME_2857"", ""min_amount"": 527, ""discount_amount"": 101, ""description"": ""\u20b9100 off on orders above \u20b9500"", ""payment_method"": null}, {""code"": ""CASHBACK_2857"", ""min_amount"": 522, ""discount_amount"": 76, ""description"": ""\u20b975 off on Cash payments above \u20b9500"", ""payment_method"": ""Cash""}, {""code"": ""FESTIVAL_2857"", ""min_amount"": 1401, ""discount_amount"": 307, ""description"": ""\u20b9300 off on orders above \u20b91500"", ""payment_method"": null}, {""code"": ""WEEKEND_2857"", ""min_amount"": 1023, ""discount_amount"": 213, ""description"": ""\u20b9200 off on orders above \u20b91000"", ""payment_method"": null}]",28.075146660212084,96.67608879016508,2021-07-02 13:26:58,2025-04-24 16:37:07
2858,Wada Pav Junction Delight,"Thai, South Indian, Italian",590,9120333847,12:00 - 16:00,42,True,Open,Kanda,"Third Floor, Kanda, jamnagar - 887572",3.8,"[{""code"": ""CASHBACK_2858"", ""min_amount"": 522, ""discount_amount"": 78, ""description"": ""\u20b975 off on Cash payments above \u20b9500"", ""payment_method"": ""Cash""}, {""code"": ""UPISAVE_2858"", ""min_amount"": 401, ""discount_amount"": 80, ""description"": ""\u20b980 off on orders above \u20b9400 with UPI"", ""payment_method"": ""UPI""}, {""code"": ""DEBITCARD_2858"", ""min_amount"": 659, ""discount_amount"": 99, ""description"": ""\u20b9100 off on orders above \u20b9600 with Debit Card"", ""payment_method"": ""DebitCard""}, {""code"": ""CREDITCARD_2858"", ""min_amount"": 731, ""discount_amount"": 163, ""description"": ""\u20b9150 off on orders above \u20b9750 with Credit Card"", ""payment_method"": ""CreditCard""}]",12.821792737084888,88.4137824492239,2021-10-05 21:03:47,2024-10-31 15:33:20
2859,Opal Dining,"Mughlai, Ice Cream, Street Food",1584,9928917719,20:00 - 00:00,42,True,Open,Raman Nagar,"Second Floor, Raman Nagar, jamnagar - 887572",4.0,"[{""code"": ""FIRSTORDER_2859"", ""min_amount"": 326, ""discount_amount"": 82, ""description"": ""\u20b975 off on your first order above \u20b9300"", ""payment_method"": null}, {""code"": ""CASHBACK_2859"", ""min_amount"": 527, ""discount_amount"": 78, ""description"": ""\u20b975 off on Cash payments above \u20b9500"", ""payment_method"": ""Cash""}, {""code"": ""SPECIAL_2859"", ""min_amount"": 830, ""discount_amount"": 149, ""description"": ""\u20b9150 off on orders above \u20b9800"", ""payment_method"": null}]",26.214236138299547,74.18914202885317,2021-10-28 12:59:29,2022-05-09 00:32:02
2860,The Rusty Ladle,"Ice Cream, Japanese",789,9230861323,19:00 - 23:00,42,True,Open,Pau Road," Pau Road, jamnagar - 887572",3.1,"[{""code"": ""WEEKEND_2860"", ""min_amount"": 1091, ""discount_amount"": 183, ""description"": ""\u20b9200 off on orders above \u20b91000"", ""payment_method"": null}, {""code"": ""FIRSTORDER_2860"", ""min_amount"": 325, ""discount_amount"": 77, ""description"": ""\u20b975 off on your first order above \u20b9300"", ""payment_method"": null}, {""code"": ""WELCOME_2860"", ""min_amount"": 524, ""discount_amount"": 94, ""description"": ""\u20b9100 off on orders above \u20b9500"", ""payment_method"": null}, {""code"": ""CASHBACK_2860"", ""min_amount"": 532, ""discount_amount"": 71, ""description"": ""\u20b975 off on Cash payments above \u20b9500"", ""payment_method"": ""Cash""}]",19.487070212931968,96.68358334052488,2021-06-20 19:41:27,2022-01-11 17:19:37
2861,Salt & Sand,"Japanese, Continental, Italian",1460,9895525625,19:00 - 23:00,42,True,Open,Guha Zila,"First Floor, Guha Zila, jamnagar - 887572",3.8,"[{""code"": ""FESTIVAL_2861"", ""min_amount"": 1473, ""discount_amount"": 313, ""description"": ""\u20b9300 off on orders above \u20b91500"", ""payment_method"": null}, {""code"": ""WELCOME_2861"", ""min_amount"": 460, ""discount_amount"": 105, ""description"": ""\u20b9100 off on orders above \u20b9500"", ""payment_method"": null}, {""code"": ""UPISAVE_2861"", ""min_amount"": 360, ""discount_amount"": 80, ""description"": ""\u20b980 off on orders above \u20b9400 with UPI"", ""payment_method"": ""UPI""}]",9.88235055475795,94.54300865166807,2020-12-31 23:28:11,2024-08-12 13:01:38
2862,Bajri Bhakri Tadka Delight,"Cafe, Burger",1532,9314164216,20:00 - 00:00,42,True,Open,Koshy Path,"Second Floor, Koshy Path, jamnagar - 887572",3.8,"[{""code"": ""FESTIVAL_2862"", ""min_amount"": 1475, ""discount_amount"": 320, ""description"": ""\u20b9300 off on orders above \u20b91500"", ""payment_method"": null}, {""code"": ""WELCOME_2862"", ""min_amount"": 543, ""discount_amount"": 90, ""description"": ""\u20b9100 off on orders above \u20b9500"", ""payment_method"": null}, {""code"": ""SPECIAL_2862"", ""min_amount"": 853, ""discount_amount"": 158, ""description"": ""\u20b9150 off on orders above \u20b9800"", ""payment_method"": null}]",17.778096901879668,87.14038555576721,2021-02-05 17:27:16,2025-04-30 21:49:52
2863,Tamil Nadu Kitchen,"Lebanese, South Indian, North Indian",811,9709844411,19:00 - 23:00,42,True,Open,Sen Marg,"Second Floor, Sen Marg, jamnagar - 887572",4.4,"[{""code"": ""CASHBACK_2863"", ""min_amount"": 477, ""discount_amount"": 79, ""description"": ""\u20b975 off on Cash payments above \u20b9500"", ""payment_method"": ""Cash""}, {""code"": ""UPISAVE_2863"", ""min_amount"": 386, ""discount_amount"": 83, ""description"": ""\u20b980 off on orders above \u20b9400 with UPI"", ""payment_method"": ""UPI""}, {""code"": ""SPECIAL_2863"", ""min_amount"": 823, ""discount_amount"": 156, ""description"": ""\u20b9150 off on orders above \u20b9800"", ""payment_method"": null}, {""code"": ""FIRSTORDER_2863"", ""min_amount"": 270, ""discount_amount"": 72, ""description"": ""\u20b975 off on your first order above \u20b9300"", ""payment_method"": null}, {""code"": ""FESTIVAL_2863"", ""min_amount"": 1438, ""discount_amount"": 310, ""description"": ""\u20b9300 off on orders above \u20b91500"", ""payment_method"": null}]",16.70920024862135,96.93878987103304,2021-09-10 00:16:54,2024-06-09 07:05:27
2864,Andhra Bhojan,Burger,1953,9785826598,20:00 - 00:00,42,True,Open,Walia Street,"Third Floor, Walia Street, jamnagar - 887572",3.5,"[{""code"": ""SPECIAL_2864"", ""min_amount"": 869, ""discount_amount"": 135, ""description"": ""\u20b9150 off on orders above \u20b9800"", ""payment_method"": null}, {""code"": ""WEEKEND_2864"", ""min_amount"": 976, ""discount_amount"": 197, ""description"": ""\u20b9200 off on orders above \u20b91000"", ""payment_method"": null}, {""code"": ""CASHBACK_2864"", ""min_amount"": 476, ""discount_amount"": 72, ""description"": ""\u20b975 off on Cash payments above \u20b9500"", ""payment_method"": ""Cash""}, {""code"": ""FESTIVAL_2864"", ""min_amount"": 1524, ""discount_amount"": 304, ""description"": ""\u20b9300 off on orders above \u20b91500"", ""payment_method"": null}, {""code"": ""UPISAVE_2864"", ""min_amount"": 380, ""discount_amount"": 77, ""description"": ""\u20b980 off on orders above \u20b9400 with UPI"", ""payment_method"": ""UPI""}]",23.446195241626043,71.17636332917057,2021-09-23 14:59:56,2024-05-25 07:29:21
2865,Tandoor-e-Zaika,Italian,1153,9429430802,11:00 - 15:00,42,True,Open,Sur Circle," Sur Circle, jamnagar - 887572",4.2,"[{""code"": ""SPECIAL_2865"", ""min_amount"": 755, ""discount_amount"": 163, ""description"": ""\u20b9150 off on orders above \u20b9800"", ""payment_method"": null}, {""code"": ""FIRSTORDER_2865"", ""min_amount"": 298, ""discount_amount"": 74, ""description"": ""\u20b975 off on your first order above \u20b9300"", ""payment_method"": null}, {""code"": ""WEEKEND_2865"", ""min_amount"": 1097, ""discount_amount"": 194, ""description"": ""\u20b9200 off on orders above \u20b91000"", ""payment_method"": null}, {""code"": ""UPISAVE_2865"", ""min_amount"": 416, ""discount_amount"": 86, ""description"": ""\u20b980 off on orders above \u20b9400 with UPI"", ""payment_method"": ""UPI""}]",35.35469560725582,94.04673036997433,2021-01-01 10:25:12,2023-11-15 06:10:08
2866,Toast & Tonic,"Mexican, Thai, Chinese",1276,9579691987,16:00 - 19:00,42,True,Open,Manda Zila,"Second Floor, Manda Zila, jamnagar - 887572",4.2,"[{""code"": ""CASHBACK_2866"", ""min_amount"": 503, ""discount_amount"": 69, ""description"": ""\u20b975 off on Cash payments above \u20b9500"", ""payment_method"": ""Cash""}, {""code"": ""FESTIVAL_2866"", ""min_amount"": 1606, ""discount_amount"": 296, ""description"": ""\u20b9300 off on orders above \u20b91500"", ""payment_method"": null}, {""code"": ""FIRSTORDER_2866"", ""min_amount"": 310, ""discount_amount"": 78, ""description"": ""\u20b975 off on your first order above \u20b9300"", ""payment_method"": null}]",10.680599486705256,84.80701702090771,2021-01-08 20:08:29,2022-10-27 09:02:22
2867,Craft & Crumb,Bakery,1112,9968326513,06:00 - 11:00,42,True,Open,Gara Ganj,"First Floor, Gara Ganj, jamnagar - 887572",3.5,"[{""code"": ""CASHBACK_2867"", ""min_amount"": 530, ""discount_amount"": 78, ""description"": ""\u20b975 off on Cash payments above \u20b9500"", ""payment_method"": ""Cash""}, {""code"": ""UPISAVE_2867"", ""min_amount"": 391, ""discount_amount"": 85, ""description"": ""\u20b980 off on orders above \u20b9400 with UPI"", ""payment_method"": ""UPI""}, {""code"": ""CREDITCARD_2867"", ""min_amount"": 786, ""discount_amount"": 152, ""description"": ""\u20b9150 off on orders above \u20b9750 with Credit Card"", ""payment_method"": ""CreditCard""}]",23.386837021487935,81.74159648157406,2021-07-04 18:16:52,2024-01-26 09:17:19
2868,Fafda Jalebi Corner Express,"Street Food, Chinese",1308,9164698991,00:00 - 06:00,42,True,Open,Chauhan Circle,"Ground Floor, Chauhan Circle, jamnagar - 887572",4.2,"[{""code"": ""DEBITCARD_2868"", ""min_amount"": 631, ""discount_amount"": 109, ""description"": ""\u20b9100 off on orders above \u20b9600 with Debit Card"", ""payment_method"": ""DebitCard""}, {""code"": ""WEEKEND_2868"", ""min_amount"": 1029, ""discount_amount"": 196, ""description"": ""\u20b9200 off on orders above \u20b91000"", ""payment_method"": null}, {""code"": ""CASHBACK_2868"", ""min_amount"": 549, ""discount_amount"": 73, ""description"": ""\u20b975 off on Cash payments above \u20b9500"", ""payment_method"": ""Cash""}, {""code"": ""SPECIAL_2868"", ""min_amount"": 859, ""discount_amount"": 162, ""description"": ""\u20b9150 off on orders above \u20b9800"", ""payment_method"": null}]",37.19520764400249,82.17763278414331,2021-08-22 21:28:41,2022-06-11 13:44:11
2869,Desi Continental Fusion,Ice Cream,472,9801726890,20:00 - 00:00,42,True,Open,Sahni Street,"Ground Floor, Sahni Street, jamnagar - 887572",4.0,"[{""code"": ""WEEKEND_2869"", ""min_amount"": 1095, ""discount_amount"": 198, ""description"": ""\u20b9200 off on orders above \u20b91000"", ""payment_method"": null}, {""code"": ""FESTIVAL_2869"", ""min_amount"": 1565, ""discount_amount"": 295, ""description"": ""\u20b9300 off on orders above \u20b91500"", ""payment_method"": null}, {""code"": ""DEBITCARD_2869"", ""min_amount"": 585, ""discount_amount"": 94, ""description"": ""\u20b9100 off on orders above \u20b9600 with Debit Card"", ""payment_method"": ""DebitCard""}, {""code"": ""WELCOME_2869"", ""min_amount"": 496, ""discount_amount"": 93, ""description"": ""\u20b9100 off on orders above \u20b9500"", ""payment_method"": null}, {""code"": ""CREDITCARD_2869"", ""min_amount"": 703, ""discount_amount"": 161, ""description"": ""\u20b9150 off on orders above \u20b9750 with Credit Card"", ""payment_method"": ""CreditCard""}]",13.611429966920062,84.03872978666294,2021-02-03 13:05:22,2023-04-13 20:16:40
2870,Wada Pav Junction,Beverages,1459,9922543647,00:00 - 06:00,42,True,Open,Randhawa Path,"Ground Floor, Randhawa Path, jamnagar - 887572",4.4,"[{""code"": ""WELCOME_2870"", ""min_amount"": 474, ""discount_amount"": 90, ""description"": ""\u20b9100 off on orders above \u20b9500"", ""payment_method"": null}, {""code"": ""UPISAVE_2870"", ""min_amount"": 395, ""discount_amount"": 80, ""description"": ""\u20b980 off on orders above \u20b9400 with UPI"", ""payment_method"": ""UPI""}, {""code"": ""FIRSTORDER_2870"", ""min_amount"": 315, ""discount_amount"": 79, ""description"": ""\u20b975 off on your first order above \u20b9300"", ""payment_method"": null}, {""code"": ""CREDITCARD_2870"", ""min_amount"": 696, ""discount_amount"": 164, ""description"": ""\u20b9150 off on orders above \u20b9750 with Credit Card"", ""payment_method"": ""CreditCard""}, {""code"": ""CASHBACK_2870"", ""min_amount"": 473, ""discount_amount"": 81, ""description"": ""\u20b975 off on Cash payments above \u20b9500"", ""payment_method"": ""Cash""}]",15.42745578898179,70.62115527749509,2021-06-28 06:46:08,2023-04-03 05:08:11
2871,Palm Breeze Eats,"Pizza, Mughlai",685,9424017094,20:00 - 00:00,42,True,Open,Kadakia Path," Kadakia Path, jamnagar - 887572",4.2,"[{""code"": ""CASHBACK_2871"", ""min_amount"": 517, ""discount_amount"": 75, ""description"": ""\u20b975 off on Cash payments above \u20b9500"", ""payment_method"": ""Cash""}, {""code"": ""WEEKEND_2871"", ""min_amount"": 909, ""discount_amount"": 193, ""description"": ""\u20b9200 off on orders above \u20b91000"", ""payment_method"": null}, {""code"": ""CREDITCARD_2871"", ""min_amount"": 771, ""discount_amount"": 146, ""description"": ""\u20b9150 off on orders above \u20b9750 with Credit Card"", ""payment_method"": ""CreditCard""}]",14.854448021024153,77.27930222977433,2021-03-10 23:32:22,2023-01-10 22:56:26
2872,Ambrosia Fusion,"Beverages, Burger",505,9422002819,12:00 - 16:00,42,True,Open,Chopra Road," Chopra Road, jamnagar - 887572",4.0,"[{""code"": ""WEEKEND_2872"", ""min_amount"": 982, ""discount_amount"": 196, ""description"": ""\u20b9200 off on orders above \u20b91000"", ""payment_method"": null}, {""code"": ""UPISAVE_2872"", ""min_amount"": 402, ""discount_amount"": 78, ""description"": ""\u20b980 off on orders above \u20b9400 with UPI"", ""payment_method"": ""UPI""}, {""code"": ""WELCOME_2872"", ""min_amount"": 475, ""discount_amount"": 96, ""description"": ""\u20b9100 off on orders above \u20b9500"", ""payment_method"": null}, {""code"": ""FIRSTORDER_2872"", ""min_amount"": 274, ""discount_amount"": 74, ""description"": ""\u20b975 off on your first order above \u20b9300"", ""payment_method"": null}]",22.226749556036825,92.94868361602416,2021-01-27 19:32:17,2023-05-27 20:04:48
2873,Toscano Caf,Ice Cream,1683,9990568217,11:00 - 15:00,42,True,Open,Swaminathan Zila,"Second Floor, Swaminathan Zila, jamnagar - 887572",4.0,"[{""code"": ""SPECIAL_2873"", ""min_amount"": 841, ""discount_amount"": 156, ""description"": ""\u20b9150 off on orders above \u20b9800"", ""payment_method"": null}, {""code"": ""FESTIVAL_2873"", ""min_amount"": 1517, ""discount_amount"": 298, ""description"": ""\u20b9300 off on orders above \u20b91500"", ""payment_method"": null}, {""code"": ""DEBITCARD_2873"", ""min_amount"": 644, ""discount_amount"": 96, ""description"": ""\u20b9100 off on orders above \u20b9600 with Debit Card"", ""payment_method"": ""DebitCard""}]",19.413304868871123,85.97187769422996,2021-07-24 05:20:42,2023-03-19 19:47:32
2874,Khichdi Khaas,Mexican,1718,9225967304,20:00 - 00:00,42,True,Open,Bhatti Ganj,"Third Floor, Bhatti Ganj, jamnagar - 887572",3.7,"[{""code"": ""FESTIVAL_2874"", ""min_amount"": 1582, ""discount_amount"": 292, ""description"": ""\u20b9300 off on orders above \u20b91500"", ""payment_method"": null}, {""code"": ""DEBITCARD_2874"", ""min_amount"": 604, ""discount_amount"": 97, ""description"": ""\u20b9100 off on orders above \u20b9600 with Debit Card"", ""payment_method"": ""DebitCard""}, {""code"": ""SPECIAL_2874"", ""min_amount"": 761, ""discount_amount"": 150, ""description"": ""\u20b9150 off on orders above \u20b9800"", ""payment_method"": null}, {""code"": ""FIRSTORDER_2874"", ""min_amount"": 299, ""discount_amount"": 68, ""description"": ""\u20b975 off on your first order above \u20b9300"", ""payment_method"": null}, {""code"": ""WEEKEND_2874"", ""min_amount"": 1096, ""discount_amount"": 198, ""description"": ""\u20b9200 off on orders above \u20b91000"", ""payment_method"": null}]",35.10168586584718,88.56013045687723,2021-08-12 10:35:23,2023-10-31 08:44:56
2875,Chilli Chopsticks,Street Food,840,9544454140,06:00 - 11:00,42,True,Open,Shukla Circle,"First Floor, Shukla Circle, jamnagar - 887572",3.8,"[{""code"": ""DEBITCARD_2875"", ""min_amount"": 567, ""discount_amount"": 101, ""description"": ""\u20b9100 off on orders above \u20b9600 with Debit Card"", ""payment_method"": ""DebitCard""}, {""code"": ""FIRSTORDER_2875"", ""min_amount"": 284, ""discount_amount"": 75, ""description"": ""\u20b975 off on your first order above \u20b9300"", ""payment_method"": null}, {""code"": ""SPECIAL_2875"", ""min_amount"": 870, ""discount_amount"": 145, ""description"": ""\u20b9150 off on orders above \u20b9800"", ""payment_method"": null}, {""code"": ""CASHBACK_2875"", ""min_amount"": 526, ""discount_amount"": 74, ""description"": ""\u20b975 off on Cash payments above \u20b9500"", ""payment_method"": ""Cash""}, {""code"": ""WEEKEND_2875"", ""min_amount"": 1044, ""discount_amount"": 209, ""description"": ""\u20b9200 off on orders above \u20b91000"", ""payment_method"": null}]",30.04456945852148,69.16307817358599,2021-04-14 20:38:41,2022-05-09 07:17:55
2876,Celeste,Street Food,546,9250279322,19:00 - 23:00,42,False,Closed,Chopra Chowk,"Third Floor, Chopra Chowk, jamnagar - 887572",4.2,"[{""code"": ""WELCOME_2876"", ""min_amount"": 526, ""discount_amount"": 98, ""description"": ""\u20b9100 off on orders above \u20b9500"", ""payment_method"": null}, {""code"": ""CASHBACK_2876"", ""min_amount"": 534, ""discount_amount"": 70, ""description"": ""\u20b975 off on Cash payments above \u20b9500"", ""payment_method"": ""Cash""}, {""code"": ""DEBITCARD_2876"", ""min_amount"": 624, ""discount_amount"": 90, ""description"": ""\u20b9100 off on orders above \u20b9600 with Debit Card"", ""payment_method"": ""DebitCard""}, {""code"": ""UPISAVE_2876"", ""min_amount"": 400, ""discount_amount"": 77, ""description"": ""\u20b980 off on orders above \u20b9400 with UPI"", ""payment_method"": ""UPI""}, {""code"": ""CREDITCARD_2876"", ""min_amount"": 767, ""discount_amount"": 155, ""description"": ""\u20b9150 off on orders above \u20b9750 with Credit Card"", ""payment_method"": ""CreditCard""}]",13.774194967549011,94.09135732336348,2021-01-26 12:11:47,2021-08-15 00:32:51
2877,Flavorscape,"Cafe, North Indian",213,9671458801,16:00 - 19:00,42,True,Open,Dave Circle,"Ground Floor, Dave Circle, jamnagar - 887572",4.3,"[{""code"": ""FIRSTORDER_2877"", ""min_amount"": 318, ""discount_amount"": 81, ""description"": ""\u20b975 off on your first order above \u20b9300"", ""payment_method"": null}, {""code"": ""WELCOME_2877"", ""min_amount"": 460, ""discount_amount"": 91, ""description"": ""\u20b9100 off on orders above \u20b9500"", ""payment_method"": null}, {""code"": ""CASHBACK_2877"", ""min_amount"": 464, ""discount_amount"": 70, ""description"": ""\u20b975 off on Cash payments above \u20b9500"", ""payment_method"": ""Cash""}, {""code"": ""CREDITCARD_2877"", ""min_amount"": 753, ""discount_amount"": 159, ""description"": ""\u20b9150 off on orders above \u20b9750 with Credit Card"", ""payment_method"": ""CreditCard""}, {""code"": ""FESTIVAL_2877"", ""min_amount"": 1430, ""discount_amount"": 293, ""description"": ""\u20b9300 off on orders above \u20b91500"", ""payment_method"": null}]",8.888403509996794,89.31860220241433,2021-07-09 10:07:09,2023-07-18 03:34:58
2878,Taste of India,"Fast Food, Pizza",698,9848651792,11:00 - 15:00,42,True,Open,Naik Road,"Ground Floor, Naik Road, jamnagar - 887572",4.0,"[{""code"": ""SPECIAL_2878"", ""min_amount"": 780, ""discount_amount"": 149, ""description"": ""\u20b9150 off on orders above \u20b9800"", ""payment_method"": null}, {""code"": ""DEBITCARD_2878"", ""min_amount"": 616, ""discount_amount"": 104, ""description"": ""\u20b9100 off on orders above \u20b9600 with Debit Card"", ""payment_method"": ""DebitCard""}, {""code"": ""FESTIVAL_2878"", ""min_amount"": 1374, ""discount_amount"": 320, ""description"": ""\u20b9300 off on orders above \u20b91500"", ""payment_method"": null}]",27.48908301112727,93.2021569900549,2020-12-06 23:36:41,2025-02-14 14:21:48
2879,Fettuccine Feast,"Italian, Bakery, South Indian",670,9327007332,20:00 - 00:00,42,True,Open,Bajaj Chowk," Bajaj Chowk, jamnagar - 887572",3.6,"[{""code"": ""FIRSTORDER_2879"", ""min_amount"": 325, ""discount_amount"": 72, ""description"": ""\u20b975 off on your first order above \u20b9300"", ""payment_method"": null}, {""code"": ""WELCOME_2879"", ""min_amount"": 546, ""discount_amount"": 101, ""description"": ""\u20b9100 off on orders above \u20b9500"", ""payment_method"": null}, {""code"": ""SPECIAL_2879"", ""min_amount"": 840, ""discount_amount"": 156, ""description"": ""\u20b9150 off on orders above \u20b9800"", ""payment_method"": null}]",22.284608399241986,70.02934426467678,2021-02-04 09:48:38,2024-11-17 10:37:59
2880,Foodgasm Express,Lebanese,532,9705545509,11:00 - 15:00,42,True,Open,Gola Chowk,"Third Floor, Gola Chowk, jamnagar - 887572",3.8,"[{""code"": ""WEEKEND_2880"", ""min_amount"": 1094, ""discount_amount"": 182, ""description"": ""\u20b9200 off on orders above \u20b91000"", ""payment_method"": null}, {""code"": ""SPECIAL_2880"", ""min_amount"": 789, ""discount_amount"": 160, ""description"": ""\u20b9150 off on orders above \u20b9800"", ""payment_method"": null}, {""code"": ""FIRSTORDER_2880"", ""min_amount"": 290, ""discount_amount"": 79, ""description"": ""\u20b975 off on your first order above \u20b9300"", ""payment_method"": null}, {""code"": ""CREDITCARD_2880"", ""min_amount"": 818, ""discount_amount"": 146, ""description"": ""\u20b9150 off on orders above \u20b9750 with Credit Card"", ""payment_method"": ""CreditCard""}]",28.169421003599112,84.1330574052102,2021-03-12 07:10:52,2023-05-18 04:49:44
2881,Tuscany Treats,Japanese,1804,9583774585,16:00 - 19:00,42,True,Open,Dar Ganj,"Second Floor, Dar Ganj, jamnagar - 887572",3.7,"[{""code"": ""DEBITCARD_2881"", ""min_amount"": 614, ""discount_amount"": 105, ""description"": ""\u20b9100 off on orders above \u20b9600 with Debit Card"", ""payment_method"": ""DebitCard""}, {""code"": ""SPECIAL_2881"", ""min_amount"": 834, ""discount_amount"": 137, ""description"": ""\u20b9150 off on orders above \u20b9800"", ""payment_method"": null}, {""code"": ""CASHBACK_2881"", ""min_amount"": 465, ""discount_amount"": 78, ""description"": ""\u20b975 off on Cash payments above \u20b9500"", ""payment_method"": ""Cash""}]",24.54870156855413,79.41844073555812,2020-12-27 06:33:16,2023-04-27 22:03:32
2882,Spoon Studio,Desserts,848,9487298927,06:00 - 11:00,42,True,Open,Tella Nagar,"Ground Floor, Tella Nagar, jamnagar - 887572",4.2,"[{""code"": ""SPECIAL_2882"", ""min_amount"": 788, ""discount_amount"": 151, ""description"": ""\u20b9150 off on orders above \u20b9800"", ""payment_method"": null}, {""code"": ""WEEKEND_2882"", ""min_amount"": 1002, ""discount_amount"": 184, ""description"": ""\u20b9200 off on orders above \u20b91000"", ""payment_method"": null}, {""code"": ""WELCOME_2882"", ""min_amount"": 458, ""discount_amount"": 101, ""description"": ""\u20b9100 off on orders above \u20b9500"", ""payment_method"": null}, {""code"": ""CASHBACK_2882"", ""min_amount"": 509, ""discount_amount"": 79, ""description"": ""\u20b975 off on Cash payments above \u20b9500"", ""payment_method"": ""Cash""}]",35.93443863839961,81.39720894564424,2021-12-07 13:47:08,2022-03-12 17:30:04
2883,Diverse Dishes,Lebanese,1047,9516396603,20:00 - 00:00,42,True,Open,Dutta Path," Dutta Path, jamnagar - 887572",3.7,"[{""code"": ""CASHBACK_2883"", ""min_amount"": 463, ""discount_amount"": 72, ""description"": ""\u20b975 off on Cash payments above \u20b9500"", ""payment_method"": ""Cash""}, {""code"": ""WEEKEND_2883"", ""min_amount"": 998, ""discount_amount"": 182, ""description"": ""\u20b9200 off on orders above \u20b91000"", ""payment_method"": null}, {""code"": ""CREDITCARD_2883"", ""min_amount"": 740, ""discount_amount"": 147, ""description"": ""\u20b9150 off on orders above \u20b9750 with Credit Card"", ""payment_method"": ""CreditCard""}, {""code"": ""FESTIVAL_2883"", ""min_amount"": 1495, ""discount_amount"": 274, ""description"": ""\u20b9300 off on orders above \u20b91500"", ""payment_method"": null}, {""code"": ""SPECIAL_2883"", ""min_amount"": 760, ""discount_amount"": 142, ""description"": ""\u20b9150 off on orders above \u20b9800"", ""payment_method"": null}]",34.83206116995008,96.62684097759649,2021-01-25 05:55:10,2024-01-04 10:42:31
2884,Flavor Reactor,"Burger, Mexican",1137,9214860711,06:00 - 11:00,42,False,Closed,Palan Marg,"Ground Floor, Palan Marg, jamnagar - 887572",3.9,"[{""code"": ""DEBITCARD_2884"", ""min_amount"": 637, ""discount_amount"": 107, ""description"": ""\u20b9100 off on orders above \u20b9600 with Debit Card"", ""payment_method"": ""DebitCard""}, {""code"": ""CREDITCARD_2884"", ""min_amount"": 821, ""discount_amount"": 139, ""description"": ""\u20b9150 off on orders above \u20b9750 with Credit Card"", ""payment_method"": ""CreditCard""}, {""code"": ""FESTIVAL_2884"", ""min_amount"": 1446, ""discount_amount"": 326, ""description"": ""\u20b9300 off on orders above \u20b91500"", ""payment_method"": null}, {""code"": ""WEEKEND_2884"", ""min_amount"": 940, ""discount_amount"": 192, ""description"": ""\u20b9200 off on orders above \u20b91000"", ""payment_method"": null}, {""code"": ""CASHBACK_2884"", ""min_amount"": 546, ""discount_amount"": 82, ""description"": ""\u20b975 off on Cash payments above \u20b9500"", ""payment_method"": ""Cash""}]",36.105645101921304,78.18480149714695,2021-05-12 16:49:33,2023-11-01 10:15:09
2885,Dim Sum Delight,"Cafe, Pizza, Thai",867,9503786306,12:00 - 16:00,42,True,Open,Bajwa Zila,"Third Floor, Bajwa Zila, jamnagar - 887572",5.0,"[{""code"": ""CASHBACK_2885"", ""min_amount"": 526, ""discount_amount"": 67, ""description"": ""\u20b975 off on Cash payments above \u20b9500"", ""payment_method"": ""Cash""}, {""code"": ""WEEKEND_2885"", ""min_amount"": 1045, ""discount_amount"": 217, ""description"": ""\u20b9200 off on orders above \u20b91000"", ""payment_method"": null}, {""code"": ""CREDITCARD_2885"", ""min_amount"": 706, ""discount_amount"": 158, ""description"": ""\u20b9150 off on orders above \u20b9750 with Credit Card"", ""payment_method"": ""CreditCard""}]",19.058453691940937,95.31051720640012,2021-12-07 10:32:43,2024-07-13 11:34:41
2886,Rajkot Tandoor,"Cafe, Continental",1497,9425164079,11:00 - 15:00,42,True,Open,Oza Street,"First Floor, Oza Street, jamnagar - 887572",4.0,"[{""code"": ""UPISAVE_2886"", ""min_amount"": 392, ""discount_amount"": 80, ""description"": ""\u20b980 off on orders above \u20b9400 with UPI"", ""payment_method"": ""UPI""}, {""code"": ""CASHBACK_2886"", ""min_amount"": 542, ""discount_amount"": 77, ""description"": ""\u20b975 off on Cash payments above \u20b9500"", ""payment_method"": ""Cash""}, {""code"": ""FIRSTORDER_2886"", ""min_amount"": 302, ""discount_amount"": 79, ""description"": ""\u20b975 off on your first order above \u20b9300"", ""payment_method"": null}]",29.284902625943246,91.2281415899328,2021-03-15 04:41:17,2021-06-18 02:58:55
2887,Mozza & Co.,"Ice Cream, Chinese, Italian",1774,9366535973,19:00 - 23:00,42,True,Open,Mani Marg,"Second Floor, Mani Marg, jamnagar - 887572",3.6,"[{""code"": ""DEBITCARD_2887"", ""min_amount"": 541, ""discount_amount"": 95, ""description"": ""\u20b9100 off on orders above \u20b9600 with Debit Card"", ""payment_method"": ""DebitCard""}, {""code"": ""CREDITCARD_2887"", ""min_amount"": 751, ""discount_amount"": 150, ""description"": ""\u20b9150 off on orders above \u20b9750 with Credit Card"", ""payment_method"": ""CreditCard""}, {""code"": ""CASHBACK_2887"", ""min_amount"": 508, ""discount_amount"": 76, ""description"": ""\u20b975 off on Cash payments above \u20b9500"", ""payment_method"": ""Cash""}, {""code"": ""FESTIVAL_2887"", ""min_amount"": 1483, ""discount_amount"": 293, ""description"": ""\u20b9300 off on orders above \u20b91500"", ""payment_method"": null}, {""code"": ""WELCOME_2887"", ""min_amount"": 527, ""discount_amount"": 101, ""description"": ""\u20b9100 off on orders above \u20b9500"", ""payment_method"": null}]",13.25708400377926,86.19195411104464,2021-09-09 14:30:55,2023-03-24 12:59:15
2888,Nebula Eats,Street Food,250,9618371508,06:00 - 11:00,42,True,Open,Sodhi Street,"Third Floor, Sodhi Street, jamnagar - 887572",3.2,"[{""code"": ""WEEKEND_2888"", ""min_amount"": 1056, ""discount_amount"": 200, ""description"": ""\u20b9200 off on orders above \u20b91000"", ""payment_method"": null}, {""code"": ""CREDITCARD_2888"", ""min_amount"": 727, ""discount_amount"": 137, ""description"": ""\u20b9150 off on orders above \u20b9750 with Credit Card"", ""payment_method"": ""CreditCard""}, {""code"": ""CASHBACK_2888"", ""min_amount"": 522, ""discount_amount"": 74, ""description"": ""\u20b975 off on Cash payments above \u20b9500"", ""payment_method"": ""Cash""}, {""code"": ""DEBITCARD_2888"", ""min_amount"": 548, ""discount_amount"": 90, ""description"": ""\u20b9100 off on orders above \u20b9600 with Debit Card"", ""payment_method"": ""DebitCard""}, {""code"": ""FESTIVAL_2888"", ""min_amount"": 1563, ""discount_amount"": 271, ""description"": ""\u20b9300 off on orders above \u20b91500"", ""payment_method"": null}]",35.279988304394884,71.15115452344551,2021-08-11 19:06:55,2022-03-01 22:31:46
2889,Trattoria Italia,"Italian, Mediterranean, Thai",1256,9287317728,16:00 - 19:00,42,True,Open,Merchant Road,"Second Floor, Merchant Road, jamnagar - 887572",2.9,"[{""code"": ""DEBITCARD_2889"", ""min_amount"": 616, ""discount_amount"": 98, ""description"": ""\u20b9100 off on orders above \u20b9600 with Debit Card"", ""payment_method"": ""DebitCard""}, {""code"": ""WEEKEND_2889"", ""min_amount"": 905, ""discount_amount"": 204, ""description"": ""\u20b9200 off on orders above \u20b91000"", ""payment_method"": null}, {""code"": ""SPECIAL_2889"", ""min_amount"": 751, ""discount_amount"": 152, ""description"": ""\u20b9150 off on orders above \u20b9800"", ""payment_method"": null}]",24.747589412704,96.06410785050426,2021-04-20 13:13:15,2022-12-04 05:09:21
2890,Zesty Bites,Mexican,621,9398870482,20:00 - 00:00,42,True,Open,Lalla Street,"Ground Floor, Lalla Street, jamnagar - 887572",4.2,"[{""code"": ""WEEKEND_2890"", ""min_amount"": 922, ""discount_amount"": 206, ""description"": ""\u20b9200 off on orders above \u20b91000"", ""payment_method"": null}, {""code"": ""CREDITCARD_2890"", ""min_amount"": 748, ""discount_amount"": 163, ""description"": ""\u20b9150 off on orders above \u20b9750 with Credit Card"", ""payment_method"": ""CreditCard""}, {""code"": ""CASHBACK_2890"", ""min_amount"": 481, ""discount_amount"": 73, ""description"": ""\u20b975 off on Cash payments above \u20b9500"", ""payment_method"": ""Cash""}, {""code"": ""SPECIAL_2890"", ""min_amount"": 782, ""discount_amount"": 138, ""description"": ""\u20b9150 off on orders above \u20b9800"", ""payment_method"": null}, {""code"": ""FESTIVAL_2890"", ""min_amount"": 1455, ""discount_amount"": 297, ""description"": ""\u20b9300 off on orders above \u20b91500"", ""payment_method"": null}]",25.2585588318941,91.52579228911556,2021-12-07 02:05:42,2022-08-28 13:08:14
2891,Thalipeeth House House Delight,"Lebanese, Pizza, Chinese",1576,9243825321,12:00 - 16:00,42,True,Open,Dora Marg,"First Floor, Dora Marg, jamnagar - 887572",3.5,"[{""code"": ""WEEKEND_2891"", ""min_amount"": 1014, ""discount_amount"": 196, ""description"": ""\u20b9200 off on orders above \u20b91000"", ""payment_method"": null}, {""code"": ""DEBITCARD_2891"", ""min_amount"": 598, ""discount_amount"": 100, ""description"": ""\u20b9100 off on orders above \u20b9600 with Debit Card"", ""payment_method"": ""DebitCard""}, {""code"": ""FESTIVAL_2891"", ""min_amount"": 1625, ""discount_amount"": 325, ""description"": ""\u20b9300 off on orders above \u20b91500"", ""payment_method"": null}, {""code"": ""FIRSTORDER_2891"", ""min_amount"": 280, ""discount_amount"": 70, ""description"": ""\u20b975 off on your first order above \u20b9300"", ""payment_method"": null}, {""code"": ""SPECIAL_2891"", ""min_amount"": 766, ""discount_amount"": 140, ""description"": ""\u20b9150 off on orders above \u20b9800"", ""payment_method"": null}]",17.31709607403657,73.92592099836385,2021-10-03 22:30:53,2023-06-18 21:17:28
2892,Sunbeam Grove,"South Indian, Street Food, North Indian",1192,9246603034,11:00 - 15:00,42,True,Open,Tandon Ganj,"Third Floor, Tandon Ganj, jamnagar - 887572",2.9,"[{""code"": ""DEBITCARD_2892"", ""min_amount"": 640, ""discount_amount"": 99, ""description"": ""\u20b9100 off on orders above \u20b9600 with Debit Card"", ""payment_method"": ""DebitCard""}, {""code"": ""UPISAVE_2892"", ""min_amount"": 366, ""discount_amount"": 72, ""description"": ""\u20b980 off on orders above \u20b9400 with UPI"", ""payment_method"": ""UPI""}, {""code"": ""FESTIVAL_2892"", ""min_amount"": 1578, ""discount_amount"": 287, ""description"": ""\u20b9300 off on orders above \u20b91500"", ""payment_method"": null}, {""code"": ""CREDITCARD_2892"", ""min_amount"": 716, ""discount_amount"": 151, ""description"": ""\u20b9150 off on orders above \u20b9750 with Credit Card"", ""payment_method"": ""CreditCard""}]",36.543809410916246,83.13025546331065,2021-07-05 05:23:51,2023-01-04 22:25:49
2893,Kolhapuri Tadka Junction Treats,"Pizza, Cafe",1325,9648473746,06:00 - 11:00,42,True,Open,Sandal Chowk,"Ground Floor, Sandal Chowk, jamnagar - 887572",4.8,"[{""code"": ""CASHBACK_2893"", ""min_amount"": 494, ""discount_amount"": 70, ""description"": ""\u20b975 off on Cash payments above \u20b9500"", ""payment_method"": ""Cash""}, {""code"": ""WELCOME_2893"", ""min_amount"": 492, ""discount_amount"": 104, ""description"": ""\u20b9100 off on orders above \u20b9500"", ""payment_method"": null}, {""code"": ""DEBITCARD_2893"", ""min_amount"": 618, ""discount_amount"": 94, ""description"": ""\u20b9100 off on orders above \u20b9600 with Debit Card"", ""payment_method"": ""DebitCard""}, {""code"": ""CREDITCARD_2893"", ""min_amount"": 806, ""discount_amount"": 135, ""description"": ""\u20b9150 off on orders above \u20b9750 with Credit Card"", ""payment_method"": ""CreditCard""}]",16.222356154272706,84.20568149875643,2020-11-11 01:36:05,2022-12-27 04:45:36
2894,Naan & Tikka,"Chinese, Fast Food",1972,9226042285,20:00 - 00:00,42,True,Open,Mital Circle,"First Floor, Mital Circle, jamnagar - 887572",5.0,"[{""code"": ""CREDITCARD_2894"", ""min_amount"": 792, ""discount_amount"": 159, ""description"": ""\u20b9150 off on orders above \u20b9750 with Credit Card"", ""payment_method"": ""CreditCard""}, {""code"": ""DEBITCARD_2894"", ""min_amount"": 636, ""discount_amount"": 101, ""description"": ""\u20b9100 off on orders above \u20b9600 with Debit Card"", ""payment_method"": ""DebitCard""}, {""code"": ""SPECIAL_2894"", ""min_amount"": 805, ""discount_amount"": 152, ""description"": ""\u20b9150 off on orders above \u20b9800"", ""payment_method"": null}, {""code"": ""FIRSTORDER_2894"", ""min_amount"": 280, ""discount_amount"": 82, ""description"": ""\u20b975 off on your first order above \u20b9300"", ""payment_method"": null}, {""code"": ""UPISAVE_2894"", ""min_amount"": 383, ""discount_amount"": 81, ""description"": ""\u20b980 off on orders above \u20b9400 with UPI"", ""payment_method"": ""UPI""}]",14.528442493621403,89.75885063622316,2021-06-01 21:02:06,2022-03-08 04:23:37
2895,Ion Flame,"Italian, Continental, Beverages",321,9397773877,20:00 - 00:00,42,True,Open,Nadkarni Nagar,"First Floor, Nadkarni Nagar, jamnagar - 887572",3.7,"[{""code"": ""CREDITCARD_2895"", ""min_amount"": 801, ""discount_amount"": 146, ""description"": ""\u20b9150 off on orders above \u20b9750 with Credit Card"", ""payment_method"": ""CreditCard""}, {""code"": ""FESTIVAL_2895"", ""min_amount"": 1392, ""discount_amount"": 307, ""description"": ""\u20b9300 off on orders above \u20b91500"", ""payment_method"": null}, {""code"": ""DEBITCARD_2895"", ""min_amount"": 615, ""discount_amount"": 97, ""description"": ""\u20b9100 off on orders above \u20b9600 with Debit Card"", ""payment_method"": ""DebitCard""}]",28.881654599975803,72.48832394539032,2021-09-28 14:34:22,2022-07-28 22:32:10
2896,Dhokla Tandoor,"Chinese, Desserts, Bakery",1735,9398742558,19:00 - 23:00,42,True,Open,Mani Path,"Second Floor, Mani Path, jamnagar - 887572",3.8,"[{""code"": ""WELCOME_2896"", ""min_amount"": 535, ""discount_amount"": 105, ""description"": ""\u20b9100 off on orders above \u20b9500"", ""payment_method"": null}, {""code"": ""SPECIAL_2896"", ""min_amount"": 783, ""discount_amount"": 164, ""description"": ""\u20b9150 off on orders above \u20b9800"", ""payment_method"": null}, {""code"": ""CREDITCARD_2896"", ""min_amount"": 798, ""discount_amount"": 149, ""description"": ""\u20b9150 off on orders above \u20b9750 with Credit Card"", ""payment_method"": ""CreditCard""}, {""code"": ""FESTIVAL_2896"", ""min_amount"": 1446, ""discount_amount"": 287, ""description"": ""\u20b9300 off on orders above \u20b91500"", ""payment_method"": null}, {""code"": ""WEEKEND_2896"", ""min_amount"": 1009, ""discount_amount"": 185, ""description"": ""\u20b9200 off on orders above \u20b91000"", ""payment_method"": null}]",21.67711295297309,82.63366991649649,2021-05-22 18:16:42,2022-06-21 09:20:01
2897,Nomad Bites,"South Indian, Burger",403,9772355141,20:00 - 00:00,42,True,Open,Chakrabarti Chowk,"Third Floor, Chakrabarti Chowk, jamnagar - 887572",3.8,"[{""code"": ""UPISAVE_2897"", ""min_amount"": 439, ""discount_amount"": 78, ""description"": ""\u20b980 off on orders above \u20b9400 with UPI"", ""payment_method"": ""UPI""}, {""code"": ""CASHBACK_2897"", ""min_amount"": 549, ""discount_amount"": 81, ""description"": ""\u20b975 off on Cash payments above \u20b9500"", ""payment_method"": ""Cash""}, {""code"": ""WELCOME_2897"", ""min_amount"": 538, ""discount_amount"": 96, ""description"": ""\u20b9100 off on orders above \u20b9500"", ""payment_method"": null}]",8.875415489284137,95.23530859117174,2021-11-15 22:49:57,2022-09-11 07:16:47
2898,Hakka Street,Street Food,712,9188498371,12:00 - 16:00,42,True,Open,Kanda Road,"First Floor, Kanda Road, jamnagar - 887572",3.8,"[{""code"": ""FESTIVAL_2898"", ""min_amount"": 1350, ""discount_amount"": 298, ""description"": ""\u20b9300 off on orders above \u20b91500"", ""payment_method"": null}, {""code"": ""DEBITCARD_2898"", ""min_amount"": 555, ""discount_amount"": 94, ""description"": ""\u20b9100 off on orders above \u20b9600 with Debit Card"", ""payment_method"": ""DebitCard""}, {""code"": ""CREDITCARD_2898"", ""min_amount"": 776, ""discount_amount"": 135, ""description"": ""\u20b9150 off on orders above \u20b9750 with Credit Card"", ""payment_method"": ""CreditCard""}, {""code"": ""WELCOME_2898"", ""min_amount"": 519, ""discount_amount"": 106, ""description"": ""\u20b9100 off on orders above \u20b9500"", ""payment_method"": null}, {""code"": ""UPISAVE_2898"", ""min_amount"": 439, ""discount_amount"": 78, ""description"": ""\u20b980 off on orders above \u20b9400 with UPI"", ""payment_method"": ""UPI""}]",9.912188431420727,86.56100202740944,2021-09-25 23:36:25,2022-01-18 18:24:42
2899,Puneri Misal Express,"Chinese, Thai",984,9195918514,19:00 - 23:00,42,True,Open,Devan,"Ground Floor, Devan, jamnagar - 887572",3.9,"[{""code"": ""WEEKEND_2899"", ""min_amount"": 1028, ""discount_amount"": 207, ""description"": ""\u20b9200 off on orders above \u20b91000"", ""payment_method"": null}, {""code"": ""DEBITCARD_2899"", ""min_amount"": 548, ""discount_amount"": 101, ""description"": ""\u20b9100 off on orders above \u20b9600 with Debit Card"", ""payment_method"": ""DebitCard""}, {""code"": ""UPISAVE_2899"", ""min_amount"": 408, ""discount_amount"": 74, ""description"": ""\u20b980 off on orders above \u20b9400 with UPI"", ""payment_method"": ""UPI""}, {""code"": ""SPECIAL_2899"", ""min_amount"": 776, ""discount_amount"": 141, ""description"": ""\u20b9150 off on orders above \u20b9800"", ""payment_method"": null}]",11.413484769686036,79.19388623872575,2021-07-26 06:08:47,2021-08-28 03:53:48
2900,Nagpuri Saoji Express,"Burger, Fast Food",1961,9333264702,06:00 - 11:00,42,True,Open,Dasgupta Circle,"Ground Floor, Dasgupta Circle, jamnagar - 887572",3.7,"[{""code"": ""DEBITCARD_2900"", ""min_amount"": 569, ""discount_amount"": 102, ""description"": ""\u20b9100 off on orders above \u20b9600 with Debit Card"", ""payment_method"": ""DebitCard""}, {""code"": ""CREDITCARD_2900"", ""min_amount"": 712, ""discount_amount"": 153, ""description"": ""\u20b9150 off on orders above \u20b9750 with Credit Card"", ""payment_method"": ""CreditCard""}, {""code"": ""FESTIVAL_2900"", ""min_amount"": 1566, ""discount_amount"": 287, ""description"": ""\u20b9300 off on orders above \u20b91500"", ""payment_method"": null}, {""code"": ""WEEKEND_2900"", ""min_amount"": 1088, ""discount_amount"": 181, ""description"": ""\u20b9200 off on orders above \u20b91000"", ""payment_method"": null}, {""code"": ""SPECIAL_2900"", ""min_amount"": 855, ""discount_amount"": 161, ""description"": ""\u20b9150 off on orders above \u20b9800"", ""payment_method"": null}]",12.488383734013237,72.21613870212686,2020-12-03 09:47:30,2024-03-17 13:39:24
2901,Curry Leaf Caf,"Burger, Bakery, Mexican",1731,9520639451,12:00 - 16:00,42,True,Open,Lalla Path,"Ground Floor, Lalla Path, jamnagar - 887572",3.0,"[{""code"": ""UPISAVE_2901"", ""min_amount"": 379, ""discount_amount"": 82, ""description"": ""\u20b980 off on orders above \u20b9400 with UPI"", ""payment_method"": ""UPI""}, {""code"": ""DEBITCARD_2901"", ""min_amount"": 548, ""discount_amount"": 107, ""description"": ""\u20b9100 off on orders above \u20b9600 with Debit Card"", ""payment_method"": ""DebitCard""}, {""code"": ""WELCOME_2901"", ""min_amount"": 451, ""discount_amount"": 97, ""description"": ""\u20b9100 off on orders above \u20b9500"", ""payment_method"": null}]",31.2870067076314,91.36236280579767,2021-06-15 12:55:44,2023-11-13 06:37:37
2902,Zen Dragon,Desserts,1962,9710293796,12:00 - 16:00,42,True,Open,Varty Chowk," Varty Chowk, jamnagar - 887572",4.1,"[{""code"": ""WELCOME_2902"", ""min_amount"": 476, ""discount_amount"": 90, ""description"": ""\u20b9100 off on orders above \u20b9500"", ""payment_method"": null}, {""code"": ""SPECIAL_2902"", ""min_amount"": 729, ""discount_amount"": 158, ""description"": ""\u20b9150 off on orders above \u20b9800"", ""payment_method"": null}, {""code"": ""CASHBACK_2902"", ""min_amount"": 500, ""discount_amount"": 76, ""description"": ""\u20b975 off on Cash payments above \u20b9500"", ""payment_method"": ""Cash""}]",28.341907830870845,90.47582552691898,2020-12-03 08:55:49,2022-03-11 05:33:43
2903,Lumen,"Beverages, Desserts",368,9787771674,16:00 - 19:00,42,True,Open,Keer Chowk," Keer Chowk, jamnagar - 887572",3.3,"[{""code"": ""CASHBACK_2903"", ""min_amount"": 465, ""discount_amount"": 72, ""description"": ""\u20b975 off on Cash payments above \u20b9500"", ""payment_method"": ""Cash""}, {""code"": ""FESTIVAL_2903"", ""min_amount"": 1525, ""discount_amount"": 315, ""description"": ""\u20b9300 off on orders above \u20b91500"", ""payment_method"": null}, {""code"": ""DEBITCARD_2903"", ""min_amount"": 617, ""discount_amount"": 102, ""description"": ""\u20b9100 off on orders above \u20b9600 with Debit Card"", ""payment_method"": ""DebitCard""}]",12.858268959090545,71.08669645635666,2021-09-28 19:38:42,2022-11-15 04:01:55
2904,Spicy Bamboo Kitchen,"Beverages, Thai, South Indian",700,9192570281,20:00 - 00:00,42,True,Open,Zacharia Marg,"Ground Floor, Zacharia Marg, jamnagar - 887572",,"[{""code"": ""WEEKEND_2904"", ""min_amount"": 927, ""discount_amount"": 180, ""description"": ""\u20b9200 off on orders above \u20b91000"", ""payment_method"": null}, {""code"": ""SPECIAL_2904"", ""min_amount"": 799, ""discount_amount"": 145, ""description"": ""\u20b9150 off on orders above \u20b9800"", ""payment_method"": null}, {""code"": ""WELCOME_2904"", ""min_amount"": 501, ""discount_amount"": 106, ""description"": ""\u20b9100 off on orders above \u20b9500"", ""payment_method"": null}, {""code"": ""CREDITCARD_2904"", ""min_amount"": 713, ""discount_amount"": 146, ""description"": ""\u20b9150 off on orders above \u20b9750 with Credit Card"", ""payment_method"": ""CreditCard""}]",21.63845779507657,86.08216514640351,2021-12-29 17:31:57,2022-12-24 18:19:22
2905,North Biryani Kitchen,"Italian, North Indian, Mughlai",1852,9560983746,12:00 - 16:00,42,True,Open,Trivedi Ganj,"Ground Floor, Trivedi Ganj, jamnagar - 887572",3.8,"[{""code"": ""SPECIAL_2905"", ""min_amount"": 728, ""discount_amount"": 160, ""description"": ""\u20b9150 off on orders above \u20b9800"", ""payment_method"": null}, {""code"": ""UPISAVE_2905"", ""min_amount"": 373, ""discount_amount"": 74, ""description"": ""\u20b980 off on orders above \u20b9400 with UPI"", ""payment_method"": ""UPI""}, {""code"": ""FESTIVAL_2905"", ""min_amount"": 1581, ""discount_amount"": 323, ""description"": ""\u20b9300 off on orders above \u20b91500"", ""payment_method"": null}, {""code"": ""FIRSTORDER_2905"", ""min_amount"": 310, ""discount_amount"": 69, ""description"": ""\u20b975 off on your first order above \u20b9300"", ""payment_method"": null}, {""code"": ""WEEKEND_2905"", ""min_amount"": 1048, ""discount_amount"": 180, ""description"": ""\u20b9200 off on orders above \u20b91000"", ""payment_method"": null}]",16.078129804133166,96.537694281067,2021-09-06 05:02:01,2022-10-19 03:05:52
2906,Thepla House,South Indian,1166,9490816787,12:00 - 16:00,42,False,Closed,Palla Road,"First Floor, Palla Road, jamnagar - 887572",4.6,"[{""code"": ""CASHBACK_2906"", ""min_amount"": 482, ""discount_amount"": 73, ""description"": ""\u20b975 off on Cash payments above \u20b9500"", ""payment_method"": ""Cash""}, {""code"": ""DEBITCARD_2906"", ""min_amount"": 626, ""discount_amount"": 95, ""description"": ""\u20b9100 off on orders above \u20b9600 with Debit Card"", ""payment_method"": ""DebitCard""}, {""code"": ""SPECIAL_2906"", ""min_amount"": 732, ""discount_amount"": 146, ""description"": ""\u20b9150 off on orders above \u20b9800"", ""payment_method"": null}]",13.62565926603879,96.1177682510108,2021-10-21 05:13:58,2025-04-20 11:07:34
2907,Prism Kitchen,"South Indian, Mediterranean, Thai",1847,9653808250,00:00 - 06:00,42,True,Open,Bumb Circle,"Third Floor, Bumb Circle, jamnagar - 887572",3.0,"[{""code"": ""FIRSTORDER_2907"", ""min_amount"": 297, ""discount_amount"": 73, ""description"": ""\u20b975 off on your first order above \u20b9300"", ""payment_method"": null}, {""code"": ""CREDITCARD_2907"", ""min_amount"": 718, ""discount_amount"": 158, ""description"": ""\u20b9150 off on orders above \u20b9750 with Credit Card"", ""payment_method"": ""CreditCard""}, {""code"": ""WELCOME_2907"", ""min_amount"": 523, ""discount_amount"": 94, ""description"": ""\u20b9100 off on orders above \u20b9500"", ""payment_method"": null}, {""code"": ""CASHBACK_2907"", ""min_amount"": 486, ""discount_amount"": 82, ""description"": ""\u20b975 off on Cash payments above \u20b9500"", ""payment_method"": ""Cash""}]",10.412651982964157,81.9784387795271,2021-05-10 02:31:41,2023-12-31 06:10:36
2908,Ragi Roti House,"Ice Cream, Thai, Continental",213,9540272920,06:00 - 11:00,42,True,Open,Sankar Road," Sankar Road, jamnagar - 887572",4.2,"[{""code"": ""CREDITCARD_2908"", ""min_amount"": 773, ""discount_amount"": 160, ""description"": ""\u20b9150 off on orders above \u20b9750 with Credit Card"", ""payment_method"": ""CreditCard""}, {""code"": ""WELCOME_2908"", ""min_amount"": 522, ""discount_amount"": 92, ""description"": ""\u20b9100 off on orders above \u20b9500"", ""payment_method"": null}, {""code"": ""DEBITCARD_2908"", ""min_amount"": 603, ""discount_amount"": 94, ""description"": ""\u20b9100 off on orders above \u20b9600 with Debit Card"", ""payment_method"": ""DebitCard""}]",18.51557197399066,92.66983789688577,2021-10-04 23:50:31,2025-04-24 09:34:34
2909,Wool & Whisk,Continental,1657,9400460098,06:00 - 11:00,42,True,Open,Narula,"First Floor, Narula, jamnagar - 887572",4.2,"[{""code"": ""CREDITCARD_2909"", ""min_amount"": 689, ""discount_amount"": 139, ""description"": ""\u20b9150 off on orders above \u20b9750 with Credit Card"", ""payment_method"": ""CreditCard""}, {""code"": ""UPISAVE_2909"", ""min_amount"": 425, ""discount_amount"": 73, ""description"": ""\u20b980 off on orders above \u20b9400 with UPI"", ""payment_method"": ""UPI""}, {""code"": ""CASHBACK_2909"", ""min_amount"": 506, ""discount_amount"": 74, ""description"": ""\u20b975 off on Cash payments above \u20b9500"", ""payment_method"": ""Cash""}, {""code"": ""WELCOME_2909"", ""min_amount"": 546, ""discount_amount"": 94, ""description"": ""\u20b9100 off on orders above \u20b9500"", ""payment_method"": null}, {""code"": ""FIRSTORDER_2909"", ""min_amount"": 285, ""discount_amount"": 72, ""description"": ""\u20b975 off on your first order above \u20b9300"", ""payment_method"": null}]",34.60079418039861,83.53912568794766,2021-02-12 18:58:52,2021-10-11 04:21:16
2910,Heritage Feast,"Mughlai, Burger, Fast Food",756,9350838144,06:00 - 11:00,42,True,Open,Baral Marg,"First Floor, Baral Marg, jamnagar - 887572",3.4,"[{""code"": ""WEEKEND_2910"", ""min_amount"": 989, ""discount_amount"": 192, ""description"": ""\u20b9200 off on orders above \u20b91000"", ""payment_method"": null}, {""code"": ""SPECIAL_2910"", ""min_amount"": 739, ""discount_amount"": 145, ""description"": ""\u20b9150 off on orders above \u20b9800"", ""payment_method"": null}, {""code"": ""UPISAVE_2910"", ""min_amount"": 421, ""discount_amount"": 79, ""description"": ""\u20b980 off on orders above \u20b9400 with UPI"", ""payment_method"": ""UPI""}]",12.374465915368196,90.68768600555818,2021-07-20 04:47:09,2022-08-01 23:48:25
2911,Ivory & Gold,"Italian, Chinese",522,9967150570,19:00 - 23:00,42,False,Closed,Sridhar Road," Sridhar Road, jamnagar - 887572",4.4,"[{""code"": ""WEEKEND_2911"", ""min_amount"": 1093, ""discount_amount"": 195, ""description"": ""\u20b9200 off on orders above \u20b91000"", ""payment_method"": null}, {""code"": ""SPECIAL_2911"", ""min_amount"": 727, ""discount_amount"": 143, ""description"": ""\u20b9150 off on orders above \u20b9800"", ""payment_method"": null}, {""code"": ""CREDITCARD_2911"", ""min_amount"": 798, ""discount_amount"": 140, ""description"": ""\u20b9150 off on orders above \u20b9750 with Credit Card"", ""payment_method"": ""CreditCard""}, {""code"": ""UPISAVE_2911"", ""min_amount"": 436, ""discount_amount"": 85, ""description"": ""\u20b980 off on orders above \u20b9400 with UPI"", ""payment_method"": ""UPI""}]",9.577630396772973,92.565651640707,2021-09-05 16:45:50,2023-03-27 06:46:49
2912,Mirth Kitchen,"Ice Cream, Thai, Italian",1146,9209422179,20:00 - 00:00,42,False,Closed,Bandi,"First Floor, Bandi, jamnagar - 887572",3.5,"[{""code"": ""WEEKEND_2912"", ""min_amount"": 980, ""discount_amount"": 207, ""description"": ""\u20b9200 off on orders above \u20b91000"", ""payment_method"": null}, {""code"": ""FESTIVAL_2912"", ""min_amount"": 1631, ""discount_amount"": 275, ""description"": ""\u20b9300 off on orders above \u20b91500"", ""payment_method"": null}, {""code"": ""DEBITCARD_2912"", ""min_amount"": 610, ""discount_amount"": 108, ""description"": ""\u20b9100 off on orders above \u20b9600 with Debit Card"", ""payment_method"": ""DebitCard""}]",11.946435060718224,70.46065521729834,2021-02-14 02:03:21,2021-10-10 02:02:27
2913,Locho Tadka,Chinese,604,9793623149,12:00 - 16:00,42,True,Open,Devi Street,"First Floor, Devi Street, jamnagar - 887572",3.6,"[{""code"": ""SPECIAL_2913"", ""min_amount"": 746, ""discount_amount"": 152, ""description"": ""\u20b9150 off on orders above \u20b9800"", ""payment_method"": null}, {""code"": ""WELCOME_2913"", ""min_amount"": 532, ""discount_amount"": 97, ""description"": ""\u20b9100 off on orders above \u20b9500"", ""payment_method"": null}, {""code"": ""FESTIVAL_2913"", ""min_amount"": 1358, ""discount_amount"": 310, ""description"": ""\u20b9300 off on orders above \u20b91500"", ""payment_method"": null}, {""code"": ""UPISAVE_2913"", ""min_amount"": 373, ""discount_amount"": 75, ""description"": ""\u20b980 off on orders above \u20b9400 with UPI"", ""payment_method"": ""UPI""}]",11.085776248784937,92.889713659347,2021-06-17 02:44:10,2021-10-31 19:50:59
2914,Banana Leaf Bhojan,"Japanese, Fast Food",504,9137204552,19:00 - 23:00,42,True,Open,Raghavan Nagar," Raghavan Nagar, jamnagar - 887572",3.8,"[{""code"": ""CASHBACK_2914"", ""min_amount"": 477, ""discount_amount"": 69, ""description"": ""\u20b975 off on Cash payments above \u20b9500"", ""payment_method"": ""Cash""}, {""code"": ""UPISAVE_2914"", ""min_amount"": 375, ""discount_amount"": 86, ""description"": ""\u20b980 off on orders above \u20b9400 with UPI"", ""payment_method"": ""UPI""}, {""code"": ""WELCOME_2914"", ""min_amount"": 502, ""discount_amount"": 102, ""description"": ""\u20b9100 off on orders above \u20b9500"", ""payment_method"": null}, {""code"": ""DEBITCARD_2914"", ""min_amount"": 636, ""discount_amount"": 105, ""description"": ""\u20b9100 off on orders above \u20b9600 with Debit Card"", ""payment_method"": ""DebitCard""}]",15.576915553961168,77.12525240364191,2021-06-20 19:40:35,2022-06-13 11:52:35
2915,Masala Fusion,"Street Food, Cafe, Ice Cream",1800,9620420638,12:00 - 16:00,42,True,Open,Palla Chowk," Palla Chowk, jamnagar - 887572",3.8,"[{""code"": ""WELCOME_2915"", ""min_amount"": 471, ""discount_amount"": 107, ""description"": ""\u20b9100 off on orders above \u20b9500"", ""payment_method"": null}, {""code"": ""CREDITCARD_2915"", ""min_amount"": 791, ""discount_amount"": 136, ""description"": ""\u20b9150 off on orders above \u20b9750 with Credit Card"", ""payment_method"": ""CreditCard""}, {""code"": ""FIRSTORDER_2915"", ""min_amount"": 329, ""discount_amount"": 75, ""description"": ""\u20b975 off on your first order above \u20b9300"", ""payment_method"": null}]",23.06988306187726,79.78828538895353,2020-11-30 18:47:00,2024-02-18 19:48:24
2916,Chopsticks & Co.,Mediterranean,405,9366134484,19:00 - 23:00,42,True,Open,Gokhale Path,"Second Floor, Gokhale Path, jamnagar - 887572",3.1,"[{""code"": ""WELCOME_2916"", ""min_amount"": 543, ""discount_amount"": 109, ""description"": ""\u20b9100 off on orders above \u20b9500"", ""payment_method"": null}, {""code"": ""FESTIVAL_2916"", ""min_amount"": 1402, ""discount_amount"": 284, ""description"": ""\u20b9300 off on orders above \u20b91500"", ""payment_method"": null}, {""code"": ""FIRSTORDER_2916"", ""min_amount"": 289, ""discount_amount"": 78, ""description"": ""\u20b975 off on your first order above \u20b9300"", ""payment_method"": null}, {""code"": ""UPISAVE_2916"", ""min_amount"": 388, ""discount_amount"": 81, ""description"": ""\u20b980 off on orders above \u20b9400 with UPI"", ""payment_method"": ""UPI""}, {""code"": ""WEEKEND_2916"", ""min_amount"": 1040, ""discount_amount"": 194, ""description"": ""\u20b9200 off on orders above \u20b91000"", ""payment_method"": null}]",23.98373528596406,91.2898224054855,2021-10-23 10:11:44,2023-12-13 12:26:28
2917,The Coconut Bowl,"Continental, Pizza, Mexican",1913,9970161616,20:00 - 00:00,42,True,Open,Mohan Nagar,"Third Floor, Mohan Nagar, jamnagar - 887572",4.0,"[{""code"": ""SPECIAL_2917"", ""min_amount"": 816, ""discount_amount"": 135, ""description"": ""\u20b9150 off on orders above \u20b9800"", ""payment_method"": null}, {""code"": ""WELCOME_2917"", ""min_amount"": 497, ""discount_amount"": 96, ""description"": ""\u20b9100 off on orders above \u20b9500"", ""payment_method"": null}, {""code"": ""CASHBACK_2917"", ""min_amount"": 511, ""discount_amount"": 79, ""description"": ""\u20b975 off on Cash payments above \u20b9500"", ""payment_method"": ""Cash""}]",24.230038364413005,73.71214571671158,2021-12-18 19:14:28,2024-03-18 23:02:13
2918,Basil & Oregano,"Mediterranean, Mughlai, South Indian",244,9258604568,19:00 - 23:00,42,True,Open,Bassi Zila,"First Floor, Bassi Zila, jamnagar - 887572",3.5,"[{""code"": ""SPECIAL_2918"", ""min_amount"": 783, ""discount_amount"": 138, ""description"": ""\u20b9150 off on orders above \u20b9800"", ""payment_method"": null}, {""code"": ""CREDITCARD_2918"", ""min_amount"": 720, ""discount_amount"": 139, ""description"": ""\u20b9150 off on orders above \u20b9750 with Credit Card"", ""payment_method"": ""CreditCard""}, {""code"": ""UPISAVE_2918"", ""min_amount"": 372, ""discount_amount"": 87, ""description"": ""\u20b980 off on orders above \u20b9400 with UPI"", ""payment_method"": ""UPI""}, {""code"": ""DEBITCARD_2918"", ""min_amount"": 635, ""discount_amount"": 109, ""description"": ""\u20b9100 off on orders above \u20b9600 with Debit Card"", ""payment_method"": ""DebitCard""}]",31.01150176554085,92.86702934038428,2021-02-23 22:02:14,2024-02-22 10:37:15
