RestaurantID,Name,CuisineType,Pricing_for_2,Restaurant_Phone,OperatingHours,LocationID,ActiveFlag,OpenStatus,Locality,Restaurant_Address,Ratings,Coupons,Latitude,Longitude,CreatedDate,ModifiedDate
366,Karnataka Bites,Street Food,220,9179168231,12:00 - 16:00,6,True,Open,Dugal Circle," Dugal Circle, Kolkata - 552417",3.7,"[{""code"": ""CREDITCARD_366"", ""min_amount"": 704, ""discount_amount"": 143, ""description"": ""\u20b9150 off on orders above \u20b9750 with Credit Card"", ""payment_method"": ""CreditCard""}, {""code"": ""WELCOME_366"", ""min_amount"": 471, ""discount_amount"": 95, ""description"": ""\u20b9100 off on orders above \u20b9500"", ""payment_method"": null}, {""code"": ""UPISAVE_366"", ""min_amount"": 373, ""discount_amount"": 85, ""description"": ""\u20b980 off on orders above \u20b9400 with UPI"", ""payment_method"": ""UPI""}]",11.763527343855332,76.99595094936826,2021-10-03 13:42:16,2022-08-01 07:48:46
376,Mint & Mustard,South Indian,1892,9839834472,19:00 - 23:00,6,True,Open,Yadav Path,"Ground Floor, Yadav Path, Kolkata - 552417",3.9,"[{""code"": ""FIRSTORDER_376"", ""min_amount"": 309, ""discount_amount"": 68, ""description"": ""\u20b975 off on your first order above \u20b9300"", ""payment_method"": null}, {""code"": ""FESTIVAL_376"", ""min_amount"": 1367, ""discount_amount"": 301, ""description"": ""\u20b9300 off on orders above \u20b91500"", ""payment_method"": null}, {""code"": ""SPECIAL_376"", ""min_amount"": 747, ""discount_amount"": 160, ""description"": ""\u20b9150 off on orders above \u20b9800"", ""payment_method"": null}, {""code"": ""WEEKEND_376"", ""min_amount"": 982, ""discount_amount"": 186, ""description"": ""\u20b9200 off on orders above \u20b91000"", ""payment_method"": null}]",13.851409472605312,70.68396906568788,2021-07-31 00:35:19,2024-08-06 06:31:24
384,Puneri Misal Express Delight,"Mediterranean, South Indian, Beverages",1249,9215624631,20:00 - 00:00,6,True,Open,Chakrabarti Ganj,"Second Floor, Chakrabarti Ganj, Kolkata - 552417",3.9,"[{""code"": ""CASHBACK_384"", ""min_amount"": 462, ""discount_amount"": 70, ""description"": ""\u20b975 off on Cash payments above \u20b9500"", ""payment_method"": ""Cash""}, {""code"": ""DEBITCARD_384"", ""min_amount"": 582, ""discount_amount"": 93, ""description"": ""\u20b9100 off on orders above \u20b9600 with Debit Card"", ""payment_method"": ""DebitCard""}, {""code"": ""FESTIVAL_384"", ""min_amount"": 1470, ""discount_amount"": 288, ""description"": ""\u20b9300 off on orders above \u20b91500"", ""payment_method"": null}]",24.811980222926763,74.11158215168435,2021-08-06 19:21:23,2023-08-30 13:43:34
390,Red Dragon Bites,Mexican,701,9555284547,11:00 - 15:00,6,True,Open,Bahl Ganj,"First Floor, Bahl Ganj, Kolkata - 552417",3.9,"[{""code"": ""FESTIVAL_390"", ""min_amount"": 1635, ""discount_amount"": 291, ""description"": ""\u20b9300 off on orders above \u20b91500"", ""payment_method"": null}, {""code"": ""FIRSTORDER_390"", ""min_amount"": 292, ""discount_amount"": 74, ""description"": ""\u20b975 off on your first order above \u20b9300"", ""payment_method"": null}, {""code"": ""DEBITCARD_390"", ""min_amount"": 590, ""discount_amount"": 102, ""description"": ""\u20b9100 off on orders above \u20b9600 with Debit Card"", ""payment_method"": ""DebitCard""}, {""code"": ""CASHBACK_390"", ""min_amount"": 493, ""discount_amount"": 69, ""description"": ""\u20b975 off on Cash payments above \u20b9500"", ""payment_method"": ""Cash""}, {""code"": ""WELCOME_390"", ""min_amount"": 545, ""discount_amount"": 99, ""description"": ""\u20b9100 off on orders above \u20b9500"", ""payment_method"": null}]",17.25054065236676,85.15684325842665,2021-11-29 19:50:08,2024-07-11 12:51:36
392,World on a Plate,"Desserts, Beverages",1008,9896924722,12:00 - 16:00,6,True,Open,Deshmukh Nagar,"Third Floor, Deshmukh Nagar, Kolkata - 552417",3.8,"[{""code"": ""DEBITCARD_392"", ""min_amount"": 586, ""discount_amount"": 101, ""description"": ""\u20b9100 off on orders above \u20b9600 with Debit Card"", ""payment_method"": ""DebitCard""}, {""code"": ""WELCOME_392"", ""min_amount"": 469, ""discount_amount"": 98, ""description"": ""\u20b9100 off on orders above \u20b9500"", ""payment_method"": null}, {""code"": ""UPISAVE_392"", ""min_amount"": 380, ""discount_amount"": 86, ""description"": ""\u20b980 off on orders above \u20b9400 with UPI"", ""payment_method"": ""UPI""}]",17.388076102127304,96.89375488643512,2021-12-17 10:33:42,2023-03-15 10:38:37
399,Lavender & Latte,Bakery,772,9850829666,20:00 - 00:00,6,True,Open,Kannan Zila,"First Floor, Kannan Zila, Kolkata - 552417",4.0,"[{""code"": ""UPISAVE_399"", ""min_amount"": 438, ""discount_amount"": 87, ""description"": ""\u20b980 off on orders above \u20b9400 with UPI"", ""payment_method"": ""UPI""}, {""code"": ""DEBITCARD_399"", ""min_amount"": 637, ""discount_amount"": 90, ""description"": ""\u20b9100 off on orders above \u20b9600 with Debit Card"", ""payment_method"": ""DebitCard""}, {""code"": ""CREDITCARD_399"", ""min_amount"": 729, ""discount_amount"": 136, ""description"": ""\u20b9150 off on orders above \u20b9750 with Credit Card"", ""payment_method"": ""CreditCard""}, {""code"": ""SPECIAL_399"", ""min_amount"": 849, ""discount_amount"": 144, ""description"": ""\u20b9150 off on orders above \u20b9800"", ""payment_method"": null}, {""code"": ""WELCOME_399"", ""min_amount"": 494, ""discount_amount"": 102, ""description"": ""\u20b9100 off on orders above \u20b9500"", ""payment_method"": null}]",19.15815293785936,86.35394090891316,2021-11-26 00:49:23,2022-05-16 02:48:57
409,The Still Room,"Pizza, Continental",403,9449211955,06:00 - 11:00,6,False,Closed,Basu," Basu, Kolkata - 552417",3.8,"[{""code"": ""DEBITCARD_409"", ""min_amount"": 602, ""discount_amount"": 101, ""description"": ""\u20b9100 off on orders above \u20b9600 with Debit Card"", ""payment_method"": ""DebitCard""}, {""code"": ""UPISAVE_409"", ""min_amount"": 417, ""discount_amount"": 84, ""description"": ""\u20b980 off on orders above \u20b9400 with UPI"", ""payment_method"": ""UPI""}, {""code"": ""WELCOME_409"", ""min_amount"": 462, ""discount_amount"": 105, ""description"": ""\u20b9100 off on orders above \u20b9500"", ""payment_method"": null}]",13.798783578244231,91.90737960827484,2021-11-13 11:36:56,2023-11-28 20:03:58
411,Cocoa & Chai,Beverages,1547,9100091879,11:00 - 15:00,6,True,Open,Kata Road,"Ground Floor, Kata Road, Kolkata - 552417",3.8,"[{""code"": ""CASHBACK_411"", ""min_amount"": 499, ""discount_amount"": 72, ""description"": ""\u20b975 off on Cash payments above \u20b9500"", ""payment_method"": ""Cash""}, {""code"": ""UPISAVE_411"", ""min_amount"": 432, ""discount_amount"": 87, ""description"": ""\u20b980 off on orders above \u20b9400 with UPI"", ""payment_method"": ""UPI""}, {""code"": ""SPECIAL_411"", ""min_amount"": 816, ""discount_amount"": 150, ""description"": ""\u20b9150 off on orders above \u20b9800"", ""payment_method"": null}, {""code"": ""FIRSTORDER_411"", ""min_amount"": 311, ""discount_amount"": 77, ""description"": ""\u20b975 off on your first order above \u20b9300"", ""payment_method"": null}]",36.029466784128566,83.53009969612127,2021-09-16 05:38:52,2024-08-09 19:19:02
424,Bhature Chole Point,"Beverages, Mexican, Cafe",1646,9940435889,20:00 - 00:00,6,True,Open,Memon Ganj," Memon Ganj, Kolkata - 552417",3.7,"[{""code"": ""WEEKEND_424"", ""min_amount"": 907, ""discount_amount"": 219, ""description"": ""\u20b9200 off on orders above \u20b91000"", ""payment_method"": null}, {""code"": ""FESTIVAL_424"", ""min_amount"": 1628, ""discount_amount"": 295, ""description"": ""\u20b9300 off on orders above \u20b91500"", ""payment_method"": null}, {""code"": ""WELCOME_424"", ""min_amount"": 511, ""discount_amount"": 91, ""description"": ""\u20b9100 off on orders above \u20b9500"", ""payment_method"": null}, {""code"": ""SPECIAL_424"", ""min_amount"": 728, ""discount_amount"": 147, ""description"": ""\u20b9150 off on orders above \u20b9800"", ""payment_method"": null}, {""code"": ""UPISAVE_424"", ""min_amount"": 384, ""discount_amount"": 82, ""description"": ""\u20b980 off on orders above \u20b9400 with UPI"", ""payment_method"": ""UPI""}]",26.24413296647889,74.08649983694666,2021-09-25 18:34:06,2022-06-08 22:18:47
428,Driftwood Dine,"Street Food, Fast Food",1489,9870222796,06:00 - 11:00,6,True,Open,Yogi Street,"Third Floor, Yogi Street, Kolkata - 552417",3.9,"[{""code"": ""WELCOME_428"", ""min_amount"": 478, ""discount_amount"": 109, ""description"": ""\u20b9100 off on orders above \u20b9500"", ""payment_method"": null}, {""code"": ""WEEKEND_428"", ""min_amount"": 912, ""discount_amount"": 218, ""description"": ""\u20b9200 off on orders above \u20b91000"", ""payment_method"": null}, {""code"": ""FIRSTORDER_428"", ""min_amount"": 281, ""discount_amount"": 79, ""description"": ""\u20b975 off on your first order above \u20b9300"", ""payment_method"": null}, {""code"": ""UPISAVE_428"", ""min_amount"": 399, ""discount_amount"": 80, ""description"": ""\u20b980 off on orders above \u20b9400 with UPI"", ""payment_method"": ""UPI""}, {""code"": ""SPECIAL_428"", ""min_amount"": 802, ""discount_amount"": 137, ""description"": ""\u20b9150 off on orders above \u20b9800"", ""payment_method"": null}]",10.377088079589322,80.66256879905929,2021-10-02 15:14:06,2024-11-17 18:44:09
641,Olive & Tomato,Chinese,862,9858087611,16:00 - 19:00,10,True,Open,Kohli Ganj,"Second Floor, Kohli Ganj, Lucknow - 791453",4.1,"[{""code"": ""FESTIVAL_641"", ""min_amount"": 1637, ""discount_amount"": 307, ""description"": ""\u20b9300 off on orders above \u20b91500"", ""payment_method"": null}, {""code"": ""DEBITCARD_641"", ""min_amount"": 580, ""discount_amount"": 96, ""description"": ""\u20b9100 off on orders above \u20b9600 with Debit Card"", ""payment_method"": ""DebitCard""}, {""code"": ""CASHBACK_641"", ""min_amount"": 511, ""discount_amount"": 76, ""description"": ""\u20b975 off on Cash payments above \u20b9500"", ""payment_method"": ""Cash""}, {""code"": ""WELCOME_641"", ""min_amount"": 509, ""discount_amount"": 100, ""description"": ""\u20b9100 off on orders above \u20b9500"", ""payment_method"": null}]",12.53115162004866,83.51067508036121,2021-12-09 13:29:11,2023-08-11 06:00:42
644,Manchurian Hub,"Continental, Street Food, South Indian",1170,9364769288,11:00 - 15:00,10,True,Open,Wali Circle,"Ground Floor, Wali Circle, Lucknow - 791453",3.8,"[{""code"": ""CASHBACK_644"", ""min_amount"": 545, ""discount_amount"": 74, ""description"": ""\u20b975 off on Cash payments above \u20b9500"", ""payment_method"": ""Cash""}, {""code"": ""WEEKEND_644"", ""min_amount"": 962, ""discount_amount"": 215, ""description"": ""\u20b9200 off on orders above \u20b91000"", ""payment_method"": null}, {""code"": ""DEBITCARD_644"", ""min_amount"": 564, ""discount_amount"": 106, ""description"": ""\u20b9100 off on orders above \u20b9600 with Debit Card"", ""payment_method"": ""DebitCard""}, {""code"": ""UPISAVE_644"", ""min_amount"": 375, ""discount_amount"": 86, ""description"": ""\u20b980 off on orders above \u20b9400 with UPI"", ""payment_method"": ""UPI""}]",17.95465983152485,92.24909007712922,2021-11-17 17:07:56,2023-12-12 15:21:54
651,Desi Chinese Dhaba,"Ice Cream, Street Food",1246,9517062575,11:00 - 15:00,10,True,Open,Tak Chowk,"First Floor, Tak Chowk, Lucknow - 791453",,"[{""code"": ""CREDITCARD_651"", ""min_amount"": 692, ""discount_amount"": 143, ""description"": ""\u20b9150 off on orders above \u20b9750 with Credit Card"", ""payment_method"": ""CreditCard""}, {""code"": ""FIRSTORDER_651"", ""min_amount"": 271, ""discount_amount"": 76, ""description"": ""\u20b975 off on your first order above \u20b9300"", ""payment_method"": null}, {""code"": ""FESTIVAL_651"", ""min_amount"": 1545, ""discount_amount"": 300, ""description"": ""\u20b9300 off on orders above \u20b91500"", ""payment_method"": null}]",30.42180700706289,76.01674337461269,2021-12-26 00:15:44,2022-02-22 18:18:34
652,Pan Asia Bites,Mediterranean,430,9144732180,12:00 - 16:00,10,True,Open,Misra Circle,"Ground Floor, Misra Circle, Lucknow - 791453",3.9,"[{""code"": ""FIRSTORDER_652"", ""min_amount"": 319, ""discount_amount"": 72, ""description"": ""\u20b975 off on your first order above \u20b9300"", ""payment_method"": null}, {""code"": ""FESTIVAL_652"", ""min_amount"": 1366, ""discount_amount"": 307, ""description"": ""\u20b9300 off on orders above \u20b91500"", ""payment_method"": null}, {""code"": ""CASHBACK_652"", ""min_amount"": 506, ""discount_amount"": 80, ""description"": ""\u20b975 off on Cash payments above \u20b9500"", ""payment_method"": ""Cash""}]",30.090151509985624,93.65938984356372,2021-11-09 03:17:37,2023-09-07 08:38:00
664,Ivory & Gold,"Pizza, Desserts",1841,9675163687,19:00 - 23:00,10,True,Open,Aurora Ganj,"Ground Floor, Aurora Ganj, Lucknow - 791453",3.8,"[{""code"": ""UPISAVE_664"", ""min_amount"": 363, ""discount_amount"": 81, ""description"": ""\u20b980 off on orders above \u20b9400 with UPI"", ""payment_method"": ""UPI""}, {""code"": ""WEEKEND_664"", ""min_amount"": 985, ""discount_amount"": 207, ""description"": ""\u20b9200 off on orders above \u20b91000"", ""payment_method"": null}, {""code"": ""FESTIVAL_664"", ""min_amount"": 1640, ""discount_amount"": 274, ""description"": ""\u20b9300 off on orders above \u20b91500"", ""payment_method"": null}, {""code"": ""CASHBACK_664"", ""min_amount"": 498, ""discount_amount"": 71, ""description"": ""\u20b975 off on Cash payments above \u20b9500"", ""payment_method"": ""Cash""}, {""code"": ""SPECIAL_664"", ""min_amount"": 781, ""discount_amount"": 157, ""description"": ""\u20b9150 off on orders above \u20b9800"", ""payment_method"": null}]",15.793565716604164,72.0594375832683,2021-11-28 09:39:15,2025-03-04 01:36:09
697,Hunan House,"Desserts, Beverages, Thai",1826,9432136364,19:00 - 23:00,10,True,Open,Bose Path,"First Floor, Bose Path, Lucknow - 791453",3.9,"[{""code"": ""WELCOME_697"", ""min_amount"": 508, ""discount_amount"": 92, ""description"": ""\u20b9100 off on orders above \u20b9500"", ""payment_method"": null}, {""code"": ""SPECIAL_697"", ""min_amount"": 737, ""discount_amount"": 148, ""description"": ""\u20b9150 off on orders above \u20b9800"", ""payment_method"": null}, {""code"": ""CASHBACK_697"", ""min_amount"": 464, ""discount_amount"": 68, ""description"": ""\u20b975 off on Cash payments above \u20b9500"", ""payment_method"": ""Cash""}]",15.427893351536792,72.94598220532647,2021-12-15 22:17:23,2023-07-08 05:54:01
788,Alabaster Table,Mexican,1475,9901841503,19:00 - 23:00,12,True,Open,Sani Circle,"Ground Floor, Sani Circle, Bhopal - 727889",3.8,"[{""code"": ""CREDITCARD_788"", ""min_amount"": 774, ""discount_amount"": 148, ""description"": ""\u20b9150 off on orders above \u20b9750 with Credit Card"", ""payment_method"": ""CreditCard""}, {""code"": ""FESTIVAL_788"", ""min_amount"": 1613, ""discount_amount"": 318, ""description"": ""\u20b9300 off on orders above \u20b91500"", ""payment_method"": null}, {""code"": ""FIRSTORDER_788"", ""min_amount"": 316, ""discount_amount"": 69, ""description"": ""\u20b975 off on your first order above \u20b9300"", ""payment_method"": null}, {""code"": ""WELCOME_788"", ""min_amount"": 526, ""discount_amount"": 95, ""description"": ""\u20b9100 off on orders above \u20b9500"", ""payment_method"": null}]",16.973476930700304,74.19429257562649,2021-06-30 04:27:39,2023-02-22 21:55:32
796,Lajawab Tikka House,"Chinese, South Indian",1865,9408942695,12:00 - 16:00,12,True,Open,Ramakrishnan Path," Ramakrishnan Path, Bhopal - 727889",3.8,"[{""code"": ""DEBITCARD_796"", ""min_amount"": 624, ""discount_amount"": 90, ""description"": ""\u20b9100 off on orders above \u20b9600 with Debit Card"", ""payment_method"": ""DebitCard""}, {""code"": ""WEEKEND_796"", ""min_amount"": 1013, ""discount_amount"": 187, ""description"": ""\u20b9200 off on orders above \u20b91000"", ""payment_method"": null}, {""code"": ""WELCOME_796"", ""min_amount"": 503, ""discount_amount"": 100, ""description"": ""\u20b9100 off on orders above \u20b9500"", ""payment_method"": null}]",36.25351549123224,82.74754575320895,2021-11-02 22:11:37,2023-05-18 11:15:29
797,Mediterranean Spice,"Beverages, Burger",1420,9372473426,16:00 - 19:00,12,False,Closed,Mital,"First Floor, Mital, Bhopal - 727889",3.8,"[{""code"": ""FESTIVAL_797"", ""min_amount"": 1596, ""discount_amount"": 325, ""description"": ""\u20b9300 off on orders above \u20b91500"", ""payment_method"": null}, {""code"": ""DEBITCARD_797"", ""min_amount"": 592, ""discount_amount"": 95, ""description"": ""\u20b9100 off on orders above \u20b9600 with Debit Card"", ""payment_method"": ""DebitCard""}, {""code"": ""SPECIAL_797"", ""min_amount"": 789, ""discount_amount"": 146, ""description"": ""\u20b9150 off on orders above \u20b9800"", ""payment_method"": null}]",11.918494123136472,68.85607370644007,2021-11-29 19:04:39,2023-02-03 01:34:10
805,Coconut Grove,Desserts,1353,9191405534,12:00 - 16:00,12,True,Open,Kothari,"Third Floor, Kothari, Bhopal - 727889",3.7,"[{""code"": ""WEEKEND_805"", ""min_amount"": 1063, ""discount_amount"": 190, ""description"": ""\u20b9200 off on orders above \u20b91000"", ""payment_method"": null}, {""code"": ""UPISAVE_805"", ""min_amount"": 373, ""discount_amount"": 82, ""description"": ""\u20b980 off on orders above \u20b9400 with UPI"", ""payment_method"": ""UPI""}, {""code"": ""CREDITCARD_805"", ""min_amount"": 758, ""discount_amount"": 150, ""description"": ""\u20b9150 off on orders above \u20b9750 with Credit Card"", ""payment_method"": ""CreditCard""}]",11.0719082677856,87.19902946703833,2021-10-18 09:46:53,2023-03-15 07:05:57
811,Beijing Bites,"Cafe, Continental",736,9233755303,19:00 - 23:00,12,False,Closed,Kurian Zila,"Third Floor, Kurian Zila, Bhopal - 727889",3.8,"[{""code"": ""FIRSTORDER_811"", ""min_amount"": 317, ""discount_amount"": 73, ""description"": ""\u20b975 off on your first order above \u20b9300"", ""payment_method"": null}, {""code"": ""CASHBACK_811"", ""min_amount"": 534, ""discount_amount"": 74, ""description"": ""\u20b975 off on Cash payments above \u20b9500"", ""payment_method"": ""Cash""}, {""code"": ""WELCOME_811"", ""min_amount"": 524, ""discount_amount"": 107, ""description"": ""\u20b9100 off on orders above \u20b9500"", ""payment_method"": null}]",17.68220331511158,69.60120357182134,2021-07-07 15:03:36,2022-04-06 02:27:02
812,Kathiyawadi Rasoi Bhavan,"Continental, Japanese, Ice Cream",1373,9908536357,16:00 - 19:00,12,True,Open,Natt Chowk,"Ground Floor, Natt Chowk, Bhopal - 727889",3.9,"[{""code"": ""WELCOME_812"", ""min_amount"": 459, ""discount_amount"": 91, ""description"": ""\u20b9100 off on orders above \u20b9500"", ""payment_method"": null}, {""code"": ""DEBITCARD_812"", ""min_amount"": 572, ""discount_amount"": 100, ""description"": ""\u20b9100 off on orders above \u20b9600 with Debit Card"", ""payment_method"": ""DebitCard""}, {""code"": ""FESTIVAL_812"", ""min_amount"": 1648, ""discount_amount"": 317, ""description"": ""\u20b9300 off on orders above \u20b91500"", ""payment_method"": null}, {""code"": ""FIRSTORDER_812"", ""min_amount"": 320, ""discount_amount"": 76, ""description"": ""\u20b975 off on your first order above \u20b9300"", ""payment_method"": null}, {""code"": ""SPECIAL_812"", ""min_amount"": 867, ""discount_amount"": 153, ""description"": ""\u20b9150 off on orders above \u20b9800"", ""payment_method"": null}]",24.363767845916904,96.00596531786502,2021-09-15 01:55:41,2023-10-08 19:03:48
816,Tide & Table,"Beverages, Burger, Cafe",1040,9153689612,12:00 - 16:00,12,True,Open,Mangat Circle,"Third Floor, Mangat Circle, Bhopal - 727889",3.8,"[{""code"": ""CREDITCARD_816"", ""min_amount"": 748, ""discount_amount"": 148, ""description"": ""\u20b9150 off on orders above \u20b9750 with Credit Card"", ""payment_method"": ""CreditCard""}, {""code"": ""DEBITCARD_816"", ""min_amount"": 604, ""discount_amount"": 90, ""description"": ""\u20b9100 off on orders above \u20b9600 with Debit Card"", ""payment_method"": ""DebitCard""}, {""code"": ""UPISAVE_816"", ""min_amount"": 396, ""discount_amount"": 87, ""description"": ""\u20b980 off on orders above \u20b9400 with UPI"", ""payment_method"": ""UPI""}, {""code"": ""WEEKEND_816"", ""min_amount"": 1053, ""discount_amount"": 218, ""description"": ""\u20b9200 off on orders above \u20b91000"", ""payment_method"": null}]",16.054219304959588,69.1098374483471,2021-05-04 21:29:29,2024-07-20 10:18:51
829,Coastal Ember,Mediterranean,1258,9652637671,20:00 - 00:00,12,True,Open,Mistry Marg," Mistry Marg, Bhopal - 727889",3.9,"[{""code"": ""SPECIAL_829"", ""min_amount"": 738, ""discount_amount"": 140, ""description"": ""\u20b9150 off on orders above \u20b9800"", ""payment_method"": null}, {""code"": ""WELCOME_829"", ""min_amount"": 467, ""discount_amount"": 90, ""description"": ""\u20b9100 off on orders above \u20b9500"", ""payment_method"": null}, {""code"": ""DEBITCARD_829"", ""min_amount"": 547, ""discount_amount"": 100, ""description"": ""\u20b9100 off on orders above \u20b9600 with Debit Card"", ""payment_method"": ""DebitCard""}]",24.6657387210756,74.755201670082,2021-10-20 12:28:55,2022-03-10 09:57:39
838,Fafda Jalebi Corner Express,"Beverages, Bakery",458,9103098968,20:00 - 00:00,12,True,Open,Raja,"First Floor, Raja, Bhopal - 727889",3.7,"[{""code"": ""WELCOME_838"", ""min_amount"": 456, ""discount_amount"": 97, ""description"": ""\u20b9100 off on orders above \u20b9500"", ""payment_method"": null}, {""code"": ""CASHBACK_838"", ""min_amount"": 542, ""discount_amount"": 80, ""description"": ""\u20b975 off on Cash payments above \u20b9500"", ""payment_method"": ""Cash""}, {""code"": ""CREDITCARD_838"", ""min_amount"": 736, ""discount_amount"": 163, ""description"": ""\u20b9150 off on orders above \u20b9750 with Credit Card"", ""payment_method"": ""CreditCard""}, {""code"": ""UPISAVE_838"", ""min_amount"": 396, ""discount_amount"": 75, ""description"": ""\u20b980 off on orders above \u20b9400 with UPI"", ""payment_method"": ""UPI""}]",12.08879319922083,93.52832205841446,2021-05-19 18:52:30,2024-01-02 09:56:17
839,Solapuri Chaska Rasoi,"Cafe, Mediterranean",1230,9274971597,20:00 - 00:00,12,True,Open,Gill Marg," Gill Marg, Bhopal - 727889",3.9,"[{""code"": ""WELCOME_839"", ""min_amount"": 502, ""discount_amount"": 108, ""description"": ""\u20b9100 off on orders above \u20b9500"", ""payment_method"": null}, {""code"": ""CASHBACK_839"", ""min_amount"": 531, ""discount_amount"": 70, ""description"": ""\u20b975 off on Cash payments above \u20b9500"", ""payment_method"": ""Cash""}, {""code"": ""UPISAVE_839"", ""min_amount"": 415, ""discount_amount"": 83, ""description"": ""\u20b980 off on orders above \u20b9400 with UPI"", ""payment_method"": ""UPI""}, {""code"": ""FESTIVAL_839"", ""min_amount"": 1422, ""discount_amount"": 278, ""description"": ""\u20b9300 off on orders above \u20b91500"", ""payment_method"": null}]",17.980471991842876,89.28796172052935,2021-10-27 23:42:45,2023-04-26 01:15:36
851,Kitchen X,"Italian, Thai, Mughlai",1460,9762068625,20:00 - 00:00,12,True,Open,Nagar Nagar," Nagar Nagar, Bhopal - 727889",3.8,"[{""code"": ""CREDITCARD_851"", ""min_amount"": 681, ""discount_amount"": 146, ""description"": ""\u20b9150 off on orders above \u20b9750 with Credit Card"", ""payment_method"": ""CreditCard""}, {""code"": ""CASHBACK_851"", ""min_amount"": 453, ""discount_amount"": 73, ""description"": ""\u20b975 off on Cash payments above \u20b9500"", ""payment_method"": ""Cash""}, {""code"": ""SPECIAL_851"", ""min_amount"": 797, ""discount_amount"": 163, ""description"": ""\u20b9150 off on orders above \u20b9800"", ""payment_method"": null}]",18.88788582761853,90.39700629982144,2021-09-02 21:57:27,2022-05-18 01:40:42
854,Nagpuri Saoji Rasoi,"Ice Cream, Japanese",576,9725039025,06:00 - 11:00,12,True,Open,Guha Marg,"First Floor, Guha Marg, Bhopal - 727889",3.5,"[{""code"": ""FESTIVAL_854"", ""min_amount"": 1449, ""discount_amount"": 275, ""description"": ""\u20b9300 off on orders above \u20b91500"", ""payment_method"": null}, {""code"": ""CASHBACK_854"", ""min_amount"": 451, ""discount_amount"": 79, ""description"": ""\u20b975 off on Cash payments above \u20b9500"", ""payment_method"": ""Cash""}, {""code"": ""WEEKEND_854"", ""min_amount"": 1014, ""discount_amount"": 205, ""description"": ""\u20b9200 off on orders above \u20b91000"", ""payment_method"": null}]",27.715550652542177,85.05007594902166,2021-12-04 05:55:38,2022-01-21 13:18:41
856,Wisteria & Co.,"Pizza, Ice Cream",1817,9683074425,16:00 - 19:00,13,True,Open,Dhingra Zila," Dhingra Zila, Guwahati - 116814",4.0,"[{""code"": ""DEBITCARD_856"", ""min_amount"": 567, ""discount_amount"": 106, ""description"": ""\u20b9100 off on orders above \u20b9600 with Debit Card"", ""payment_method"": ""DebitCard""}, {""code"": ""FIRSTORDER_856"", ""min_amount"": 295, ""discount_amount"": 79, ""description"": ""\u20b975 off on your first order above \u20b9300"", ""payment_method"": null}, {""code"": ""SPECIAL_856"", ""min_amount"": 748, ""discount_amount"": 135, ""description"": ""\u20b9150 off on orders above \u20b9800"", ""payment_method"": null}, {""code"": ""FESTIVAL_856"", ""min_amount"": 1558, ""discount_amount"": 297, ""description"": ""\u20b9300 off on orders above \u20b91500"", ""payment_method"": null}, {""code"": ""WELCOME_856"", ""min_amount"": 485, ""discount_amount"": 93, ""description"": ""\u20b9100 off on orders above \u20b9500"", ""payment_method"": null}]",33.53254958266904,71.20460128658875,2021-09-18 00:26:55,2022-06-21 00:53:54
859,Orchid & Velvet,Italian,981,9697014377,16:00 - 19:00,13,True,Open,Thakkar Road,"Ground Floor, Thakkar Road, Guwahati - 116814",3.9,"[{""code"": ""UPISAVE_859"", ""min_amount"": 403, ""discount_amount"": 78, ""description"": ""\u20b980 off on orders above \u20b9400 with UPI"", ""payment_method"": ""UPI""}, {""code"": ""FESTIVAL_859"", ""min_amount"": 1632, ""discount_amount"": 300, ""description"": ""\u20b9300 off on orders above \u20b91500"", ""payment_method"": null}, {""code"": ""WELCOME_859"", ""min_amount"": 508, ""discount_amount"": 107, ""description"": ""\u20b9100 off on orders above \u20b9500"", ""payment_method"": null}]",30.312043733734832,90.77276456428736,2021-12-01 19:51:33,2024-02-13 13:13:21
865,Ghar ni Thali,Italian,1059,9622748935,06:00 - 11:00,13,True,Open,Pai Zila,"Ground Floor, Pai Zila, Guwahati - 116814",3.7,"[{""code"": ""DEBITCARD_865"", ""min_amount"": 585, ""discount_amount"": 104, ""description"": ""\u20b9100 off on orders above \u20b9600 with Debit Card"", ""payment_method"": ""DebitCard""}, {""code"": ""CASHBACK_865"", ""min_amount"": 542, ""discount_amount"": 68, ""description"": ""\u20b975 off on Cash payments above \u20b9500"", ""payment_method"": ""Cash""}, {""code"": ""FESTIVAL_865"", ""min_amount"": 1503, ""discount_amount"": 293, ""description"": ""\u20b9300 off on orders above \u20b91500"", ""payment_method"": null}, {""code"": ""WELCOME_865"", ""min_amount"": 486, ""discount_amount"": 96, ""description"": ""\u20b9100 off on orders above \u20b9500"", ""payment_method"": null}]",19.11326070317025,84.60749031835039,2021-04-29 03:39:37,2022-10-25 09:29:07
867,Mumbai Pav Bhaji Bhavan,"Italian, Chinese",805,9257687636,11:00 - 15:00,13,True,Open,Kant Chowk,"Third Floor, Kant Chowk, Guwahati - 116814",3.8,"[{""code"": ""CREDITCARD_867"", ""min_amount"": 690, ""discount_amount"": 150, ""description"": ""\u20b9150 off on orders above \u20b9750 with Credit Card"", ""payment_method"": ""CreditCard""}, {""code"": ""CASHBACK_867"", ""min_amount"": 501, ""discount_amount"": 80, ""description"": ""\u20b975 off on Cash payments above \u20b9500"", ""payment_method"": ""Cash""}, {""code"": ""WEEKEND_867"", ""min_amount"": 907, ""discount_amount"": 209, ""description"": ""\u20b9200 off on orders above \u20b91000"", ""payment_method"": null}, {""code"": ""UPISAVE_867"", ""min_amount"": 435, ""discount_amount"": 81, ""description"": ""\u20b980 off on orders above \u20b9400 with UPI"", ""payment_method"": ""UPI""}, {""code"": ""SPECIAL_867"", ""min_amount"": 829, ""discount_amount"": 137, ""description"": ""\u20b9150 off on orders above \u20b9800"", ""payment_method"": null}]",27.83156620274042,94.95558361903409,2021-05-14 18:18:16,2024-03-26 05:50:41
868,Avant-Garde Eats,"Continental, Thai",1683,9434078559,20:00 - 00:00,13,True,Open,Gupta,"Ground Floor, Gupta, Guwahati - 116814",3.6,"[{""code"": ""FIRSTORDER_868"", ""min_amount"": 290, ""discount_amount"": 71, ""description"": ""\u20b975 off on your first order above \u20b9300"", ""payment_method"": null}, {""code"": ""FESTIVAL_868"", ""min_amount"": 1390, ""discount_amount"": 327, ""description"": ""\u20b9300 off on orders above \u20b91500"", ""payment_method"": null}, {""code"": ""SPECIAL_868"", ""min_amount"": 878, ""discount_amount"": 163, ""description"": ""\u20b9150 off on orders above \u20b9800"", ""payment_method"": null}, {""code"": ""CASHBACK_868"", ""min_amount"": 547, ""discount_amount"": 70, ""description"": ""\u20b975 off on Cash payments above \u20b9500"", ""payment_method"": ""Cash""}]",27.614038067630872,84.9990130800086,2021-08-25 09:04:05,2023-09-06 02:10:11
869,Pasta Fresca,"South Indian, Street Food, Ice Cream",683,9341498332,11:00 - 15:00,13,True,Open,Thakkar Circle,"First Floor, Thakkar Circle, Guwahati - 116814",3.7,"[{""code"": ""FESTIVAL_869"", ""min_amount"": 1604, ""discount_amount"": 301, ""description"": ""\u20b9300 off on orders above \u20b91500"", ""payment_method"": null}, {""code"": ""SPECIAL_869"", ""min_amount"": 784, ""discount_amount"": 146, ""description"": ""\u20b9150 off on orders above \u20b9800"", ""payment_method"": null}, {""code"": ""WELCOME_869"", ""min_amount"": 521, ""discount_amount"": 97, ""description"": ""\u20b9100 off on orders above \u20b9500"", ""payment_method"": null}, {""code"": ""CREDITCARD_869"", ""min_amount"": 745, ""discount_amount"": 156, ""description"": ""\u20b9150 off on orders above \u20b9750 with Credit Card"", ""payment_method"": ""CreditCard""}, {""code"": ""WEEKEND_869"", ""min_amount"": 1083, ""discount_amount"": 202, ""description"": ""\u20b9200 off on orders above \u20b91000"", ""payment_method"": null}]",36.12142438147148,69.69166957843733,2021-02-03 15:40:54,2022-05-22 06:06:55
871,Kung Pao Delights,Chinese,562,9468569991,12:00 - 16:00,13,True,Open,Malhotra Marg,"Ground Floor, Malhotra Marg, Guwahati - 116814",3.6,"[{""code"": ""CREDITCARD_871"", ""min_amount"": 702, ""discount_amount"": 146, ""description"": ""\u20b9150 off on orders above \u20b9750 with Credit Card"", ""payment_method"": ""CreditCard""}, {""code"": ""FIRSTORDER_871"", ""min_amount"": 278, ""discount_amount"": 79, ""description"": ""\u20b975 off on your first order above \u20b9300"", ""payment_method"": null}, {""code"": ""UPISAVE_871"", ""min_amount"": 389, ""discount_amount"": 78, ""description"": ""\u20b980 off on orders above \u20b9400 with UPI"", ""payment_method"": ""UPI""}, {""code"": ""WELCOME_871"", ""min_amount"": 480, ""discount_amount"": 98, ""description"": ""\u20b9100 off on orders above \u20b9500"", ""payment_method"": null}, {""code"": ""WEEKEND_871"", ""min_amount"": 922, ""discount_amount"": 216, ""description"": ""\u20b9200 off on orders above \u20b91000"", ""payment_method"": null}]",24.036203688189744,94.63078670558406,2021-05-30 15:19:46,2024-09-16 09:02:28
879,Chilli Garlic Express,"Cafe, Thai",1801,9480146287,11:00 - 15:00,13,True,Open,Sandal Zila,"First Floor, Sandal Zila, Guwahati - 116814",3.8,"[{""code"": ""WELCOME_879"", ""min_amount"": 540, ""discount_amount"": 101, ""description"": ""\u20b9100 off on orders above \u20b9500"", ""payment_method"": null}, {""code"": ""UPISAVE_879"", ""min_amount"": 396, ""discount_amount"": 80, ""description"": ""\u20b980 off on orders above \u20b9400 with UPI"", ""payment_method"": ""UPI""}, {""code"": ""FESTIVAL_879"", ""min_amount"": 1466, ""discount_amount"": 299, ""description"": ""\u20b9300 off on orders above \u20b91500"", ""payment_method"": null}, {""code"": ""CASHBACK_879"", ""min_amount"": 545, ""discount_amount"": 78, ""description"": ""\u20b975 off on Cash payments above \u20b9500"", ""payment_method"": ""Cash""}]",20.758223844045304,71.18692226583308,2021-06-12 22:35:29,2025-02-26 05:30:02
890,Global Tandoor,"Pizza, Fast Food",1414,9583332987,20:00 - 00:00,13,True,Open,Zachariah Nagar,"Ground Floor, Zachariah Nagar, Guwahati - 116814",3.7,"[{""code"": ""DEBITCARD_890"", ""min_amount"": 543, ""discount_amount"": 98, ""description"": ""\u20b9100 off on orders above \u20b9600 with Debit Card"", ""payment_method"": ""DebitCard""}, {""code"": ""WELCOME_890"", ""min_amount"": 485, ""discount_amount"": 103, ""description"": ""\u20b9100 off on orders above \u20b9500"", ""payment_method"": null}, {""code"": ""WEEKEND_890"", ""min_amount"": 994, ""discount_amount"": 181, ""description"": ""\u20b9200 off on orders above \u20b91000"", ""payment_method"": null}, {""code"": ""CASHBACK_890"", ""min_amount"": 523, ""discount_amount"": 82, ""description"": ""\u20b975 off on Cash payments above \u20b9500"", ""payment_method"": ""Cash""}]",20.657855986308306,74.44729447521645,2021-10-12 04:45:45,2023-05-31 01:29:38
891,Shoreline Eats,"Burger, Mediterranean",1151,9573927553,06:00 - 11:00,13,True,Open,Tandon Street," Tandon Street, Guwahati - 116814",3.8,"[{""code"": ""DEBITCARD_891"", ""min_amount"": 623, ""discount_amount"": 101, ""description"": ""\u20b9100 off on orders above \u20b9600 with Debit Card"", ""payment_method"": ""DebitCard""}, {""code"": ""FESTIVAL_891"", ""min_amount"": 1565, ""discount_amount"": 280, ""description"": ""\u20b9300 off on orders above \u20b91500"", ""payment_method"": null}, {""code"": ""WEEKEND_891"", ""min_amount"": 969, ""discount_amount"": 186, ""description"": ""\u20b9200 off on orders above \u20b91000"", ""payment_method"": null}, {""code"": ""SPECIAL_891"", ""min_amount"": 745, ""discount_amount"": 147, ""description"": ""\u20b9150 off on orders above \u20b9800"", ""payment_method"": null}, {""code"": ""WELCOME_891"", ""min_amount"": 470, ""discount_amount"": 95, ""description"": ""\u20b9100 off on orders above \u20b9500"", ""payment_method"": null}]",27.38215667647367,72.62143346260335,2021-05-13 15:00:12,2024-09-05 17:02:21
892,Undhiyu Tadka,"Burger, Lebanese",1274,9766541261,20:00 - 00:00,13,True,Open,Narasimhan Zila," Narasimhan Zila, Guwahati - 116814",4.1,"[{""code"": ""FIRSTORDER_892"", ""min_amount"": 284, ""discount_amount"": 82, ""description"": ""\u20b975 off on your first order above \u20b9300"", ""payment_method"": null}, {""code"": ""DEBITCARD_892"", ""min_amount"": 630, ""discount_amount"": 107, ""description"": ""\u20b9100 off on orders above \u20b9600 with Debit Card"", ""payment_method"": ""DebitCard""}, {""code"": ""CREDITCARD_892"", ""min_amount"": 816, ""discount_amount"": 143, ""description"": ""\u20b9150 off on orders above \u20b9750 with Credit Card"", ""payment_method"": ""CreditCard""}, {""code"": ""FESTIVAL_892"", ""min_amount"": 1416, ""discount_amount"": 312, ""description"": ""\u20b9300 off on orders above \u20b91500"", ""payment_method"": null}]",30.692759557021084,86.16472189116176,2021-02-26 21:56:15,2022-12-08 09:01:24
902,Chowmein Express,"Street Food, Mexican, South Indian",360,9285801953,20:00 - 00:00,13,True,Open,Mukhopadhyay Zila," Mukhopadhyay Zila, Guwahati - 116814",3.8,"[{""code"": ""WEEKEND_902"", ""min_amount"": 954, ""discount_amount"": 216, ""description"": ""\u20b9200 off on orders above \u20b91000"", ""payment_method"": null}, {""code"": ""FESTIVAL_902"", ""min_amount"": 1587, ""discount_amount"": 272, ""description"": ""\u20b9300 off on orders above \u20b91500"", ""payment_method"": null}, {""code"": ""WELCOME_902"", ""min_amount"": 504, ""discount_amount"": 99, ""description"": ""\u20b9100 off on orders above \u20b9500"", ""payment_method"": null}, {""code"": ""SPECIAL_902"", ""min_amount"": 871, ""discount_amount"": 158, ""description"": ""\u20b9150 off on orders above \u20b9800"", ""payment_method"": null}]",24.638955468474396,76.07489695287234,2021-12-05 06:47:20,2022-03-17 22:11:15
907,Saurashtra Rasoi,"South Indian, Cafe",796,9844732251,06:00 - 11:00,13,True,Open,Amble Nagar,"First Floor, Amble Nagar, Guwahati - 116814",3.9,"[{""code"": ""FIRSTORDER_907"", ""min_amount"": 314, ""discount_amount"": 80, ""description"": ""\u20b975 off on your first order above \u20b9300"", ""payment_method"": null}, {""code"": ""CREDITCARD_907"", ""min_amount"": 691, ""discount_amount"": 138, ""description"": ""\u20b9150 off on orders above \u20b9750 with Credit Card"", ""payment_method"": ""CreditCard""}, {""code"": ""SPECIAL_907"", ""min_amount"": 748, ""discount_amount"": 162, ""description"": ""\u20b9150 off on orders above \u20b9800"", ""payment_method"": null}, {""code"": ""CASHBACK_907"", ""min_amount"": 544, ""discount_amount"": 78, ""description"": ""\u20b975 off on Cash payments above \u20b9500"", ""payment_method"": ""Cash""}, {""code"": ""WEEKEND_907"", ""min_amount"": 949, ""discount_amount"": 202, ""description"": ""\u20b9200 off on orders above \u20b91000"", ""payment_method"": null}]",25.86931561537592,78.76449675974916,2021-10-29 16:36:23,2022-08-16 18:41:59
910,Willow & Vine,"Japanese, Mediterranean",1013,9558636664,19:00 - 23:00,13,True,Open,Mitter Nagar,"First Floor, Mitter Nagar, Guwahati - 116814",3.8,"[{""code"": ""CREDITCARD_910"", ""min_amount"": 742, ""discount_amount"": 149, ""description"": ""\u20b9150 off on orders above \u20b9750 with Credit Card"", ""payment_method"": ""CreditCard""}, {""code"": ""DEBITCARD_910"", ""min_amount"": 578, ""discount_amount"": 93, ""description"": ""\u20b9100 off on orders above \u20b9600 with Debit Card"", ""payment_method"": ""DebitCard""}, {""code"": ""SPECIAL_910"", ""min_amount"": 865, ""discount_amount"": 152, ""description"": ""\u20b9150 off on orders above \u20b9800"", ""payment_method"": null}, {""code"": ""WEEKEND_910"", ""min_amount"": 903, ""discount_amount"": 183, ""description"": ""\u20b9200 off on orders above \u20b91000"", ""payment_method"": null}, {""code"": ""UPISAVE_910"", ""min_amount"": 391, ""discount_amount"": 80, ""description"": ""\u20b980 off on orders above \u20b9400 with UPI"", ""payment_method"": ""UPI""}]",13.070783088138374,93.75685466576569,2021-01-01 19:58:30,2021-11-16 22:15:41
914,Dewdrop Caf√©,"Ice Cream, Cafe",1022,9419925942,20:00 - 00:00,13,True,Open,Gopal Zila,"Ground Floor, Gopal Zila, Guwahati - 116814",4.0,"[{""code"": ""FIRSTORDER_914"", ""min_amount"": 329, ""discount_amount"": 78, ""description"": ""\u20b975 off on your first order above \u20b9300"", ""payment_method"": null}, {""code"": ""WELCOME_914"", ""min_amount"": 533, ""discount_amount"": 103, ""description"": ""\u20b9100 off on orders above \u20b9500"", ""payment_method"": null}, {""code"": ""FESTIVAL_914"", ""min_amount"": 1362, ""discount_amount"": 293, ""description"": ""\u20b9300 off on orders above \u20b91500"", ""payment_method"": null}, {""code"": ""WEEKEND_914"", ""min_amount"": 1014, ""discount_amount"": 200, ""description"": ""\u20b9200 off on orders above \u20b91000"", ""payment_method"": null}]",30.6964167432427,71.8329421520638,2021-01-24 13:23:48,2024-02-15 03:38:39
919,Shoreline Eats,"South Indian, Burger, Fast Food",1015,9673358664,19:00 - 23:00,13,True,Open,Dhar Road,"First Floor, Dhar Road, Guwahati - 116814",3.7,"[{""code"": ""FESTIVAL_919"", ""min_amount"": 1516, ""discount_amount"": 323, ""description"": ""\u20b9300 off on orders above \u20b91500"", ""payment_method"": null}, {""code"": ""WEEKEND_919"", ""min_amount"": 1076, ""discount_amount"": 200, ""description"": ""\u20b9200 off on orders above \u20b91000"", ""payment_method"": null}, {""code"": ""DEBITCARD_919"", ""min_amount"": 647, ""discount_amount"": 103, ""description"": ""\u20b9100 off on orders above \u20b9600 with Debit Card"", ""payment_method"": ""DebitCard""}]",32.42094064768961,90.29197993429018,2021-09-13 19:47:42,2022-11-28 20:57:11
922,Basil & Bloom,"Italian, Japanese, Thai",1777,9180595440,19:00 - 23:00,13,True,Open,Magar Path,"Third Floor, Magar Path, Guwahati - 116814",3.8,"[{""code"": ""UPISAVE_922"", ""min_amount"": 437, ""discount_amount"": 78, ""description"": ""\u20b980 off on orders above \u20b9400 with UPI"", ""payment_method"": ""UPI""}, {""code"": ""SPECIAL_922"", ""min_amount"": 856, ""discount_amount"": 154, ""description"": ""\u20b9150 off on orders above \u20b9800"", ""payment_method"": null}, {""code"": ""WEEKEND_922"", ""min_amount"": 1008, ""discount_amount"": 191, ""description"": ""\u20b9200 off on orders above \u20b91000"", ""payment_method"": null}]",26.115604944394263,96.00871709397738,2020-12-25 22:42:03,2023-07-21 02:30:44
925,Alabaster Table,"Burger, Desserts, Cafe",244,9703910915,06:00 - 11:00,13,True,Open,Walla Nagar," Walla Nagar, Guwahati - 116814",3.8,"[{""code"": ""FIRSTORDER_925"", ""min_amount"": 321, ""discount_amount"": 71, ""description"": ""\u20b975 off on your first order above \u20b9300"", ""payment_method"": null}, {""code"": ""CREDITCARD_925"", ""min_amount"": 716, ""discount_amount"": 163, ""description"": ""\u20b9150 off on orders above \u20b9750 with Credit Card"", ""payment_method"": ""CreditCard""}, {""code"": ""UPISAVE_925"", ""min_amount"": 375, ""discount_amount"": 81, ""description"": ""\u20b980 off on orders above \u20b9400 with UPI"", ""payment_method"": ""UPI""}, {""code"": ""CASHBACK_925"", ""min_amount"": 500, ""discount_amount"": 72, ""description"": ""\u20b975 off on Cash payments above \u20b9500"", ""payment_method"": ""Cash""}]",21.752702323825737,88.28534728032263,2021-04-19 04:16:46,2022-08-04 06:08:06
930,Desi Gujju Tadka Express,"Cafe, North Indian, Italian",1287,9606917907,11:00 - 15:00,13,True,Open,Bala Zila,"Ground Floor, Bala Zila, Guwahati - 116814",3.8,"[{""code"": ""DEBITCARD_930"", ""min_amount"": 554, ""discount_amount"": 94, ""description"": ""\u20b9100 off on orders above \u20b9600 with Debit Card"", ""payment_method"": ""DebitCard""}, {""code"": ""CREDITCARD_930"", ""min_amount"": 812, ""discount_amount"": 144, ""description"": ""\u20b9150 off on orders above \u20b9750 with Credit Card"", ""payment_method"": ""CreditCard""}, {""code"": ""UPISAVE_930"", ""min_amount"": 437, ""discount_amount"": 74, ""description"": ""\u20b980 off on orders above \u20b9400 with UPI"", ""payment_method"": ""UPI""}]",9.31191610172062,86.71571779076704,2021-04-24 10:59:40,2025-04-21 19:45:08
935,Vada Pav Express Treats,"Mughlai, Italian, Desserts",436,9639401811,12:00 - 16:00,13,True,Open,Prabhu Zila,"Second Floor, Prabhu Zila, Guwahati - 116814",3.8,"[{""code"": ""CREDITCARD_935"", ""min_amount"": 802, ""discount_amount"": 136, ""description"": ""\u20b9150 off on orders above \u20b9750 with Credit Card"", ""payment_method"": ""CreditCard""}, {""code"": ""WELCOME_935"", ""min_amount"": 480, ""discount_amount"": 91, ""description"": ""\u20b9100 off on orders above \u20b9500"", ""payment_method"": null}, {""code"": ""FIRSTORDER_935"", ""min_amount"": 296, ""discount_amount"": 72, ""description"": ""\u20b975 off on your first order above \u20b9300"", ""payment_method"": null}]",26.356475222511406,81.50829157717743,2021-09-12 13:30:47,2022-02-27 07:39:27
936,Saffron Ember,Street Food,1507,9330665449,12:00 - 16:00,13,True,Open,Rastogi Street,"First Floor, Rastogi Street, Guwahati - 116814",4.0,"[{""code"": ""FIRSTORDER_936"", ""min_amount"": 291, ""discount_amount"": 72, ""description"": ""\u20b975 off on your first order above \u20b9300"", ""payment_method"": null}, {""code"": ""SPECIAL_936"", ""min_amount"": 848, ""discount_amount"": 152, ""description"": ""\u20b9150 off on orders above \u20b9800"", ""payment_method"": null}, {""code"": ""DEBITCARD_936"", ""min_amount"": 563, ""discount_amount"": 95, ""description"": ""\u20b9100 off on orders above \u20b9600 with Debit Card"", ""payment_method"": ""DebitCard""}, {""code"": ""FESTIVAL_936"", ""min_amount"": 1620, ""discount_amount"": 282, ""description"": ""\u20b9300 off on orders above \u20b91500"", ""payment_method"": null}, {""code"": ""WELCOME_936"", ""min_amount"": 483, ""discount_amount"": 99, ""description"": ""\u20b9100 off on orders above \u20b9500"", ""payment_method"": null}]",17.08884278535935,93.64827581458384,2021-05-10 18:19:27,2024-12-03 20:28:14
938,The Rusty Ladle,"Cafe, Mexican, North Indian",784,9988209893,16:00 - 19:00,13,False,Closed,Yogi Path,"First Floor, Yogi Path, Guwahati - 116814",3.7,"[{""code"": ""SPECIAL_938"", ""min_amount"": 768, ""discount_amount"": 144, ""description"": ""\u20b9150 off on orders above \u20b9800"", ""payment_method"": null}, {""code"": ""UPISAVE_938"", ""min_amount"": 412, ""discount_amount"": 86, ""description"": ""\u20b980 off on orders above \u20b9400 with UPI"", ""payment_method"": ""UPI""}, {""code"": ""CREDITCARD_938"", ""min_amount"": 784, ""discount_amount"": 149, ""description"": ""\u20b9150 off on orders above \u20b9750 with Credit Card"", ""payment_method"": ""CreditCard""}]",17.626315116738674,70.48708376772187,2021-06-26 22:32:01,2022-08-10 15:09:26
944,Mughlai Bites,Beverages,1216,9916633730,20:00 - 00:00,13,True,Open,Brar Path," Brar Path, Guwahati - 116814",3.8,"[{""code"": ""SPECIAL_944"", ""min_amount"": 754, ""discount_amount"": 135, ""description"": ""\u20b9150 off on orders above \u20b9800"", ""payment_method"": null}, {""code"": ""WEEKEND_944"", ""min_amount"": 1005, ""discount_amount"": 193, ""description"": ""\u20b9200 off on orders above \u20b91000"", ""payment_method"": null}, {""code"": ""CREDITCARD_944"", ""min_amount"": 740, ""discount_amount"": 151, ""description"": ""\u20b9150 off on orders above \u20b9750 with Credit Card"", ""payment_method"": ""CreditCard""}]",37.45148396062541,96.7373151562528,2021-12-03 07:41:27,2024-06-15 17:04:51
947,Palm Breeze Eats,Pizza,363,9111204746,11:00 - 15:00,13,True,Open,Sachdeva Marg," Sachdeva Marg, Guwahati - 116814",3.9,"[{""code"": ""FIRSTORDER_947"", ""min_amount"": 290, ""discount_amount"": 71, ""description"": ""\u20b975 off on your first order above \u20b9300"", ""payment_method"": null}, {""code"": ""WEEKEND_947"", ""min_amount"": 985, ""discount_amount"": 202, ""description"": ""\u20b9200 off on orders above \u20b91000"", ""payment_method"": null}, {""code"": ""CREDITCARD_947"", ""min_amount"": 778, ""discount_amount"": 144, ""description"": ""\u20b9150 off on orders above \u20b9750 with Credit Card"", ""payment_method"": ""CreditCard""}, {""code"": ""UPISAVE_947"", ""min_amount"": 402, ""discount_amount"": 73, ""description"": ""\u20b980 off on orders above \u20b9400 with UPI"", ""payment_method"": ""UPI""}]",12.06898659842218,85.0735749584799,2021-08-10 13:32:48,2022-12-02 15:21:28
1108,Masala Dosa House,"Desserts, Fast Food",1141,9232192956,19:00 - 23:00,17,True,Open,Madan Nagar,"Third Floor, Madan Nagar, Nagpur - 462944",3.9,"[{""code"": ""WELCOME_1108"", ""min_amount"": 524, ""discount_amount"": 108, ""description"": ""\u20b9100 off on orders above \u20b9500"", ""payment_method"": null}, {""code"": ""WEEKEND_1108"", ""min_amount"": 955, ""discount_amount"": 212, ""description"": ""\u20b9200 off on orders above \u20b91000"", ""payment_method"": null}, {""code"": ""UPISAVE_1108"", ""min_amount"": 433, ""discount_amount"": 74, ""description"": ""\u20b980 off on orders above \u20b9400 with UPI"", ""payment_method"": ""UPI""}]",37.306472248824285,80.51578692111175,2021-12-15 05:10:46,2024-09-03 07:49:40
1109,Deccan Spice,Thai,750,9758975281,19:00 - 23:00,17,True,Open,Ravel Marg,"Ground Floor, Ravel Marg, Nagpur - 462944",3.7,"[{""code"": ""UPISAVE_1109"", ""min_amount"": 399, ""discount_amount"": 81, ""description"": ""\u20b980 off on orders above \u20b9400 with UPI"", ""payment_method"": ""UPI""}, {""code"": ""DEBITCARD_1109"", ""min_amount"": 541, ""discount_amount"": 99, ""description"": ""\u20b9100 off on orders above \u20b9600 with Debit Card"", ""payment_method"": ""DebitCard""}, {""code"": ""FIRSTORDER_1109"", ""min_amount"": 297, ""discount_amount"": 68, ""description"": ""\u20b975 off on your first order above \u20b9300"", ""payment_method"": null}, {""code"": ""SPECIAL_1109"", ""min_amount"": 743, ""discount_amount"": 144, ""description"": ""\u20b9150 off on orders above \u20b9800"", ""payment_method"": null}, {""code"": ""FESTIVAL_1109"", ""min_amount"": 1594, ""discount_amount"": 277, ""description"": ""\u20b9300 off on orders above \u20b91500"", ""payment_method"": null}]",10.51321943007123,96.92360667370264,2021-11-12 09:10:06,2024-06-30 09:52:43
1110,Hunan House,Burger,536,9326869570,11:00 - 15:00,17,True,Open,Talwar,"Second Floor, Talwar, Nagpur - 462944",3.9,"[{""code"": ""CREDITCARD_1110"", ""min_amount"": 805, ""discount_amount"": 146, ""description"": ""\u20b9150 off on orders above \u20b9750 with Credit Card"", ""payment_method"": ""CreditCard""}, {""code"": ""DEBITCARD_1110"", ""min_amount"": 546, ""discount_amount"": 100, ""description"": ""\u20b9100 off on orders above \u20b9600 with Debit Card"", ""payment_method"": ""DebitCard""}, {""code"": ""WEEKEND_1110"", ""min_amount"": 949, ""discount_amount"": 210, ""description"": ""\u20b9200 off on orders above \u20b91000"", ""payment_method"": null}, {""code"": ""SPECIAL_1110"", ""min_amount"": 780, ""discount_amount"": 136, ""description"": ""\u20b9150 off on orders above \u20b9800"", ""payment_method"": null}]",10.22987968453243,77.38049767061591,2021-09-26 00:05:28,2022-01-27 05:32:12
1114,Spice Atlas,"Bakery, South Indian",322,9207272466,19:00 - 23:00,17,True,Open,Borah Street," Borah Street, Nagpur - 462944",3.8,"[{""code"": ""FESTIVAL_1114"", ""min_amount"": 1631, ""discount_amount"": 285, ""description"": ""\u20b9300 off on orders above \u20b91500"", ""payment_method"": null}, {""code"": ""SPECIAL_1114"", ""min_amount"": 789, ""discount_amount"": 151, ""description"": ""\u20b9150 off on orders above \u20b9800"", ""payment_method"": null}, {""code"": ""WEEKEND_1114"", ""min_amount"": 934, ""discount_amount"": 184, ""description"": ""\u20b9200 off on orders above \u20b91000"", ""payment_method"": null}, {""code"": ""WELCOME_1114"", ""min_amount"": 530, ""discount_amount"": 99, ""description"": ""\u20b9100 off on orders above \u20b9500"", ""payment_method"": null}]",22.42835930719117,75.64361028707661,2021-08-25 18:15:22,2024-02-27 18:43:47
1117,Khandeshi Spice Delight,Lebanese,1717,9202624416,06:00 - 11:00,17,True,Open,Subramanian Marg,"First Floor, Subramanian Marg, Nagpur - 462944",4.0,"[{""code"": ""SPECIAL_1117"", ""min_amount"": 760, ""discount_amount"": 157, ""description"": ""\u20b9150 off on orders above \u20b9800"", ""payment_method"": null}, {""code"": ""CREDITCARD_1117"", ""min_amount"": 759, ""discount_amount"": 135, ""description"": ""\u20b9150 off on orders above \u20b9750 with Credit Card"", ""payment_method"": ""CreditCard""}, {""code"": ""WELCOME_1117"", ""min_amount"": 548, ""discount_amount"": 98, ""description"": ""\u20b9100 off on orders above \u20b9500"", ""payment_method"": null}]",9.197408108327553,80.37288625251807,2021-11-30 22:52:08,2023-01-17 20:45:38
1136,Sundown Spoon,"Street Food, Mughlai",542,9447006489,11:00 - 15:00,17,True,Open,Agarwal Chowk,"Third Floor, Agarwal Chowk, Nagpur - 462944",3.9,"[{""code"": ""WEEKEND_1136"", ""min_amount"": 997, ""discount_amount"": 212, ""description"": ""\u20b9200 off on orders above \u20b91000"", ""payment_method"": null}, {""code"": ""CREDITCARD_1136"", ""min_amount"": 815, ""discount_amount"": 148, ""description"": ""\u20b9150 off on orders above \u20b9750 with Credit Card"", ""payment_method"": ""CreditCard""}, {""code"": ""CASHBACK_1136"", ""min_amount"": 504, ""discount_amount"": 78, ""description"": ""\u20b975 off on Cash payments above \u20b9500"", ""payment_method"": ""Cash""}]",29.996135007643147,94.20717493327504,2021-07-03 06:05:19,2025-02-13 13:41:49
1138,Indo-Chinese Twist,Street Food,945,9935689969,16:00 - 19:00,17,True,Open,Rege,"First Floor, Rege, Nagpur - 462944",3.8,"[{""code"": ""SPECIAL_1138"", ""min_amount"": 741, ""discount_amount"": 154, ""description"": ""\u20b9150 off on orders above \u20b9800"", ""payment_method"": null}, {""code"": ""UPISAVE_1138"", ""min_amount"": 392, ""discount_amount"": 72, ""description"": ""\u20b980 off on orders above \u20b9400 with UPI"", ""payment_method"": ""UPI""}, {""code"": ""CASHBACK_1138"", ""min_amount"": 488, ""discount_amount"": 67, ""description"": ""\u20b975 off on Cash payments above \u20b9500"", ""payment_method"": ""Cash""}, {""code"": ""FESTIVAL_1138"", ""min_amount"": 1356, ""discount_amount"": 272, ""description"": ""\u20b9300 off on orders above \u20b91500"", ""payment_method"": null}, {""code"": ""CREDITCARD_1138"", ""min_amount"": 719, ""discount_amount"": 164, ""description"": ""\u20b9150 off on orders above \u20b9750 with Credit Card"", ""payment_method"": ""CreditCard""}]",33.27074324282461,73.95980679204818,2021-08-08 08:15:37,2022-04-01 21:19:57
1155,Fettuccine Feast,"Lebanese, Fast Food",1703,9409173063,20:00 - 00:00,17,True,Open,Atwal Road,"Third Floor, Atwal Road, Nagpur - 462944",3.8,"[{""code"": ""FIRSTORDER_1155"", ""min_amount"": 311, ""discount_amount"": 69, ""description"": ""\u20b975 off on your first order above \u20b9300"", ""payment_method"": null}, {""code"": ""CREDITCARD_1155"", ""min_amount"": 687, ""discount_amount"": 148, ""description"": ""\u20b9150 off on orders above \u20b9750 with Credit Card"", ""payment_method"": ""CreditCard""}, {""code"": ""SPECIAL_1155"", ""min_amount"": 799, ""discount_amount"": 164, ""description"": ""\u20b9150 off on orders above \u20b9800"", ""payment_method"": null}, {""code"": ""UPISAVE_1155"", ""min_amount"": 416, ""discount_amount"": 77, ""description"": ""\u20b980 off on orders above \u20b9400 with UPI"", ""payment_method"": ""UPI""}, {""code"": ""CASHBACK_1155"", ""min_amount"": 484, ""discount_amount"": 77, ""description"": ""\u20b975 off on Cash payments above \u20b9500"", ""payment_method"": ""Cash""}]",8.775177353957615,89.82957052161247,2021-07-15 11:00:17,2023-03-21 22:53:15
1159,Shoreline Eats,"Continental, Thai, Chinese",624,9253761150,11:00 - 15:00,17,True,Open,Mammen Ganj,"Second Floor, Mammen Ganj, Nagpur - 462944",3.8,"[{""code"": ""DEBITCARD_1159"", ""min_amount"": 630, ""discount_amount"": 100, ""description"": ""\u20b9100 off on orders above \u20b9600 with Debit Card"", ""payment_method"": ""DebitCard""}, {""code"": ""FESTIVAL_1159"", ""min_amount"": 1427, ""discount_amount"": 299, ""description"": ""\u20b9300 off on orders above \u20b91500"", ""payment_method"": null}, {""code"": ""SPECIAL_1159"", ""min_amount"": 808, ""discount_amount"": 159, ""description"": ""\u20b9150 off on orders above \u20b9800"", ""payment_method"": null}, {""code"": ""UPISAVE_1159"", ""min_amount"": 399, ""discount_amount"": 77, ""description"": ""\u20b980 off on orders above \u20b9400 with UPI"", ""payment_method"": ""UPI""}]",25.90359573985788,86.58283823272546,2021-10-21 07:23:07,2022-09-17 22:45:16
1165,Zayka Darbar,Fast Food,1521,9885051933,20:00 - 00:00,17,True,Open,Khare Nagar,"Ground Floor, Khare Nagar, Nagpur - 462944",3.8,"[{""code"": ""CREDITCARD_1165"", ""min_amount"": 748, ""discount_amount"": 157, ""description"": ""\u20b9150 off on orders above \u20b9750 with Credit Card"", ""payment_method"": ""CreditCard""}, {""code"": ""SPECIAL_1165"", ""min_amount"": 791, ""discount_amount"": 146, ""description"": ""\u20b9150 off on orders above \u20b9800"", ""payment_method"": null}, {""code"": ""CASHBACK_1165"", ""min_amount"": 490, ""discount_amount"": 70, ""description"": ""\u20b975 off on Cash payments above \u20b9500"", ""payment_method"": ""Cash""}, {""code"": ""FESTIVAL_1165"", ""min_amount"": 1392, ""discount_amount"": 321, ""description"": ""\u20b9300 off on orders above \u20b91500"", ""payment_method"": null}]",35.45277260368818,88.64836406391281,2021-11-04 00:15:06,2023-11-15 22:23:48
1175,Driftwood Dine,"Thai, Japanese, Mughlai",342,9785016512,12:00 - 16:00,17,True,Open,Gala Marg,"Ground Floor, Gala Marg, Nagpur - 462944",3.8,"[{""code"": ""CREDITCARD_1175"", ""min_amount"": 675, ""discount_amount"": 151, ""description"": ""\u20b9150 off on orders above \u20b9750 with Credit Card"", ""payment_method"": ""CreditCard""}, {""code"": ""FIRSTORDER_1175"", ""min_amount"": 319, ""discount_amount"": 81, ""description"": ""\u20b975 off on your first order above \u20b9300"", ""payment_method"": null}, {""code"": ""FESTIVAL_1175"", ""min_amount"": 1352, ""discount_amount"": 324, ""description"": ""\u20b9300 off on orders above \u20b91500"", ""payment_method"": null}, {""code"": ""WELCOME_1175"", ""min_amount"": 542, ""discount_amount"": 92, ""description"": ""\u20b9100 off on orders above \u20b9500"", ""payment_method"": null}, {""code"": ""SPECIAL_1175"", ""min_amount"": 835, ""discount_amount"": 135, ""description"": ""\u20b9150 off on orders above \u20b9800"", ""payment_method"": null}]",13.206510208115784,72.29107410293216,2021-09-18 05:17:04,2025-01-04 21:50:38
1184,Food Carnival,Mughlai,376,9732679040,06:00 - 11:00,17,False,Closed,Sinha,"Second Floor, Sinha, Nagpur - 462944",3.8,"[{""code"": ""SPECIAL_1184"", ""min_amount"": 836, ""discount_amount"": 161, ""description"": ""\u20b9150 off on orders above \u20b9800"", ""payment_method"": null}, {""code"": ""DEBITCARD_1184"", ""min_amount"": 623, ""discount_amount"": 93, ""description"": ""\u20b9100 off on orders above \u20b9600 with Debit Card"", ""payment_method"": ""DebitCard""}, {""code"": ""CREDITCARD_1184"", ""min_amount"": 710, ""discount_amount"": 161, ""description"": ""\u20b9150 off on orders above \u20b9750 with Credit Card"", ""payment_method"": ""CreditCard""}, {""code"": ""CASHBACK_1184"", ""min_amount"": 534, ""discount_amount"": 81, ""description"": ""\u20b975 off on Cash payments above \u20b9500"", ""payment_method"": ""Cash""}]",16.570258099491653,92.22238819032556,2021-11-13 06:16:16,2022-05-19 14:58:45
1187,Ponk Treats,"Chinese, Continental, Pizza",1581,9782029450,12:00 - 16:00,17,True,Open,Upadhyay,"Ground Floor, Upadhyay, Nagpur - 462944",3.9,"[{""code"": ""FIRSTORDER_1187"", ""min_amount"": 320, ""discount_amount"": 80, ""description"": ""\u20b975 off on your first order above \u20b9300"", ""payment_method"": null}, {""code"": ""UPISAVE_1187"", ""min_amount"": 432, ""discount_amount"": 75, ""description"": ""\u20b980 off on orders above \u20b9400 with UPI"", ""payment_method"": ""UPI""}, {""code"": ""CREDITCARD_1187"", ""min_amount"": 824, ""discount_amount"": 160, ""description"": ""\u20b9150 off on orders above \u20b9750 with Credit Card"", ""payment_method"": ""CreditCard""}, {""code"": ""WEEKEND_1187"", ""min_amount"": 917, ""discount_amount"": 219, ""description"": ""\u20b9200 off on orders above \u20b91000"", ""payment_method"": null}, {""code"": ""FESTIVAL_1187"", ""min_amount"": 1554, ""discount_amount"": 326, ""description"": ""\u20b9300 off on orders above \u20b91500"", ""payment_method"": null}]",18.584671590544623,96.79725635388452,2021-11-15 22:32:30,2023-05-19 09:44:11
1256,Bhavnagari Rasoi,"Mediterranean, Thai",1616,9348632825,06:00 - 11:00,19,True,Open,Ghosh Zila,"First Floor, Ghosh Zila, Vadodara - 998662",3.9,"[{""code"": ""FIRSTORDER_1256"", ""min_amount"": 320, ""discount_amount"": 77, ""description"": ""\u20b975 off on your first order above \u20b9300"", ""payment_method"": null}, {""code"": ""WELCOME_1256"", ""min_amount"": 512, ""discount_amount"": 98, ""description"": ""\u20b9100 off on orders above \u20b9500"", ""payment_method"": null}, {""code"": ""WEEKEND_1256"", ""min_amount"": 1082, ""discount_amount"": 182, ""description"": ""\u20b9200 off on orders above \u20b91000"", ""payment_method"": null}, {""code"": ""DEBITCARD_1256"", ""min_amount"": 546, ""discount_amount"": 91, ""description"": ""\u20b9100 off on orders above \u20b9600 with Debit Card"", ""payment_method"": ""DebitCard""}]",25.168145121393003,74.00846748703448,2021-06-14 22:18:05,2022-09-19 19:23:28
1258,Rava Dosa Delight,"Burger, Japanese",777,9210715242,06:00 - 11:00,19,True,Open,Banik Road,"First Floor, Banik Road, Vadodara - 998662",3.7,"[{""code"": ""UPISAVE_1258"", ""min_amount"": 402, ""discount_amount"": 83, ""description"": ""\u20b980 off on orders above \u20b9400 with UPI"", ""payment_method"": ""UPI""}, {""code"": ""FESTIVAL_1258"", ""min_amount"": 1559, ""discount_amount"": 321, ""description"": ""\u20b9300 off on orders above \u20b91500"", ""payment_method"": null}, {""code"": ""DEBITCARD_1258"", ""min_amount"": 589, ""discount_amount"": 108, ""description"": ""\u20b9100 off on orders above \u20b9600 with Debit Card"", ""payment_method"": ""DebitCard""}, {""code"": ""WEEKEND_1258"", ""min_amount"": 1072, ""discount_amount"": 199, ""description"": ""\u20b9200 off on orders above \u20b91000"", ""payment_method"": null}, {""code"": ""WELCOME_1258"", ""min_amount"": 459, ""discount_amount"": 91, ""description"": ""\u20b9100 off on orders above \u20b9500"", ""payment_method"": null}]",35.15665826113973,75.15030585979856,2021-06-21 18:33:20,2024-02-23 04:12:48
1263,Shivneri Bhojanalay,Burger,1716,9537299714,12:00 - 16:00,19,True,Open,Shankar Road," Shankar Road, Vadodara - 998662",3.8,"[{""code"": ""UPISAVE_1263"", ""min_amount"": 394, ""discount_amount"": 83, ""description"": ""\u20b980 off on orders above \u20b9400 with UPI"", ""payment_method"": ""UPI""}, {""code"": ""DEBITCARD_1263"", ""min_amount"": 576, ""discount_amount"": 109, ""description"": ""\u20b9100 off on orders above \u20b9600 with Debit Card"", ""payment_method"": ""DebitCard""}, {""code"": ""CREDITCARD_1263"", ""min_amount"": 720, ""discount_amount"": 158, ""description"": ""\u20b9150 off on orders above \u20b9750 with Credit Card"", ""payment_method"": ""CreditCard""}, {""code"": ""CASHBACK_1263"", ""min_amount"": 524, ""discount_amount"": 70, ""description"": ""\u20b975 off on Cash payments above \u20b9500"", ""payment_method"": ""Cash""}]",17.249911777514207,90.62793860533992,2021-07-17 10:06:07,2024-09-28 01:48:04
1278,Rotlo Rajwadi Express,"Mexican, Street Food, Bakery",1875,9297230769,06:00 - 11:00,19,False,Closed,Sehgal,"Ground Floor, Sehgal, Vadodara - 998662",3.9,"[{""code"": ""SPECIAL_1278"", ""min_amount"": 796, ""discount_amount"": 154, ""description"": ""\u20b9150 off on orders above \u20b9800"", ""payment_method"": null}, {""code"": ""CREDITCARD_1278"", ""min_amount"": 700, ""discount_amount"": 143, ""description"": ""\u20b9150 off on orders above \u20b9750 with Credit Card"", ""payment_method"": ""CreditCard""}, {""code"": ""FIRSTORDER_1278"", ""min_amount"": 277, ""discount_amount"": 71, ""description"": ""\u20b975 off on your first order above \u20b9300"", ""payment_method"": null}]",19.963275382675786,74.17221442982465,2021-02-27 15:29:39,2022-05-16 14:35:28
1284,Manchurian Hub,"Ice Cream, Mediterranean, Bakery",1755,9822589434,20:00 - 00:00,19,True,Open,Sachdev Path," Sachdev Path, Vadodara - 998662",3.8,"[{""code"": ""UPISAVE_1284"", ""min_amount"": 388, ""discount_amount"": 84, ""description"": ""\u20b980 off on orders above \u20b9400 with UPI"", ""payment_method"": ""UPI""}, {""code"": ""FIRSTORDER_1284"", ""min_amount"": 304, ""discount_amount"": 68, ""description"": ""\u20b975 off on your first order above \u20b9300"", ""payment_method"": null}, {""code"": ""FESTIVAL_1284"", ""min_amount"": 1355, ""discount_amount"": 289, ""description"": ""\u20b9300 off on orders above \u20b91500"", ""payment_method"": null}, {""code"": ""DEBITCARD_1284"", ""min_amount"": 627, ""discount_amount"": 95, ""description"": ""\u20b9100 off on orders above \u20b9600 with Debit Card"", ""payment_method"": ""DebitCard""}, {""code"": ""CREDITCARD_1284"", ""min_amount"": 794, ""discount_amount"": 141, ""description"": ""\u20b9150 off on orders above \u20b9750 with Credit Card"", ""payment_method"": ""CreditCard""}]",31.19420708125465,78.30262421129353,2021-05-31 20:05:54,2022-08-09 00:53:29
1287,Pasta Fresca,"Bakery, Mughlai",1021,9373334269,06:00 - 11:00,19,True,Open,Bail Nagar,"Second Floor, Bail Nagar, Vadodara - 998662",3.8,"[{""code"": ""UPISAVE_1287"", ""min_amount"": 386, ""discount_amount"": 82, ""description"": ""\u20b980 off on orders above \u20b9400 with UPI"", ""payment_method"": ""UPI""}, {""code"": ""FIRSTORDER_1287"", ""min_amount"": 298, ""discount_amount"": 76, ""description"": ""\u20b975 off on your first order above \u20b9300"", ""payment_method"": null}, {""code"": ""WELCOME_1287"", ""min_amount"": 481, ""discount_amount"": 94, ""description"": ""\u20b9100 off on orders above \u20b9500"", ""payment_method"": null}, {""code"": ""FESTIVAL_1287"", ""min_amount"": 1393, ""discount_amount"": 292, ""description"": ""\u20b9300 off on orders above \u20b91500"", ""payment_method"": null}, {""code"": ""CASHBACK_1287"", ""min_amount"": 487, ""discount_amount"": 75, ""description"": ""\u20b975 off on Cash payments above \u20b9500"", ""payment_method"": ""Cash""}]",16.294613970266337,96.29082920571106,2020-12-22 11:36:46,2021-05-10 09:47:36
1288,Kaizen Kitchen,"Cafe, Lebanese",1905,9623770326,12:00 - 16:00,19,True,Open,Chada Marg," Chada Marg, Vadodara - 998662",3.7,"[{""code"": ""WEEKEND_1288"", ""min_amount"": 1028, ""discount_amount"": 211, ""description"": ""\u20b9200 off on orders above \u20b91000"", ""payment_method"": null}, {""code"": ""FIRSTORDER_1288"", ""min_amount"": 294, ""discount_amount"": 71, ""description"": ""\u20b975 off on your first order above \u20b9300"", ""payment_method"": null}, {""code"": ""CREDITCARD_1288"", ""min_amount"": 786, ""discount_amount"": 154, ""description"": ""\u20b9150 off on orders above \u20b9750 with Credit Card"", ""payment_method"": ""CreditCard""}]",11.2534547350238,80.37078781157734,2021-02-27 16:51:36,2023-09-23 19:41:32
1289,Dragon Spice House,"North Indian, Lebanese",237,9599305000,06:00 - 11:00,19,True,Open,Venkatesh,"Third Floor, Venkatesh, Vadodara - 998662",3.9,"[{""code"": ""SPECIAL_1289"", ""min_amount"": 827, ""discount_amount"": 149, ""description"": ""\u20b9150 off on orders above \u20b9800"", ""payment_method"": null}, {""code"": ""FIRSTORDER_1289"", ""min_amount"": 318, ""discount_amount"": 79, ""description"": ""\u20b975 off on your first order above \u20b9300"", ""payment_method"": null}, {""code"": ""CREDITCARD_1289"", ""min_amount"": 711, ""discount_amount"": 143, ""description"": ""\u20b9150 off on orders above \u20b9750 with Credit Card"", ""payment_method"": ""CreditCard""}, {""code"": ""FESTIVAL_1289"", ""min_amount"": 1516, ""discount_amount"": 312, ""description"": ""\u20b9300 off on orders above \u20b91500"", ""payment_method"": null}]",31.96042220974541,97.16695663228025,2021-10-14 21:38:25,2022-05-13 16:46:44
1299,Wok & Roll,"Chinese, Japanese",982,9820223816,06:00 - 11:00,19,True,Open,Srinivasan,"Ground Floor, Srinivasan, Vadodara - 998662",3.7,"[{""code"": ""FESTIVAL_1299"", ""min_amount"": 1642, ""discount_amount"": 323, ""description"": ""\u20b9300 off on orders above \u20b91500"", ""payment_method"": null}, {""code"": ""CASHBACK_1299"", ""min_amount"": 461, ""discount_amount"": 74, ""description"": ""\u20b975 off on Cash payments above \u20b9500"", ""payment_method"": ""Cash""}, {""code"": ""SPECIAL_1299"", ""min_amount"": 806, ""discount_amount"": 162, ""description"": ""\u20b9150 off on orders above \u20b9800"", ""payment_method"": null}, {""code"": ""WEEKEND_1299"", ""min_amount"": 902, ""discount_amount"": 180, ""description"": ""\u20b9200 off on orders above \u20b91000"", ""payment_method"": null}, {""code"": ""CREDITCARD_1299"", ""min_amount"": 747, ""discount_amount"": 158, ""description"": ""\u20b9150 off on orders above \u20b9750 with Credit Card"", ""payment_method"": ""CreditCard""}]",36.02666359078455,76.15256287080463,2021-09-09 11:33:54,2022-02-08 22:15:41
1303,Khichdi Khaas,Lebanese,467,9461091943,20:00 - 00:00,19,True,Open,Devi Ganj,"Ground Floor, Devi Ganj, Vadodara - 998662",3.8,"[{""code"": ""WELCOME_1303"", ""min_amount"": 505, ""discount_amount"": 91, ""description"": ""\u20b9100 off on orders above \u20b9500"", ""payment_method"": null}, {""code"": ""SPECIAL_1303"", ""min_amount"": 783, ""discount_amount"": 151, ""description"": ""\u20b9150 off on orders above \u20b9800"", ""payment_method"": null}, {""code"": ""FIRSTORDER_1303"", ""min_amount"": 304, ""discount_amount"": 74, ""description"": ""\u20b975 off on your first order above \u20b9300"", ""payment_method"": null}, {""code"": ""CASHBACK_1303"", ""min_amount"": 451, ""discount_amount"": 71, ""description"": ""\u20b975 off on Cash payments above \u20b9500"", ""payment_method"": ""Cash""}, {""code"": ""WEEKEND_1303"", ""min_amount"": 923, ""discount_amount"": 193, ""description"": ""\u20b9200 off on orders above \u20b91000"", ""payment_method"": null}]",28.99089257769868,85.72102607909922,2021-11-05 17:07:06,2022-06-04 07:17:55
1305,Basilico Express,"Bakery, North Indian",489,9747986180,11:00 - 15:00,19,True,Open,Bali Ganj,"Second Floor, Bali Ganj, Vadodara - 998662",3.8,"[{""code"": ""FESTIVAL_1305"", ""min_amount"": 1458, ""discount_amount"": 284, ""description"": ""\u20b9300 off on orders above \u20b91500"", ""payment_method"": null}, {""code"": ""SPECIAL_1305"", ""min_amount"": 848, ""discount_amount"": 160, ""description"": ""\u20b9150 off on orders above \u20b9800"", ""payment_method"": null}, {""code"": ""WELCOME_1305"", ""min_amount"": 498, ""discount_amount"": 96, ""description"": ""\u20b9100 off on orders above \u20b9500"", ""payment_method"": null}, {""code"": ""CASHBACK_1305"", ""min_amount"": 475, ""discount_amount"": 76, ""description"": ""\u20b975 off on Cash payments above \u20b9500"", ""payment_method"": ""Cash""}]",24.32090231432825,90.28395233209812,2021-06-13 10:39:39,2023-07-30 02:19:34
1309,Spicy Bamboo Kitchen,"Pizza, Fast Food",1585,9781850091,19:00 - 23:00,19,True,Open,Naik Road,"First Floor, Naik Road, Vadodara - 998662",3.9,"[{""code"": ""FESTIVAL_1309"", ""min_amount"": 1403, ""discount_amount"": 304, ""description"": ""\u20b9300 off on orders above \u20b91500"", ""payment_method"": null}, {""code"": ""WELCOME_1309"", ""min_amount"": 492, ""discount_amount"": 106, ""description"": ""\u20b9100 off on orders above \u20b9500"", ""payment_method"": null}, {""code"": ""SPECIAL_1309"", ""min_amount"": 836, ""discount_amount"": 144, ""description"": ""\u20b9150 off on orders above \u20b9800"", ""payment_method"": null}, {""code"": ""DEBITCARD_1309"", ""min_amount"": 630, ""discount_amount"": 99, ""description"": ""\u20b9100 off on orders above \u20b9600 with Debit Card"", ""payment_method"": ""DebitCard""}]",33.00854949606094,86.9449561370242,2021-02-26 20:15:04,2024-05-17 21:36:30
1313,Bhavnagari Rasoi,Bakery,470,9539984049,20:00 - 00:00,19,True,Open,Mukhopadhyay,"Third Floor, Mukhopadhyay, Vadodara - 998662",3.9,"[{""code"": ""UPISAVE_1313"", ""min_amount"": 389, ""discount_amount"": 72, ""description"": ""\u20b980 off on orders above \u20b9400 with UPI"", ""payment_method"": ""UPI""}, {""code"": ""CASHBACK_1313"", ""min_amount"": 515, ""discount_amount"": 76, ""description"": ""\u20b975 off on Cash payments above \u20b9500"", ""payment_method"": ""Cash""}, {""code"": ""FESTIVAL_1313"", ""min_amount"": 1617, ""discount_amount"": 294, ""description"": ""\u20b9300 off on orders above \u20b91500"", ""payment_method"": null}, {""code"": ""FIRSTORDER_1313"", ""min_amount"": 292, ""discount_amount"": 74, ""description"": ""\u20b975 off on your first order above \u20b9300"", ""payment_method"": null}]",9.386084424287342,90.61297386153583,2021-03-25 06:15:51,2023-12-27 21:49:28
1319,Gujarati Maharaj Bhavan,"Mughlai, Ice Cream, Desserts",1049,9324248317,00:00 - 06:00,19,True,Open,Gulati," Gulati, Vadodara - 998662",4.1,"[{""code"": ""CASHBACK_1319"", ""min_amount"": 499, ""discount_amount"": 79, ""description"": ""\u20b975 off on Cash payments above \u20b9500"", ""payment_method"": ""Cash""}, {""code"": ""UPISAVE_1319"", ""min_amount"": 415, ""discount_amount"": 76, ""description"": ""\u20b980 off on orders above \u20b9400 with UPI"", ""payment_method"": ""UPI""}, {""code"": ""SPECIAL_1319"", ""min_amount"": 745, ""discount_amount"": 144, ""description"": ""\u20b9150 off on orders above \u20b9800"", ""payment_method"": null}, {""code"": ""FIRSTORDER_1319"", ""min_amount"": 291, ""discount_amount"": 73, ""description"": ""\u20b975 off on your first order above \u20b9300"", ""payment_method"": null}]",27.72552763705091,84.1154464833974,2021-11-18 20:20:47,2024-04-08 08:16:37
1320,Zen Garden,Cafe,1565,9720018749,12:00 - 16:00,19,True,Open,Saxena Circle,"Second Floor, Saxena Circle, Vadodara - 998662",3.8,"[{""code"": ""WEEKEND_1320"", ""min_amount"": 900, ""discount_amount"": 192, ""description"": ""\u20b9200 off on orders above \u20b91000"", ""payment_method"": null}, {""code"": ""WELCOME_1320"", ""min_amount"": 520, ""discount_amount"": 93, ""description"": ""\u20b9100 off on orders above \u20b9500"", ""payment_method"": null}, {""code"": ""FESTIVAL_1320"", ""min_amount"": 1496, ""discount_amount"": 290, ""description"": ""\u20b9300 off on orders above \u20b91500"", ""payment_method"": null}]",11.753773674902472,68.9381632379717,2021-09-05 13:39:55,2023-03-24 03:57:39
1744,Wok & Roll,"North Indian, Mexican",611,9834298182,16:00 - 19:00,26,True,Open,Shankar Street,"Ground Floor, Shankar Street, Varanasi - 489201",3.8,"[{""code"": ""FIRSTORDER_1744"", ""min_amount"": 291, ""discount_amount"": 72, ""description"": ""\u20b975 off on your first order above \u20b9300"", ""payment_method"": null}, {""code"": ""WELCOME_1744"", ""min_amount"": 518, ""discount_amount"": 103, ""description"": ""\u20b9100 off on orders above \u20b9500"", ""payment_method"": null}, {""code"": ""DEBITCARD_1744"", ""min_amount"": 552, ""discount_amount"": 94, ""description"": ""\u20b9100 off on orders above \u20b9600 with Debit Card"", ""payment_method"": ""DebitCard""}, {""code"": ""SPECIAL_1744"", ""min_amount"": 833, ""discount_amount"": 157, ""description"": ""\u20b9150 off on orders above \u20b9800"", ""payment_method"": null}, {""code"": ""FESTIVAL_1744"", ""min_amount"": 1387, ""discount_amount"": 311, ""description"": ""\u20b9300 off on orders above \u20b91500"", ""payment_method"": null}]",29.340062179062897,87.76691861642749,2021-01-10 20:45:51,2021-08-20 21:23:12
1750,Brew & Barrel,"South Indian, Fast Food, Continental",201,9818270231,06:00 - 11:00,26,True,Open,Rout Road,"First Floor, Rout Road, Varanasi - 489201",3.8,"[{""code"": ""CASHBACK_1750"", ""min_amount"": 525, ""discount_amount"": 76, ""description"": ""\u20b975 off on Cash payments above \u20b9500"", ""payment_method"": ""Cash""}, {""code"": ""SPECIAL_1750"", ""min_amount"": 788, ""discount_amount"": 160, ""description"": ""\u20b9150 off on orders above \u20b9800"", ""payment_method"": null}, {""code"": ""WELCOME_1750"", ""min_amount"": 492, ""discount_amount"": 94, ""description"": ""\u20b9100 off on orders above \u20b9500"", ""payment_method"": null}, {""code"": ""UPISAVE_1750"", ""min_amount"": 373, ""discount_amount"": 72, ""description"": ""\u20b980 off on orders above \u20b9400 with UPI"", ""payment_method"": ""UPI""}, {""code"": ""DEBITCARD_1750"", ""min_amount"": 617, ""discount_amount"": 94, ""description"": ""\u20b9100 off on orders above \u20b9600 with Debit Card"", ""payment_method"": ""DebitCard""}]",35.45135610483207,89.02635006627932,2021-11-19 21:29:00,2024-11-03 06:16:31
1753,Rasoi ni Rasmalai,Pizza,1840,9289083138,12:00 - 16:00,26,True,Open,Kalita Chowk,"Third Floor, Kalita Chowk, Varanasi - 489201",3.8,"[{""code"": ""CASHBACK_1753"", ""min_amount"": 506, ""discount_amount"": 75, ""description"": ""\u20b975 off on Cash payments above \u20b9500"", ""payment_method"": ""Cash""}, {""code"": ""WELCOME_1753"", ""min_amount"": 480, ""discount_amount"": 106, ""description"": ""\u20b9100 off on orders above \u20b9500"", ""payment_method"": null}, {""code"": ""CREDITCARD_1753"", ""min_amount"": 791, ""discount_amount"": 146, ""description"": ""\u20b9150 off on orders above \u20b9750 with Credit Card"", ""payment_method"": ""CreditCard""}, {""code"": ""UPISAVE_1753"", ""min_amount"": 426, ""discount_amount"": 81, ""description"": ""\u20b980 off on orders above \u20b9400 with UPI"", ""payment_method"": ""UPI""}]",12.1311727436938,76.4690829735676,2021-04-23 22:30:31,2024-01-29 14:34:52
1756,Chettinad Curry House,"Chinese, Italian",377,9725910526,19:00 - 23:00,26,True,Open,Varghese Circle,"First Floor, Varghese Circle, Varanasi - 489201",3.8,"[{""code"": ""WELCOME_1756"", ""min_amount"": 478, ""discount_amount"": 106, ""description"": ""\u20b9100 off on orders above \u20b9500"", ""payment_method"": null}, {""code"": ""FIRSTORDER_1756"", ""min_amount"": 288, ""discount_amount"": 74, ""description"": ""\u20b975 off on your first order above \u20b9300"", ""payment_method"": null}, {""code"": ""SPECIAL_1756"", ""min_amount"": 819, ""discount_amount"": 159, ""description"": ""\u20b9150 off on orders above \u20b9800"", ""payment_method"": null}, {""code"": ""CREDITCARD_1756"", ""min_amount"": 680, ""discount_amount"": 155, ""description"": ""\u20b9150 off on orders above \u20b9750 with Credit Card"", ""payment_method"": ""CreditCard""}, {""code"": ""UPISAVE_1756"", ""min_amount"": 420, ""discount_amount"": 74, ""description"": ""\u20b980 off on orders above \u20b9400 with UPI"", ""payment_method"": ""UPI""}]",30.46632650135819,85.86322391794333,2021-11-11 23:11:51,2022-01-08 19:12:59
1762,Nomad's Feast,"Continental, Mughlai, Burger",1675,9550178033,19:00 - 23:00,26,True,Open,Sankar Road," Sankar Road, Varanasi - 489201",3.8,"[{""code"": ""CASHBACK_1762"", ""min_amount"": 526, ""discount_amount"": 69, ""description"": ""\u20b975 off on Cash payments above \u20b9500"", ""payment_method"": ""Cash""}, {""code"": ""CREDITCARD_1762"", ""min_amount"": 691, ""discount_amount"": 157, ""description"": ""\u20b9150 off on orders above \u20b9750 with Credit Card"", ""payment_method"": ""CreditCard""}, {""code"": ""WELCOME_1762"", ""min_amount"": 497, ""discount_amount"": 94, ""description"": ""\u20b9100 off on orders above \u20b9500"", ""payment_method"": null}]",25.144593115452857,70.08554987155236,2021-08-24 14:06:38,2024-02-01 07:48:44
1767,Urban Thali Kitchen,"Italian, Pizza, Mexican",451,9955262734,19:00 - 23:00,26,True,Open,Savant Ganj,"First Floor, Savant Ganj, Varanasi - 489201",3.8,"[{""code"": ""WEEKEND_1767"", ""min_amount"": 1002, ""discount_amount"": 207, ""description"": ""\u20b9200 off on orders above \u20b91000"", ""payment_method"": null}, {""code"": ""FESTIVAL_1767"", ""min_amount"": 1610, ""discount_amount"": 315, ""description"": ""\u20b9300 off on orders above \u20b91500"", ""payment_method"": null}, {""code"": ""SPECIAL_1767"", ""min_amount"": 856, ""discount_amount"": 140, ""description"": ""\u20b9150 off on orders above \u20b9800"", ""payment_method"": null}]",29.537997104971183,95.86311172886776,2021-09-15 17:42:30,2023-09-07 07:34:09
1771,Fafda House,"Mexican, Thai",233,9694970187,12:00 - 16:00,26,True,Open,Som Zila,"Ground Floor, Som Zila, Varanasi - 489201",3.8,"[{""code"": ""WEEKEND_1771"", ""min_amount"": 1040, ""discount_amount"": 196, ""description"": ""\u20b9200 off on orders above \u20b91000"", ""payment_method"": null}, {""code"": ""WELCOME_1771"", ""min_amount"": 510, ""discount_amount"": 100, ""description"": ""\u20b9100 off on orders above \u20b9500"", ""payment_method"": null}, {""code"": ""SPECIAL_1771"", ""min_amount"": 849, ""discount_amount"": 158, ""description"": ""\u20b9150 off on orders above \u20b9800"", ""payment_method"": null}, {""code"": ""DEBITCARD_1771"", ""min_amount"": 620, ""discount_amount"": 95, ""description"": ""\u20b9100 off on orders above \u20b9600 with Debit Card"", ""payment_method"": ""DebitCard""}]",11.411331859956777,73.20226034557429,2021-01-19 16:42:21,2024-12-04 19:54:00
1787,Lavender & Latte,"Lebanese, Fast Food",873,9392417045,19:00 - 23:00,26,True,Open,Bhagat Nagar,"First Floor, Bhagat Nagar, Varanasi - 489201",3.7,"[{""code"": ""WELCOME_1787"", ""min_amount"": 545, ""discount_amount"": 90, ""description"": ""\u20b9100 off on orders above \u20b9500"", ""payment_method"": null}, {""code"": ""FIRSTORDER_1787"", ""min_amount"": 328, ""discount_amount"": 74, ""description"": ""\u20b975 off on your first order above \u20b9300"", ""payment_method"": null}, {""code"": ""DEBITCARD_1787"", ""min_amount"": 548, ""discount_amount"": 96, ""description"": ""\u20b9100 off on orders above \u20b9600 with Debit Card"", ""payment_method"": ""DebitCard""}, {""code"": ""UPISAVE_1787"", ""min_amount"": 425, ""discount_amount"": 78, ""description"": ""\u20b980 off on orders above \u20b9400 with UPI"", ""payment_method"": ""UPI""}]",28.021297563517884,87.37750844235735,2021-01-12 20:09:31,2023-06-13 16:02:22
2250,Sabudana House,Mughlai,767,9774170012,20:00 - 00:00,34,True,Open,Naik,"Second Floor, Naik, Gandhinagar - 329684",3.9,"[{""code"": ""WELCOME_2250"", ""min_amount"": 456, ""discount_amount"": 107, ""description"": ""\u20b9100 off on orders above \u20b9500"", ""payment_method"": null}, {""code"": ""UPISAVE_2250"", ""min_amount"": 411, ""discount_amount"": 85, ""description"": ""\u20b980 off on orders above \u20b9400 with UPI"", ""payment_method"": ""UPI""}, {""code"": ""FIRSTORDER_2250"", ""min_amount"": 307, ""discount_amount"": 73, ""description"": ""\u20b975 off on your first order above \u20b9300"", ""payment_method"": null}, {""code"": ""CREDITCARD_2250"", ""min_amount"": 820, ""discount_amount"": 135, ""description"": ""\u20b9150 off on orders above \u20b9750 with Credit Card"", ""payment_method"": ""CreditCard""}]",18.430790687551912,81.21020545772664,2021-08-12 07:53:30,2022-06-16 13:28:53
2251,Desi Gujju Tadka,Cafe,601,9211540463,20:00 - 00:00,34,True,Open,Thaman Circle,"Second Floor, Thaman Circle, Gandhinagar - 329684",3.8,"[{""code"": ""WEEKEND_2251"", ""min_amount"": 1014, ""discount_amount"": 202, ""description"": ""\u20b9200 off on orders above \u20b91000"", ""payment_method"": null}, {""code"": ""SPECIAL_2251"", ""min_amount"": 781, ""discount_amount"": 155, ""description"": ""\u20b9150 off on orders above \u20b9800"", ""payment_method"": null}, {""code"": ""CREDITCARD_2251"", ""min_amount"": 713, ""discount_amount"": 146, ""description"": ""\u20b9150 off on orders above \u20b9750 with Credit Card"", ""payment_method"": ""CreditCard""}, {""code"": ""UPISAVE_2251"", ""min_amount"": 387, ""discount_amount"": 82, ""description"": ""\u20b980 off on orders above \u20b9400 with UPI"", ""payment_method"": ""UPI""}]",11.446428296115188,82.1400900558615,2021-05-27 17:46:06,2021-10-17 10:57:37
2252,Kitchen X,Mughlai,1943,9999982555,06:00 - 11:00,34,False,Closed,Magar Circle,"Third Floor, Magar Circle, Gandhinagar - 329684",3.8,"[{""code"": ""CREDITCARD_2252"", ""min_amount"": 721, ""discount_amount"": 139, ""description"": ""\u20b9150 off on orders above \u20b9750 with Credit Card"", ""payment_method"": ""CreditCard""}, {""code"": ""WEEKEND_2252"", ""min_amount"": 1075, ""discount_amount"": 190, ""description"": ""\u20b9200 off on orders above \u20b91000"", ""payment_method"": null}, {""code"": ""CASHBACK_2252"", ""min_amount"": 493, ""discount_amount"": 69, ""description"": ""\u20b975 off on Cash payments above \u20b9500"", ""payment_method"": ""Cash""}, {""code"": ""FESTIVAL_2252"", ""min_amount"": 1573, ""discount_amount"": 316, ""description"": ""\u20b9300 off on orders above \u20b91500"", ""payment_method"": null}]",16.83055681982569,83.8825840330978,2021-07-09 05:48:29,2023-12-30 20:06:42
2257,Zen Garden,"North Indian, Mughlai",1271,9562148693,12:00 - 16:00,34,True,Open,Nadkarni Street,"Ground Floor, Nadkarni Street, Gandhinagar - 329684",3.8,"[{""code"": ""FIRSTORDER_2257"", ""min_amount"": 271, ""discount_amount"": 79, ""description"": ""\u20b975 off on your first order above \u20b9300"", ""payment_method"": null}, {""code"": ""WEEKEND_2257"", ""min_amount"": 1080, ""discount_amount"": 188, ""description"": ""\u20b9200 off on orders above \u20b91000"", ""payment_method"": null}, {""code"": ""SPECIAL_2257"", ""min_amount"": 846, ""discount_amount"": 136, ""description"": ""\u20b9150 off on orders above \u20b9800"", ""payment_method"": null}]",36.12014067695922,88.0781525212696,2021-06-29 03:51:12,2023-12-26 10:11:11
2263,Chandni Chowk Chaat,"Mediterranean, Japanese",1013,9816774288,12:00 - 16:00,34,True,Open,Pal Path,"Second Floor, Pal Path, Gandhinagar - 329684",3.8,"[{""code"": ""FIRSTORDER_2263"", ""min_amount"": 275, ""discount_amount"": 76, ""description"": ""\u20b975 off on your first order above \u20b9300"", ""payment_method"": null}, {""code"": ""CREDITCARD_2263"", ""min_amount"": 679, ""discount_amount"": 147, ""description"": ""\u20b9150 off on orders above \u20b9750 with Credit Card"", ""payment_method"": ""CreditCard""}, {""code"": ""DEBITCARD_2263"", ""min_amount"": 630, ""discount_amount"": 104, ""description"": ""\u20b9100 off on orders above \u20b9600 with Debit Card"", ""payment_method"": ""DebitCard""}]",37.07913558282591,91.78252127349916,2021-10-10 13:43:11,2024-10-18 21:51:04
2272,Oak & Olive,"Street Food, Italian",374,9856581600,19:00 - 23:00,34,True,Open,Pau Nagar,"Second Floor, Pau Nagar, Gandhinagar - 329684",3.8,"[{""code"": ""DEBITCARD_2272"", ""min_amount"": 587, ""discount_amount"": 105, ""description"": ""\u20b9100 off on orders above \u20b9600 with Debit Card"", ""payment_method"": ""DebitCard""}, {""code"": ""WELCOME_2272"", ""min_amount"": 479, ""discount_amount"": 101, ""description"": ""\u20b9100 off on orders above \u20b9500"", ""payment_method"": null}, {""code"": ""FIRSTORDER_2272"", ""min_amount"": 289, ""discount_amount"": 69, ""description"": ""\u20b975 off on your first order above \u20b9300"", ""payment_method"": null}]",32.19254005631413,96.92706722795108,2021-09-17 22:38:16,2023-07-22 08:14:05
2276,Urban Feast,Beverages,604,9228463438,16:00 - 19:00,34,True,Open,Kaur Street,"Third Floor, Kaur Street, Gandhinagar - 329684",3.9,"[{""code"": ""WEEKEND_2276"", ""min_amount"": 1071, ""discount_amount"": 207, ""description"": ""\u20b9200 off on orders above \u20b91000"", ""payment_method"": null}, {""code"": ""CASHBACK_2276"", ""min_amount"": 463, ""discount_amount"": 77, ""description"": ""\u20b975 off on Cash payments above \u20b9500"", ""payment_method"": ""Cash""}, {""code"": ""SPECIAL_2276"", ""min_amount"": 849, ""discount_amount"": 158, ""description"": ""\u20b9150 off on orders above \u20b9800"", ""payment_method"": null}, {""code"": ""WELCOME_2276"", ""min_amount"": 534, ""discount_amount"": 93, ""description"": ""\u20b9100 off on orders above \u20b9500"", ""payment_method"": null}]",30.70734390862325,88.91917784113049,2021-07-06 00:42:51,2025-04-18 03:50:59
2278,Farsan Street,"Mughlai, Mexican",1707,9446416579,06:00 - 11:00,34,True,Open,Madan Ganj,"First Floor, Madan Ganj, Gandhinagar - 329684",3.9,"[{""code"": ""FIRSTORDER_2278"", ""min_amount"": 311, ""discount_amount"": 81, ""description"": ""\u20b975 off on your first order above \u20b9300"", ""payment_method"": null}, {""code"": ""FESTIVAL_2278"", ""min_amount"": 1531, ""discount_amount"": 327, ""description"": ""\u20b9300 off on orders above \u20b91500"", ""payment_method"": null}, {""code"": ""WELCOME_2278"", ""min_amount"": 546, ""discount_amount"": 107, ""description"": ""\u20b9100 off on orders above \u20b9500"", ""payment_method"": null}]",17.680553145598637,80.87627969752803,2021-06-05 18:10:39,2024-10-10 08:51:29
2280,Kathiyawadi Rasoi Express,"Ice Cream, Continental",1366,9792529368,19:00 - 23:00,34,True,Open,Chanda Nagar,"Second Floor, Chanda Nagar, Gandhinagar - 329684",3.8,"[{""code"": ""WEEKEND_2280"", ""min_amount"": 992, ""discount_amount"": 206, ""description"": ""\u20b9200 off on orders above \u20b91000"", ""payment_method"": null}, {""code"": ""FIRSTORDER_2280"", ""min_amount"": 295, ""discount_amount"": 81, ""description"": ""\u20b975 off on your first order above \u20b9300"", ""payment_method"": null}, {""code"": ""CASHBACK_2280"", ""min_amount"": 548, ""discount_amount"": 78, ""description"": ""\u20b975 off on Cash payments above \u20b9500"", ""payment_method"": ""Cash""}]",18.356963629699283,84.43265334505779,2021-08-03 20:41:34,2022-02-09 21:11:49
2301,La Tavola,"Street Food, Mughlai, Mediterranean",255,9178840986,06:00 - 11:00,34,True,Open,Roy Circle,"Ground Floor, Roy Circle, Gandhinagar - 329684",3.7,"[{""code"": ""CREDITCARD_2301"", ""min_amount"": 802, ""discount_amount"": 149, ""description"": ""\u20b9150 off on orders above \u20b9750 with Credit Card"", ""payment_method"": ""CreditCard""}, {""code"": ""FIRSTORDER_2301"", ""min_amount"": 278, ""discount_amount"": 74, ""description"": ""\u20b975 off on your first order above \u20b9300"", ""payment_method"": null}, {""code"": ""WEEKEND_2301"", ""min_amount"": 911, ""discount_amount"": 184, ""description"": ""\u20b9200 off on orders above \u20b91000"", ""payment_method"": null}, {""code"": ""DEBITCARD_2301"", ""min_amount"": 627, ""discount_amount"": 103, ""description"": ""\u20b9100 off on orders above \u20b9600 with Debit Card"", ""payment_method"": ""DebitCard""}, {""code"": ""UPISAVE_2301"", ""min_amount"": 428, ""discount_amount"": 79, ""description"": ""\u20b980 off on orders above \u20b9400 with UPI"", ""payment_method"": ""UPI""}]",37.07428180967529,88.66704275231933,2021-12-04 19:05:35,2023-02-12 23:25:23
2303,Bhavnagari Rasoi,Continental,1740,9741502917,16:00 - 19:00,34,True,Open,Doctor Street," Doctor Street, Gandhinagar - 329684",3.7,"[{""code"": ""CREDITCARD_2303"", ""min_amount"": 707, ""discount_amount"": 136, ""description"": ""\u20b9150 off on orders above \u20b9750 with Credit Card"", ""payment_method"": ""CreditCard""}, {""code"": ""SPECIAL_2303"", ""min_amount"": 728, ""discount_amount"": 157, ""description"": ""\u20b9150 off on orders above \u20b9800"", ""payment_method"": null}, {""code"": ""UPISAVE_2303"", ""min_amount"": 394, ""discount_amount"": 86, ""description"": ""\u20b980 off on orders above \u20b9400 with UPI"", ""payment_method"": ""UPI""}, {""code"": ""FESTIVAL_2303"", ""min_amount"": 1546, ""discount_amount"": 282, ""description"": ""\u20b9300 off on orders above \u20b91500"", ""payment_method"": null}]",18.373748376014667,92.47100782909868,2021-09-07 18:42:32,2022-09-08 09:32:04
2318,Wada Pav Junction,"Bakery, Chinese, Pizza",445,9874015276,11:00 - 15:00,34,True,Open,Shroff Road,"Third Floor, Shroff Road, Gandhinagar - 329684",3.8,"[{""code"": ""FESTIVAL_2318"", ""min_amount"": 1429, ""discount_amount"": 279, ""description"": ""\u20b9300 off on orders above \u20b91500"", ""payment_method"": null}, {""code"": ""CASHBACK_2318"", ""min_amount"": 458, ""discount_amount"": 81, ""description"": ""\u20b975 off on Cash payments above \u20b9500"", ""payment_method"": ""Cash""}, {""code"": ""WELCOME_2318"", ""min_amount"": 451, ""discount_amount"": 99, ""description"": ""\u20b9100 off on orders above \u20b9500"", ""payment_method"": null}]",26.21506303782285,93.75012951259106,2021-05-25 21:37:01,2022-02-15 23:10:21
2415,Dosai Delight,Pizza,816,9123019201,12:00 - 16:00,36,True,Open,Sane,"Second Floor, Sane, Himatnagar - 789514",3.9,"[{""code"": ""DEBITCARD_2415"", ""min_amount"": 581, ""discount_amount"": 105, ""description"": ""\u20b9100 off on orders above \u20b9600 with Debit Card"", ""payment_method"": ""DebitCard""}, {""code"": ""FESTIVAL_2415"", ""min_amount"": 1592, ""discount_amount"": 309, ""description"": ""\u20b9300 off on orders above \u20b91500"", ""payment_method"": null}, {""code"": ""FIRSTORDER_2415"", ""min_amount"": 301, ""discount_amount"": 68, ""description"": ""\u20b975 off on your first order above \u20b9300"", ""payment_method"": null}, {""code"": ""CASHBACK_2415"", ""min_amount"": 496, ""discount_amount"": 75, ""description"": ""\u20b975 off on Cash payments above \u20b9500"", ""payment_method"": ""Cash""}]",36.77492710499875,73.9100161310201,2021-01-19 06:53:12,2023-12-21 01:35:52
2416,Stir Fry & More,Bakery,1527,9864557502,19:00 - 23:00,36,False,Closed,Gera Path," Gera Path, Himatnagar - 789514",3.7,"[{""code"": ""CASHBACK_2416"", ""min_amount"": 539, ""discount_amount"": 81, ""description"": ""\u20b975 off on Cash payments above \u20b9500"", ""payment_method"": ""Cash""}, {""code"": ""DEBITCARD_2416"", ""min_amount"": 608, ""discount_amount"": 105, ""description"": ""\u20b9100 off on orders above \u20b9600 with Debit Card"", ""payment_method"": ""DebitCard""}, {""code"": ""FESTIVAL_2416"", ""min_amount"": 1642, ""discount_amount"": 308, ""description"": ""\u20b9300 off on orders above \u20b91500"", ""payment_method"": null}]",31.02355436901629,91.3138895335543,2021-05-22 21:18:41,2024-03-20 06:11:32
2418,The Test Kitchen,"Desserts, Italian, South Indian",1198,9636300594,19:00 - 23:00,36,True,Open,Wable Nagar," Wable Nagar, Himatnagar - 789514",3.9,"[{""code"": ""WEEKEND_2418"", ""min_amount"": 1039, ""discount_amount"": 192, ""description"": ""\u20b9200 off on orders above \u20b91000"", ""payment_method"": null}, {""code"": ""CASHBACK_2418"", ""min_amount"": 540, ""discount_amount"": 78, ""description"": ""\u20b975 off on Cash payments above \u20b9500"", ""payment_method"": ""Cash""}, {""code"": ""SPECIAL_2418"", ""min_amount"": 733, ""discount_amount"": 164, ""description"": ""\u20b9150 off on orders above \u20b9800"", ""payment_method"": null}]",26.071862114752957,81.39417545075548,2021-12-03 22:08:48,2024-02-06 06:12:06
2423,Quill & Crust,"Street Food, Chinese, North Indian",1919,9563192762,20:00 - 00:00,36,True,Open,Mane,"First Floor, Mane, Himatnagar - 789514",3.9,"[{""code"": ""WEEKEND_2423"", ""min_amount"": 908, ""discount_amount"": 212, ""description"": ""\u20b9200 off on orders above \u20b91000"", ""payment_method"": null}, {""code"": ""UPISAVE_2423"", ""min_amount"": 411, ""discount_amount"": 73, ""description"": ""\u20b980 off on orders above \u20b9400 with UPI"", ""payment_method"": ""UPI""}, {""code"": ""CASHBACK_2423"", ""min_amount"": 532, ""discount_amount"": 82, ""description"": ""\u20b975 off on Cash payments above \u20b9500"", ""payment_method"": ""Cash""}]",20.407114437078995,71.89682531975251,2021-02-19 00:48:25,2023-07-16 10:36:38
2427,Puran Poli Junction,"North Indian, Italian",483,9937574163,19:00 - 23:00,36,True,Open,Chowdhury Chowk,"First Floor, Chowdhury Chowk, Himatnagar - 789514",3.9,"[{""code"": ""CREDITCARD_2427"", ""min_amount"": 801, ""discount_amount"": 159, ""description"": ""\u20b9150 off on orders above \u20b9750 with Credit Card"", ""payment_method"": ""CreditCard""}, {""code"": ""DEBITCARD_2427"", ""min_amount"": 543, ""discount_amount"": 96, ""description"": ""\u20b9100 off on orders above \u20b9600 with Debit Card"", ""payment_method"": ""DebitCard""}, {""code"": ""FESTIVAL_2427"", ""min_amount"": 1356, ""discount_amount"": 300, ""description"": ""\u20b9300 off on orders above \u20b91500"", ""payment_method"": null}, {""code"": ""WELCOME_2427"", ""min_amount"": 486, ""discount_amount"": 97, ""description"": ""\u20b9100 off on orders above \u20b9500"", ""payment_method"": null}]",35.1755756241702,70.20273441975395,2021-04-20 00:32:50,2023-12-08 20:43:37
2428,The Garden Table,"Mughlai, Cafe",1301,9716851538,11:00 - 15:00,36,False,Closed,Bassi Street,"Third Floor, Bassi Street, Himatnagar - 789514",3.8,"[{""code"": ""SPECIAL_2428"", ""min_amount"": 793, ""discount_amount"": 161, ""description"": ""\u20b9150 off on orders above \u20b9800"", ""payment_method"": null}, {""code"": ""FIRSTORDER_2428"", ""min_amount"": 320, ""discount_amount"": 68, ""description"": ""\u20b975 off on your first order above \u20b9300"", ""payment_method"": null}, {""code"": ""FESTIVAL_2428"", ""min_amount"": 1407, ""discount_amount"": 322, ""description"": ""\u20b9300 off on orders above \u20b91500"", ""payment_method"": null}, {""code"": ""WEEKEND_2428"", ""min_amount"": 916, ""discount_amount"": 211, ""description"": ""\u20b9200 off on orders above \u20b91000"", ""payment_method"": null}, {""code"": ""CASHBACK_2428"", ""min_amount"": 527, ""discount_amount"": 78, ""description"": ""\u20b975 off on Cash payments above \u20b9500"", ""payment_method"": ""Cash""}]",25.129671696027508,96.3183160159659,2021-07-14 01:37:00,2024-07-23 21:41:16
2432,Alfredo Delights,"South Indian, Burger, Pizza",1665,9486876554,20:00 - 00:00,36,True,Open,Goswami Path," Goswami Path, Himatnagar - 789514",3.9,"[{""code"": ""FESTIVAL_2432"", ""min_amount"": 1609, ""discount_amount"": 273, ""description"": ""\u20b9300 off on orders above \u20b91500"", ""payment_method"": null}, {""code"": ""SPECIAL_2432"", ""min_amount"": 734, ""discount_amount"": 144, ""description"": ""\u20b9150 off on orders above \u20b9800"", ""payment_method"": null}, {""code"": ""WEEKEND_2432"", ""min_amount"": 944, ""discount_amount"": 201, ""description"": ""\u20b9200 off on orders above \u20b91000"", ""payment_method"": null}, {""code"": ""CASHBACK_2432"", ""min_amount"": 518, ""discount_amount"": 79, ""description"": ""\u20b975 off on Cash payments above \u20b9500"", ""payment_method"": ""Cash""}, {""code"": ""DEBITCARD_2432"", ""min_amount"": 579, ""discount_amount"": 100, ""description"": ""\u20b9100 off on orders above \u20b9600 with Debit Card"", ""payment_method"": ""DebitCard""}]",27.601742564219755,94.98727611294748,2021-01-14 14:01:41,2024-12-24 13:18:51
2438,The Graze House,"Chinese, Beverages",1341,9272313038,20:00 - 00:00,36,True,Open,Walla Chowk,"Second Floor, Walla Chowk, Himatnagar - 789514",3.8,"[{""code"": ""FIRSTORDER_2438"", ""min_amount"": 311, ""discount_amount"": 77, ""description"": ""\u20b975 off on your first order above \u20b9300"", ""payment_method"": null}, {""code"": ""FESTIVAL_2438"", ""min_amount"": 1441, ""discount_amount"": 301, ""description"": ""\u20b9300 off on orders above \u20b91500"", ""payment_method"": null}, {""code"": ""WELCOME_2438"", ""min_amount"": 480, ""discount_amount"": 95, ""description"": ""\u20b9100 off on orders above \u20b9500"", ""payment_method"": null}, {""code"": ""SPECIAL_2438"", ""min_amount"": 858, ""discount_amount"": 140, ""description"": ""\u20b9150 off on orders above \u20b9800"", ""payment_method"": null}, {""code"": ""WEEKEND_2438"", ""min_amount"": 995, ""discount_amount"": 202, ""description"": ""\u20b9200 off on orders above \u20b91000"", ""payment_method"": null}]",23.649452876683565,78.43912240916717,2021-06-21 23:30:19,2024-10-22 12:36:56
2442,Asian Zaika,Street Food,1170,9344706050,11:00 - 15:00,36,True,Open,Nath Marg,"Third Floor, Nath Marg, Himatnagar - 789514",3.8,"[{""code"": ""SPECIAL_2442"", ""min_amount"": 731, ""discount_amount"": 149, ""description"": ""\u20b9150 off on orders above \u20b9800"", ""payment_method"": null}, {""code"": ""FESTIVAL_2442"", ""min_amount"": 1370, ""discount_amount"": 307, ""description"": ""\u20b9300 off on orders above \u20b91500"", ""payment_method"": null}, {""code"": ""WEEKEND_2442"", ""min_amount"": 997, ""discount_amount"": 202, ""description"": ""\u20b9200 off on orders above \u20b91000"", ""payment_method"": null}]",34.55064689498532,83.48054186114801,2021-06-01 08:39:51,2025-04-23 02:25:26
2444,Punjabi Thali House,Bakery,1262,9173640889,12:00 - 16:00,36,True,Open,Nagi Street," Nagi Street, Himatnagar - 789514",3.7,"[{""code"": ""WEEKEND_2444"", ""min_amount"": 1064, ""discount_amount"": 204, ""description"": ""\u20b9200 off on orders above \u20b91000"", ""payment_method"": null}, {""code"": ""FESTIVAL_2444"", ""min_amount"": 1486, ""discount_amount"": 271, ""description"": ""\u20b9300 off on orders above \u20b91500"", ""payment_method"": null}, {""code"": ""CREDITCARD_2444"", ""min_amount"": 721, ""discount_amount"": 163, ""description"": ""\u20b9150 off on orders above \u20b9750 with Credit Card"", ""payment_method"": ""CreditCard""}, {""code"": ""WELCOME_2444"", ""min_amount"": 477, ""discount_amount"": 96, ""description"": ""\u20b9100 off on orders above \u20b9500"", ""payment_method"": null}]",17.47927116647599,72.69474053780995,2021-06-09 17:45:41,2024-05-29 01:53:19
2447,Pasta Fresca,"Pizza, Mexican",307,9952342720,20:00 - 00:00,36,True,Open,Sangha Street,"Second Floor, Sangha Street, Himatnagar - 789514",3.9,"[{""code"": ""UPISAVE_2447"", ""min_amount"": 367, ""discount_amount"": 82, ""description"": ""\u20b980 off on orders above \u20b9400 with UPI"", ""payment_method"": ""UPI""}, {""code"": ""FESTIVAL_2447"", ""min_amount"": 1454, ""discount_amount"": 306, ""description"": ""\u20b9300 off on orders above \u20b91500"", ""payment_method"": null}, {""code"": ""DEBITCARD_2447"", ""min_amount"": 592, ""discount_amount"": 92, ""description"": ""\u20b9100 off on orders above \u20b9600 with Debit Card"", ""payment_method"": ""DebitCard""}, {""code"": ""WEEKEND_2447"", ""min_amount"": 911, ""discount_amount"": 195, ""description"": ""\u20b9200 off on orders above \u20b91000"", ""payment_method"": null}, {""code"": ""CREDITCARD_2447"", ""min_amount"": 684, ""discount_amount"": 135, ""description"": ""\u20b9150 off on orders above \u20b9750 with Credit Card"", ""payment_method"": ""CreditCard""}]",33.54747551760942,96.14749782982489,2021-08-30 19:03:32,2024-12-15 10:24:05
2452,Pind Curry House,Chinese,817,9408425236,19:00 - 23:00,36,False,Closed,Kala Nagar,"First Floor, Kala Nagar, Himatnagar - 789514",3.8,"[{""code"": ""CREDITCARD_2452"", ""min_amount"": 753, ""discount_amount"": 153, ""description"": ""\u20b9150 off on orders above \u20b9750 with Credit Card"", ""payment_method"": ""CreditCard""}, {""code"": ""UPISAVE_2452"", ""min_amount"": 409, ""discount_amount"": 86, ""description"": ""\u20b980 off on orders above \u20b9400 with UPI"", ""payment_method"": ""UPI""}, {""code"": ""WEEKEND_2452"", ""min_amount"": 1094, ""discount_amount"": 202, ""description"": ""\u20b9200 off on orders above \u20b91000"", ""payment_method"": null}, {""code"": ""FIRSTORDER_2452"", ""min_amount"": 277, ""discount_amount"": 69, ""description"": ""\u20b975 off on your first order above \u20b9300"", ""payment_method"": null}, {""code"": ""CASHBACK_2452"", ""min_amount"": 536, ""discount_amount"": 70, ""description"": ""\u20b975 off on Cash payments above \u20b9500"", ""payment_method"": ""Cash""}]",32.47616559526745,78.28696837564794,2021-03-06 14:14:27,2024-04-09 14:30:53
2456,The Great Wall Eatery,"Mughlai, Mexican",1172,9214249294,12:00 - 16:00,36,True,Open,Din Nagar,"Ground Floor, Din Nagar, Himatnagar - 789514",3.8,"[{""code"": ""DEBITCARD_2456"", ""min_amount"": 606, ""discount_amount"": 106, ""description"": ""\u20b9100 off on orders above \u20b9600 with Debit Card"", ""payment_method"": ""DebitCard""}, {""code"": ""UPISAVE_2456"", ""min_amount"": 421, ""discount_amount"": 87, ""description"": ""\u20b980 off on orders above \u20b9400 with UPI"", ""payment_method"": ""UPI""}, {""code"": ""FIRSTORDER_2456"", ""min_amount"": 310, ""discount_amount"": 77, ""description"": ""\u20b975 off on your first order above \u20b9300"", ""payment_method"": null}, {""code"": ""FESTIVAL_2456"", ""min_amount"": 1578, ""discount_amount"": 276, ""description"": ""\u20b9300 off on orders above \u20b91500"", ""payment_method"": null}, {""code"": ""CREDITCARD_2456"", ""min_amount"": 701, ""discount_amount"": 151, ""description"": ""\u20b9150 off on orders above \u20b9750 with Credit Card"", ""payment_method"": ""CreditCard""}]",16.186822260900918,72.25836526365421,2020-12-31 19:50:07,2023-08-23 18:08:39
2463,Kokan King Bhavan,"Mughlai, Pizza",1048,9144551160,16:00 - 19:00,36,True,Open,Kalla Nagar," Kalla Nagar, Himatnagar - 789514",3.8,"[{""code"": ""DEBITCARD_2463"", ""min_amount"": 644, ""discount_amount"": 95, ""description"": ""\u20b9100 off on orders above \u20b9600 with Debit Card"", ""payment_method"": ""DebitCard""}, {""code"": ""UPISAVE_2463"", ""min_amount"": 380, ""discount_amount"": 74, ""description"": ""\u20b980 off on orders above \u20b9400 with UPI"", ""payment_method"": ""UPI""}, {""code"": ""FIRSTORDER_2463"", ""min_amount"": 275, ""discount_amount"": 76, ""description"": ""\u20b975 off on your first order above \u20b9300"", ""payment_method"": null}, {""code"": ""SPECIAL_2463"", ""min_amount"": 843, ""discount_amount"": 140, ""description"": ""\u20b9150 off on orders above \u20b9800"", ""payment_method"": null}, {""code"": ""WEEKEND_2463"", ""min_amount"": 920, ""discount_amount"": 193, ""description"": ""\u20b9200 off on orders above \u20b91000"", ""payment_method"": null}]",37.29892044725939,90.49293579191472,2021-03-09 15:56:54,2025-03-12 02:09:52
2466,Global Taste Bazaar,"Chinese, Mediterranean",551,9963016082,12:00 - 16:00,36,True,Open,Sura Path,"Third Floor, Sura Path, Himatnagar - 789514",3.8,"[{""code"": ""FESTIVAL_2466"", ""min_amount"": 1529, ""discount_amount"": 313, ""description"": ""\u20b9300 off on orders above \u20b91500"", ""payment_method"": null}, {""code"": ""WEEKEND_2466"", ""min_amount"": 902, ""discount_amount"": 191, ""description"": ""\u20b9200 off on orders above \u20b91000"", ""payment_method"": null}, {""code"": ""UPISAVE_2466"", ""min_amount"": 380, ""discount_amount"": 80, ""description"": ""\u20b980 off on orders above \u20b9400 with UPI"", ""payment_method"": ""UPI""}, {""code"": ""DEBITCARD_2466"", ""min_amount"": 550, ""discount_amount"": 95, ""description"": ""\u20b9100 off on orders above \u20b9600 with Debit Card"", ""payment_method"": ""DebitCard""}, {""code"": ""SPECIAL_2466"", ""min_amount"": 820, ""discount_amount"": 139, ""description"": ""\u20b9150 off on orders above \u20b9800"", ""payment_method"": null}]",12.36118700915459,88.45915905476488,2021-08-24 10:48:20,2023-11-05 22:05:03
2471,Bajri Bhakri Tadka Delight,Beverages,1543,9564240499,11:00 - 15:00,36,True,Open,Salvi Zila,"Second Floor, Salvi Zila, Himatnagar - 789514",3.8,"[{""code"": ""WELCOME_2471"", ""min_amount"": 519, ""discount_amount"": 92, ""description"": ""\u20b9100 off on orders above \u20b9500"", ""payment_method"": null}, {""code"": ""FESTIVAL_2471"", ""min_amount"": 1372, ""discount_amount"": 319, ""description"": ""\u20b9300 off on orders above \u20b91500"", ""payment_method"": null}, {""code"": ""CREDITCARD_2471"", ""min_amount"": 771, ""discount_amount"": 140, ""description"": ""\u20b9150 off on orders above \u20b9750 with Credit Card"", ""payment_method"": ""CreditCard""}, {""code"": ""DEBITCARD_2471"", ""min_amount"": 638, ""discount_amount"": 97, ""description"": ""\u20b9100 off on orders above \u20b9600 with Debit Card"", ""payment_method"": ""DebitCard""}, {""code"": ""WEEKEND_2471"", ""min_amount"": 999, ""discount_amount"": 188, ""description"": ""\u20b9200 off on orders above \u20b91000"", ""payment_method"": null}]",17.23688690806136,74.76021318177123,2021-02-10 09:02:18,2021-11-16 10:01:08
2473,Mediterranean Spice,"Fast Food, Mughlai",1325,9357593862,00:00 - 06:00,36,False,Closed,Doshi Circle,"First Floor, Doshi Circle, Himatnagar - 789514",3.7,"[{""code"": ""UPISAVE_2473"", ""min_amount"": 360, ""discount_amount"": 78, ""description"": ""\u20b980 off on orders above \u20b9400 with UPI"", ""payment_method"": ""UPI""}, {""code"": ""WELCOME_2473"", ""min_amount"": 458, ""discount_amount"": 93, ""description"": ""\u20b9100 off on orders above \u20b9500"", ""payment_method"": null}, {""code"": ""CREDITCARD_2473"", ""min_amount"": 778, ""discount_amount"": 158, ""description"": ""\u20b9150 off on orders above \u20b9750 with Credit Card"", ""payment_method"": ""CreditCard""}, {""code"": ""FESTIVAL_2473"", ""min_amount"": 1542, ""discount_amount"": 289, ""description"": ""\u20b9300 off on orders above \u20b91500"", ""payment_method"": null}, {""code"": ""WEEKEND_2473"", ""min_amount"": 908, ""discount_amount"": 192, ""description"": ""\u20b9200 off on orders above \u20b91000"", ""payment_method"": null}]",18.518554144706563,72.1055882357112,2021-09-20 04:14:44,2025-02-05 22:13:56
2475,Urban Thali Kitchen,"Mediterranean, Fast Food",512,9884213685,06:00 - 11:00,36,True,Open,Ganguly Zila,"Third Floor, Ganguly Zila, Himatnagar - 789514",3.8,"[{""code"": ""FIRSTORDER_2475"", ""min_amount"": 295, ""discount_amount"": 77, ""description"": ""\u20b975 off on your first order above \u20b9300"", ""payment_method"": null}, {""code"": ""FESTIVAL_2475"", ""min_amount"": 1580, ""discount_amount"": 306, ""description"": ""\u20b9300 off on orders above \u20b91500"", ""payment_method"": null}, {""code"": ""UPISAVE_2475"", ""min_amount"": 394, ""discount_amount"": 82, ""description"": ""\u20b980 off on orders above \u20b9400 with UPI"", ""payment_method"": ""UPI""}, {""code"": ""DEBITCARD_2475"", ""min_amount"": 586, ""discount_amount"": 102, ""description"": ""\u20b9100 off on orders above \u20b9600 with Debit Card"", ""payment_method"": ""DebitCard""}]",36.05841208428532,76.16583049062086,2021-03-28 00:10:43,2022-02-28 00:42:46
2483,Vanilla Grove,"Italian, Pizza, Bakery",1639,9571418713,06:00 - 11:00,37,False,Closed,Dugar Path,"First Floor, Dugar Path, Kota - 775822",3.6,"[{""code"": ""FESTIVAL_2483"", ""min_amount"": 1351, ""discount_amount"": 286, ""description"": ""\u20b9300 off on orders above \u20b91500"", ""payment_method"": null}, {""code"": ""WELCOME_2483"", ""min_amount"": 542, ""discount_amount"": 94, ""description"": ""\u20b9100 off on orders above \u20b9500"", ""payment_method"": null}, {""code"": ""DEBITCARD_2483"", ""min_amount"": 554, ""discount_amount"": 95, ""description"": ""\u20b9100 off on orders above \u20b9600 with Debit Card"", ""payment_method"": ""DebitCard""}]",33.01455374384604,83.37278533659362,2021-08-30 10:36:27,2023-03-09 16:27:19
2490,Spice Atlas,"Ice Cream, Burger, Japanese",1983,9603084541,16:00 - 19:00,37,True,Open,Dugar Nagar,"Third Floor, Dugar Nagar, Kota - 775822",3.7,"[{""code"": ""FESTIVAL_2490"", ""min_amount"": 1574, ""discount_amount"": 290, ""description"": ""\u20b9300 off on orders above \u20b91500"", ""payment_method"": null}, {""code"": ""CASHBACK_2490"", ""min_amount"": 458, ""discount_amount"": 77, ""description"": ""\u20b975 off on Cash payments above \u20b9500"", ""payment_method"": ""Cash""}, {""code"": ""WEEKEND_2490"", ""min_amount"": 1052, ""discount_amount"": 208, ""description"": ""\u20b9200 off on orders above \u20b91000"", ""payment_method"": null}, {""code"": ""UPISAVE_2490"", ""min_amount"": 397, ""discount_amount"": 87, ""description"": ""\u20b980 off on orders above \u20b9400 with UPI"", ""payment_method"": ""UPI""}, {""code"": ""CREDITCARD_2490"", ""min_amount"": 823, ""discount_amount"": 151, ""description"": ""\u20b9150 off on orders above \u20b9750 with Credit Card"", ""payment_method"": ""CreditCard""}]",36.38317569656234,84.26779789172221,2021-07-21 13:11:52,2022-12-11 04:33:23
2493,Zesty Bites,"Chinese, Cafe",208,9515637925,19:00 - 23:00,37,True,Open,Boase,"Ground Floor, Boase, Kota - 775822",3.9,"[{""code"": ""FIRSTORDER_2493"", ""min_amount"": 310, ""discount_amount"": 69, ""description"": ""\u20b975 off on your first order above \u20b9300"", ""payment_method"": null}, {""code"": ""DEBITCARD_2493"", ""min_amount"": 616, ""discount_amount"": 90, ""description"": ""\u20b9100 off on orders above \u20b9600 with Debit Card"", ""payment_method"": ""DebitCard""}, {""code"": ""WEEKEND_2493"", ""min_amount"": 1019, ""discount_amount"": 199, ""description"": ""\u20b9200 off on orders above \u20b91000"", ""payment_method"": null}, {""code"": ""CREDITCARD_2493"", ""min_amount"": 754, ""discount_amount"": 158, ""description"": ""\u20b9150 off on orders above \u20b9750 with Credit Card"", ""payment_method"": ""CreditCard""}, {""code"": ""CASHBACK_2493"", ""min_amount"": 541, ""discount_amount"": 80, ""description"": ""\u20b975 off on Cash payments above \u20b9500"", ""payment_method"": ""Cash""}]",19.722263592556985,89.3511789647885,2021-03-28 04:21:06,2024-09-10 19:39:03
2495,Tadka Treats,North Indian,1648,9725890745,06:00 - 11:00,37,True,Open,Buch Path,"Ground Floor, Buch Path, Kota - 775822",3.9,"[{""code"": ""FIRSTORDER_2495"", ""min_amount"": 321, ""discount_amount"": 68, ""description"": ""\u20b975 off on your first order above \u20b9300"", ""payment_method"": null}, {""code"": ""SPECIAL_2495"", ""min_amount"": 819, ""discount_amount"": 136, ""description"": ""\u20b9150 off on orders above \u20b9800"", ""payment_method"": null}, {""code"": ""FESTIVAL_2495"", ""min_amount"": 1366, ""discount_amount"": 318, ""description"": ""\u20b9300 off on orders above \u20b91500"", ""payment_method"": null}, {""code"": ""CREDITCARD_2495"", ""min_amount"": 738, ""discount_amount"": 159, ""description"": ""\u20b9150 off on orders above \u20b9750 with Credit Card"", ""payment_method"": ""CreditCard""}, {""code"": ""UPISAVE_2495"", ""min_amount"": 433, ""discount_amount"": 75, ""description"": ""\u20b980 off on orders above \u20b9400 with UPI"", ""payment_method"": ""UPI""}]",36.14981466011487,96.35223625846233,2021-03-28 21:59:37,2021-12-06 19:40:05
2497,Chowmein Express,Beverages,846,9524172504,12:00 - 16:00,37,True,Open,Dalal Path,"Third Floor, Dalal Path, Kota - 775822",3.8,"[{""code"": ""SPECIAL_2497"", ""min_amount"": 726, ""discount_amount"": 149, ""description"": ""\u20b9150 off on orders above \u20b9800"", ""payment_method"": null}, {""code"": ""CASHBACK_2497"", ""min_amount"": 460, ""discount_amount"": 77, ""description"": ""\u20b975 off on Cash payments above \u20b9500"", ""payment_method"": ""Cash""}, {""code"": ""UPISAVE_2497"", ""min_amount"": 361, ""discount_amount"": 77, ""description"": ""\u20b980 off on orders above \u20b9400 with UPI"", ""payment_method"": ""UPI""}]",11.177721349798112,81.78691228196651,2021-06-12 09:37:49,2024-07-16 09:55:31
2521,Alchemy Kitchen,Lebanese,1606,9792771106,11:00 - 15:00,37,True,Open,Nagar Path," Nagar Path, Kota - 775822",3.7,"[{""code"": ""FESTIVAL_2521"", ""min_amount"": 1561, ""discount_amount"": 273, ""description"": ""\u20b9300 off on orders above \u20b91500"", ""payment_method"": null}, {""code"": ""WEEKEND_2521"", ""min_amount"": 1058, ""discount_amount"": 205, ""description"": ""\u20b9200 off on orders above \u20b91000"", ""payment_method"": null}, {""code"": ""CREDITCARD_2521"", ""min_amount"": 737, ""discount_amount"": 152, ""description"": ""\u20b9150 off on orders above \u20b9750 with Credit Card"", ""payment_method"": ""CreditCard""}]",13.66977596494236,93.92243470783104,2021-12-28 16:40:19,2024-05-13 13:28:11
2535,Pasta Mania,Continental,1735,9279111517,06:00 - 11:00,37,True,Open,Dhillon Road," Dhillon Road, Kota - 775822",4.0,"[{""code"": ""WELCOME_2535"", ""min_amount"": 488, ""discount_amount"": 106, ""description"": ""\u20b9100 off on orders above \u20b9500"", ""payment_method"": null}, {""code"": ""CASHBACK_2535"", ""min_amount"": 461, ""discount_amount"": 80, ""description"": ""\u20b975 off on Cash payments above \u20b9500"", ""payment_method"": ""Cash""}, {""code"": ""WEEKEND_2535"", ""min_amount"": 1072, ""discount_amount"": 191, ""description"": ""\u20b9200 off on orders above \u20b91000"", ""payment_method"": null}, {""code"": ""FESTIVAL_2535"", ""min_amount"": 1608, ""discount_amount"": 280, ""description"": ""\u20b9300 off on orders above \u20b91500"", ""payment_method"": null}]",15.26307527434194,89.21327365495063,2021-12-10 21:34:32,2022-06-26 04:11:16
2538,The Golden Spoon,"Japanese, Mughlai, Beverages",813,9509730954,16:00 - 19:00,37,True,Open,Mutti Chowk,"Third Floor, Mutti Chowk, Kota - 775822",3.8,"[{""code"": ""FIRSTORDER_2538"", ""min_amount"": 279, ""discount_amount"": 75, ""description"": ""\u20b975 off on your first order above \u20b9300"", ""payment_method"": null}, {""code"": ""DEBITCARD_2538"", ""min_amount"": 541, ""discount_amount"": 90, ""description"": ""\u20b9100 off on orders above \u20b9600 with Debit Card"", ""payment_method"": ""DebitCard""}, {""code"": ""CASHBACK_2538"", ""min_amount"": 540, ""discount_amount"": 67, ""description"": ""\u20b975 off on Cash payments above \u20b9500"", ""payment_method"": ""Cash""}, {""code"": ""WELCOME_2538"", ""min_amount"": 519, ""discount_amount"": 94, ""description"": ""\u20b9100 off on orders above \u20b9500"", ""payment_method"": null}, {""code"": ""WEEKEND_2538"", ""min_amount"": 1088, ""discount_amount"": 197, ""description"": ""\u20b9200 off on orders above \u20b91000"", ""payment_method"": null}]",22.03082475944796,90.7762748348929,2021-08-07 02:13:16,2024-08-30 00:27:45
2540,Kokan Rasoi Tadka,"Continental, Mexican, Thai",750,9453800662,06:00 - 11:00,37,True,Open,Mammen Road,"Second Floor, Mammen Road, Kota - 775822",3.8,"[{""code"": ""CREDITCARD_2540"", ""min_amount"": 824, ""discount_amount"": 148, ""description"": ""\u20b9150 off on orders above \u20b9750 with Credit Card"", ""payment_method"": ""CreditCard""}, {""code"": ""UPISAVE_2540"", ""min_amount"": 363, ""discount_amount"": 82, ""description"": ""\u20b980 off on orders above \u20b9400 with UPI"", ""payment_method"": ""UPI""}, {""code"": ""FIRSTORDER_2540"", ""min_amount"": 272, ""discount_amount"": 80, ""description"": ""\u20b975 off on your first order above \u20b9300"", ""payment_method"": null}, {""code"": ""FESTIVAL_2540"", ""min_amount"": 1529, ""discount_amount"": 321, ""description"": ""\u20b9300 off on orders above \u20b91500"", ""payment_method"": null}]",16.45753812390093,82.13890934846043,2021-11-12 09:58:11,2025-01-31 21:31:56
2542,Amore Pizzeria,"Street Food, Bakery, South Indian",1528,9120255385,16:00 - 19:00,37,True,Open,Chanda Ganj,"Second Floor, Chanda Ganj, Kota - 775822",3.8,"[{""code"": ""SPECIAL_2542"", ""min_amount"": 868, ""discount_amount"": 141, ""description"": ""\u20b9150 off on orders above \u20b9800"", ""payment_method"": null}, {""code"": ""FESTIVAL_2542"", ""min_amount"": 1567, ""discount_amount"": 278, ""description"": ""\u20b9300 off on orders above \u20b91500"", ""payment_method"": null}, {""code"": ""WELCOME_2542"", ""min_amount"": 469, ""discount_amount"": 91, ""description"": ""\u20b9100 off on orders above \u20b9500"", ""payment_method"": null}, {""code"": ""FIRSTORDER_2542"", ""min_amount"": 314, ""discount_amount"": 71, ""description"": ""\u20b975 off on your first order above \u20b9300"", ""payment_method"": null}]",22.949665538607952,78.36322066530205,2021-09-21 13:04:25,2025-04-01 03:36:17
2550,Aurum,Cafe,1125,9814542608,06:00 - 11:00,37,True,Open,Chada Nagar,"Ground Floor, Chada Nagar, Kota - 775822",3.9,"[{""code"": ""UPISAVE_2550"", ""min_amount"": 365, ""discount_amount"": 76, ""description"": ""\u20b980 off on orders above \u20b9400 with UPI"", ""payment_method"": ""UPI""}, {""code"": ""FESTIVAL_2550"", ""min_amount"": 1486, ""discount_amount"": 329, ""description"": ""\u20b9300 off on orders above \u20b91500"", ""payment_method"": null}, {""code"": ""CASHBACK_2550"", ""min_amount"": 460, ""discount_amount"": 76, ""description"": ""\u20b975 off on Cash payments above \u20b9500"", ""payment_method"": ""Cash""}]",14.996498759888974,69.94077634537375,2021-10-23 22:36:57,2023-07-14 15:34:48
